name,niche,address,state,phone_number,website,email,result_url
Efly AG Reisebüro,agenzie di viaggio,"Langstrasse 214, 8005 Zürich, Switzerland",NOT AVAILABLE,044 666 06 06,https://efly.ch/,info@efly.ch,https://maps.google.com/?cid=12177817622960096149
Best of Switzerland Tours AG,agenzie di viaggio,"Sihlquai Bus Station, Limmatstrasse 2, 8005 Zürich, Switzerland",NOT AVAILABLE,044 710 50 50,https://www.switzerland-tours.ch/,info@switzerland-tours.chgeneral,https://maps.google.com/?cid=4982182676850788474
Legends Travel GmbH,agenzie di viaggio,"Klosbachstrasse 45, 8032 Zürich, Switzerland",NOT AVAILABLE,044 250 44 77,http://www.legendstravel.ch/,info@legendstravel.ch,https://maps.google.com/?cid=1990250744098636060
Latin America Tours,agenzie di viaggio,"Kreuzpl. 1, 8032 Zürich, Switzerland",NOT AVAILABLE,044 515 24 24,https://www.latinamericatours.eu/,info@latinamericatours.eu,https://maps.google.com/?cid=9485982896825344144
travel worldwide travel agency AG,agenzie di viaggio,"Kirchgasse 22, 8001 Zürich, Switzerland",NOT AVAILABLE,043 500 61 00,http://www.travelworldwide.ch/,info@travelworldwide.ch,https://maps.google.com/?cid=8401522173412520107
airtours Travel Boutique,agenzie di viaggio,"Augustinergasse 17, 8001 Zürich, Switzerland",NOT AVAILABLE,044 267 50 50,https://www.tui.ch/de/reisebuero/zuerich/airtours-travel-boutique,2675050airtours@tui.chzurzeit,https://maps.google.com/?cid=17729046181358026796
Sky Travels GmbH,agenzie di viaggio,"Pflanzschulstrasse 99, 8004 Zürich, Switzerland",NOT AVAILABLE,043 311 90 02,http://www.skytravels.ch/,info@skytravels.ch,https://maps.google.com/?cid=7436148816361348914
Dorado Latin Tours,agenzie di viaggio,"Herostrasse 12, 8048 Zürich, Switzerland",NOT AVAILABLE,058 702 60 45,http://www.dorado-latintours.ch/,info@dorado-latintours.ch,https://maps.google.com/?cid=1569054786266738513
viajes,agenzie di viaggio,"Militärstrasse 87, 8004 Zürich, Switzerland",NOT AVAILABLE,044 241 24 41,http://viajes.ch/,info@viajes.ch,https://maps.google.com/?cid=8171814429812671640
Move by Australasia AG,agenzie di viaggio,"Schaffhauserstrasse 89, 8057 Zürich, Switzerland",NOT AVAILABLE,044 372 22 70,http://www.movereisen.ch/,travel@movereisen.ch,https://maps.google.com/?cid=5993485771728031318
Cosa Travel Ltd,agenzie di viaggio,"Utoquai 55, 8008 Zürich, Switzerland",NOT AVAILABLE,044 269 40 40,http://www.cosatravel.ch/,mail@cosatravel.ch,https://maps.google.com/?cid=1949100580215580255
Zürich Tourist Information,agenzie di viaggio,"Hauptbahnhof, 8001 Zürich, Switzerland",NOT AVAILABLE,044 215 40 00,https://www.zuerich.com/,NOT AVAILABLE,https://maps.google.com/?cid=6938327641016489089
Blue Moon Travel,agenzie di viaggio,"Josefstrasse 110, 8005 Zürich, Switzerland",NOT AVAILABLE,044 364 00 00,http://www.travelboerse.ch/,NOT AVAILABLE,https://maps.google.com/?cid=13898503082611344086
S Travel GmbH,agenzie di viaggio,"Luisenstrasse 21, 8005 Zürich, Switzerland",NOT AVAILABLE,044 419 91 00,http://www.stravel.ch/,NOT AVAILABLE,https://maps.google.com/?cid=4163294017714514162
Australasia & Africa Reisen AG,agenzie di viaggio,"Schaffhauserstrasse 89, 8057 Zürich, Switzerland",NOT AVAILABLE,044 450 73 75,http://www.australasia.ch/,NOT AVAILABLE,https://maps.google.com/?cid=9067365138810990273
Global Travel GmbH,agenzie di viaggio,"Hagenholzstrasse 81A, 8050 Zürich, Switzerland",NOT AVAILABLE,044 310 77 66,http://www.globaltravel.ch/,info@globaltravel.ch,https://maps.google.com/?cid=12180841896105338711
Smeraldo Tours AG,agenzie di viaggio,"Grindelstrasse 6, 8304 Wallisellen, Switzerland",NOT AVAILABLE,044 908 50 10,http://www.smeraldo-tours.ch/,NOT AVAILABLE,https://maps.google.com/?cid=16705907205705327412
PADI Travel,agenzie di viaggio,"Splügenstrasse 6, 8002 Zürich, Switzerland",NOT AVAILABLE,(786) 220-3482,https://travel.padi.com/,NOT AVAILABLE,https://maps.google.com/?cid=15136573524908884760
Albis Reisen,agenzie di viaggio,"Albisriederstrasse 334, 8047 Zürich, Switzerland",NOT AVAILABLE,044 406 10 10,https://yellow.local.ch/d/7iby6xbjlqB9NTclNiWlkg,NOT AVAILABLE,https://maps.google.com/?cid=5124443661845584217
AF Travel Agency /Brasil Reisen,agenzie di viaggio,"Brasil Reisen, St. Jakobstrasse 44, 8004 Zürich, Switzerland",NOT AVAILABLE,043 243 99 66,NOT AVAILABLE,NOT AVAILABLE,https://maps.google.com/?cid=6561169374675547320
Holiday Maker Tours AG,agenzie di viaggio,"Stampfenbachstrasse 144, 8006 Zürich, Switzerland",NOT AVAILABLE,044 215 30 80,http://www.holidaymaker.ch/,NOT AVAILABLE,https://maps.google.com/?cid=15909672950821685929
Vögele Reisen AG,agenzie di viaggio,"Baslerstrasse 60, 8048 Zürich, Switzerland",NOT AVAILABLE,043 960 86 10,http://www.voegele-reisen.ch/,NOT AVAILABLE,https://maps.google.com/?cid=8571585181680872605
Fibula Travel,agenzie di viaggio,"Schwamendingenstrasse 42, 8050 Zürich, Switzerland",NOT AVAILABLE,044 572 32 22,https://www.fibulatravel.ch/,02info@fibulatravel.ch,https://maps.google.com/?cid=2677566242864216988
Balkan Holidays (Switzerland) AG,agenzie di viaggio,"Beckenhofstrasse 72, 8006 Zürich, Switzerland",NOT AVAILABLE,044 362 80 70,https://balkan-holidays.ch/,NOT AVAILABLE,https://maps.google.com/?cid=1994598263185694858
BCD Travel - Zürich,agenzie di viaggio,"Thurgauerstrasse 39, 8050 Zürich, Switzerland",NOT AVAILABLE,044 529 24 00,https://www.bcdtravel.com/placemarks/switzerland/?utm_source=googlemaps&utm_medium=organic&utm_campaign=googlemaps&utm_content=zuerich,NOT AVAILABLE,https://maps.google.com/?cid=16697712073253818572
ltur Reisebüro Zürich,agenzie di viaggio,"Löwenstrasse 43, 8001 Zürich, Switzerland",NOT AVAILABLE,044 260 20 45,https://www.ltur.com/de/information/shopfinder/l/zurich/lowenstrasse-43/1151494,NOT AVAILABLE,https://maps.google.com/?cid=3956759143000842696
Willi Travel AG,agenzie di viaggio,"Wilstrasse 15, 8600 Dübendorf, Switzerland",NOT AVAILABLE,044 802 90 90,http://www.willitravel.ch/,NOT AVAILABLE,https://maps.google.com/?cid=8741521730895502571
Gray Line Zurich,agenzie di viaggio,"Jupiterstrasse 35, 8032 Zürich, Switzerland",NOT AVAILABLE,044 383 78 78,http://www.meiertours.ch/,meier@meiertours.ch,https://maps.google.com/?cid=2890851486038429582
Swiss Travel Bureau GmbH,agenzie di viaggio,"Stockerstrasse 38, 8002 Zürich, Switzerland",NOT AVAILABLE,NOT AVAILABLE,http://www.swiss-voyages.com/,NOT AVAILABLE,https://maps.google.com/?cid=18233674374811449852
STC Switzerland Travel Center AG,agenzie di viaggio,"Binzstrasse 38, 8045 Zürich, Switzerland",NOT AVAILABLE,043 210 55 00,https://switzerlandtravelcentre.com/de-ch,NOT AVAILABLE,https://maps.google.com/?cid=2829370654241128865
ACS Reisen AG,agenzie di viaggio,"Bahnhofstrasse 88, 8001 Zürich, Switzerland",NOT AVAILABLE,044 387 75 10,https://www.acs-travel.ch/,info@acs-travel.chnewsletter,https://maps.google.com/?cid=15595354719739435318
Prime - The Travelers' Service AG,agenzie di viaggio,"Seilergraben 55, 8001 Zürich, Switzerland",NOT AVAILABLE,044 260 64 64,https://www.primetravel.ch/,info@primetravel.ch,https://maps.google.com/?cid=12549586199835692316
Polo Reisen AG,agenzie di viaggio,"Regensdorferstrasse 3, 8049 Zürich, Switzerland",NOT AVAILABLE,044 341 94 00,https://yellow.local.ch/d/MoJziu0JVgeOr5xJL4M2Mg,NOT AVAILABLE,https://maps.google.com/?cid=6433472342199365115
ZSG-Schifffahrt,agenzie di viaggio,"Schiffsteg, Tram Bürklipl., 8001 Zürich, Switzerland",NOT AVAILABLE,044 487 13 33,https://www.zsg.ch/,33ahoi@zsg.ch,https://maps.google.com/?cid=13980935425944400037
"Fenice Viaggi - Agenzia Viaggi Stabio, Svizzera",agenzie di viaggio,"primo piano, Via Giulia 43, 6855 Stabio, Switzerland",NOT AVAILABLE,091 647 47 30,http://www.feniceviaggi.com/,info@feniceviaggi.com,https://maps.google.com/?cid=6995899652836090440
Allianz Travel Switzerland,agenzie di viaggio,"Richtipl. 1, 8304 Wallisellen, Switzerland",NOT AVAILABLE,044 283 32 22,http://www.allianz-travel.ch/,NOT AVAILABLE,https://maps.google.com/?cid=5010135187487562297
Swiss epic tours GmbH,agenzie di viaggio,"Flughofstrasse 47, 8153 Rümlang, Switzerland",NOT AVAILABLE,079 811 59 69,http://www.swissepictours.com/,NOT AVAILABLE,https://maps.google.com/?cid=12986201962836910269
Insight Reisen GmbH,agenzie di viaggio,"Fröhlichstrasse 42, 8008 Zürich, Switzerland",NOT AVAILABLE,044 280 62 62,http://www.insight-reisen.com/,NOT AVAILABLE,https://maps.google.com/?cid=16469482225813340469
Lets Travel,agenzie di viaggio,"Rue de Berne 3, 1201 Genève, Switzerland",DE,022 731 82 82,https://www.letstravel.ch/,NOT AVAILABLE,https://maps.google.com/?cid=7140392377024899167
ad gentes | Agence de Voyage,agenzie di viaggio,"Rue de Lausanne 42, 1201 Genève, Switzerland",DE,022 344 57 80,https://www.ad-gentes.ch/,NOT AVAILABLE,https://maps.google.com/?cid=3507878965304281296
Mondo Voyages - Agence de voyage,agenzie di viaggio,"Rue de la Servette 19, 1201 Genève, Switzerland",DE,022 733 61 61,http://mondo.com/,NOT AVAILABLE,https://maps.google.com/?cid=14414618112553567118
Terres Sauvages SA,agenzie di viaggio,"Rue Prévost-Martin 51, 1205 Genève, Switzerland",NOT AVAILABLE,022 320 50 80,http://terres-sauvages.ch/,info@terres-sauvages.ch,https://maps.google.com/?cid=11587040487142187702
BANZI Voyages SA,agenzie di viaggio,"Bd James-Fazy 12, 1201 Genève, Switzerland",NOT AVAILABLE,022 731 11 31,http://banzivoyages.com/,info@banzivoyages.com,https://maps.google.com/?cid=18225894893436201489
Voyageurs du Monde,agenzie di viaggio,"Rue de la Rôtisserie 19, 1204 Genève, Switzerland",DE,022 519 12 10,https://www.voyageursdumonde.ch/,NOT AVAILABLE,https://maps.google.com/?cid=7822404789427871648
VIP VOYAGES SA,agenzie di viaggio,"Rue Jean-Petitot 4, 1204 Genève, Switzerland",NOT AVAILABLE,022 317 07 70,https://vipvoyages.ch/,info@vipvoyages.ch,https://maps.google.com/?cid=12040500946516428365
Cristal Voyages SA‎,agenzie di viaggio,"Rue Rousseau 14, 1201 Genève, Switzerland",NOT AVAILABLE,022 715 04 40,http://www.cristal-voyages.ch/,NOT AVAILABLE,https://maps.google.com/?cid=8050971517701724305
Terres d'Aventure : Agence de voyages Genève,agenzie di viaggio,"Rue de la Rôtisserie 19, 1204 Genève, Switzerland",DE,022 519 12 20,https://www.terdav.com/,NOT AVAILABLE,https://maps.google.com/?cid=7493327486087899423
TUI Agence de voyage Genève Balexert,agenzie di viaggio,"Av. Louis-Casaï 27, 1209 Vernier, Switzerland",NOT AVAILABLE,022 979 33 40,https://www.tui.ch/fr/agence-de-voyage/geneve/tui-geneve-balexert/,40alexandre.devin@tui.chmes,https://maps.google.com/?cid=6901368995775575184
Au Tigre Vanillé - Agence de Voyage Genève,agenzie di viaggio,"Rue de Rive 8, 1204 Genève, Switzerland",DE,022 817 37 37,https://www.autigrevanille.ch/fr/,NOT AVAILABLE,https://maps.google.com/?cid=4738168726955321245
Delta Voyages SA,agenzie di viaggio,"Quai du Seujet 28, 1201 Genève, Switzerland",NOT AVAILABLE,022 909 10 10,http://www.delta-voyages.ch/,info@delta-voyages.ch,https://maps.google.com/?cid=7564143596931648489
BC Business Class Sa,agenzie di viaggio,"Grand-Rue 23, 1204 Genève, Switzerland",NOT AVAILABLE,022 818 00 40,https://bc-business-class.digitalone.site/,NOT AVAILABLE,https://maps.google.com/?cid=17047903564685258843
Géo-Découverte,agenzie di viaggio,"adresse provisoire jusqu'à mai 2026, Rue Necker 3, 1201 Genf, Switzerland",NOT AVAILABLE,022 716 30 00,https://www.geo-decouverte.com/,info@geo-decouverte.coms,https://maps.google.com/?cid=3290579633456605135
Trans Continental SA,agenzie di viaggio,"Rte de Florissant 66, 1206 Genève, Switzerland",DE,022 347 27 27,https://transcontinental.ch/offre,NOT AVAILABLE,https://maps.google.com/?cid=5391330231663299787
WTA World Travel Agency SA,agenzie di viaggio,"Rue du Jeu-de-l'Arc 15, 1207 Genève, Switzerland",NOT AVAILABLE,022 741 14 82,https://yellow.local.ch/d/B95I5jQgl50Eq5wnhwk8iA,NOT AVAILABLE,https://maps.google.com/?cid=2347883701209993053
Club Med Voyages Genève,agenzie di viaggio,"Rue François-Versonnex 5, 1207 Genève, Switzerland",NOT AVAILABLE,022 817 12 34,https://agence.clubmed.fr/fr/suisse/geneve/geneve/geneve/club-med-voyages-geneve-220,cmv.geneve@clubmed.com,https://maps.google.com/?cid=17310733507836992527
Charter Voyages SA,agenzie di viaggio,"Rte des Acacias 25, 1227 Genève, Switzerland",NOT AVAILABLE,022 734 35 35,http://www.charter.ch/,info@charter.chadresse,https://maps.google.com/?cid=12877593599167659230
GVA Travel Aeroport,agenzie di viaggio,"C.P. 350, Geneva Airport, Rte de l'Aéroport 21, 1215 Le Grand-Saconnex, Switzerland",DE,022 575 31 41,http://gvatravel.ch/,NOT AVAILABLE,https://maps.google.com/?cid=17795999444814218800
"Planète Evasion, Safaris",agenzie di viaggio,"Rue du Pont-Neuf 3, 1227 Carouge, Switzerland",NOT AVAILABLE,022 342 37 77,http://www.planete-evasion.ch/,info@planete-evasion.ch,https://maps.google.com/?cid=6490798582226163704
Agence de voyages Genève - VOS VOYAGES by Culture Air Travel,agenzie di viaggio,"Av. de Champel 8C, 1206 Genève, Switzerland",DE,022 839 81 81,NOT AVAILABLE,NOT AVAILABLE,https://maps.google.com/?cid=3596574012418997715
Dal Voyages,agenzie di viaggio,"Rue Lissignol 5, 1201 Genève, Switzerland",NOT AVAILABLE,022 344 72 27,http://www.dal-voyages.ch/,NOT AVAILABLE,https://maps.google.com/?cid=12300763584094910579
ADN voyage Sàrl,agenzie di viaggio,"Rue de Carouge 36, 1205 Genève, Switzerland",DE,076 304 00 07,https://adntravel.com/,NOT AVAILABLE,https://maps.google.com/?cid=8574559541875023369
Executive Travel SA,agenzie di viaggio,"Av. Louis-Casaï 80, 1216 Genève, Switzerland",NOT AVAILABLE,022 929 89 29,http://www.e-travel.ch/,business@e-travel.ch,https://maps.google.com/?cid=1182640778548560523
Nouvelle-Zélande à la carte,agenzie di viaggio,"Rue de Montchoisy 21, 1207 Genève, Switzerland",DE,022 786 14 86,https://nouvelle-zelande-a-la-carte.com/?utm_source=mapsGeneve&utm_medium=organic&utm_campaign=Google_local_business,NOT AVAILABLE,https://maps.google.com/?cid=5172749779498038627
Ultramarina,agenzie di viaggio,"Rue de Montchoisy 21, 1207 Genève, Switzerland",DE,022 786 14 86,https://ch.ultramarina.com/?utm_source=mapsGeneve&utm_medium=organic&utm_campaign=Google_local_business,NOT AVAILABLE,https://maps.google.com/?cid=14463527259029846986
Swisstours Voyages,agenzie di viaggio,"Rue François-Bonivard, 1211 Genève, Switzerland",NOT AVAILABLE,022 781 04 04,http://swisstours-voyages.ch/,NOT AVAILABLE,https://maps.google.com/?cid=13706253368339161493
"Fiesta Travel, Röschli",agenzie di viaggio,"Pl. de Cornavin 14, 1201 Genève, Switzerland",DE,022 738 58 24,http://fiestatravel.ch/,info@fiestatravel.ch,https://maps.google.com/?cid=5930064513432469818
Huwans Genève,agenzie di viaggio,"Rue Prévost-Martin 51, 1205 Genève, Switzerland",NOT AVAILABLE,022 320 50 80,https://www.huwans.com/,NOT AVAILABLE,https://maps.google.com/?cid=17747546173577945534
SwissTours,agenzie di viaggio,"Rue François-Bonivard 8, 1201 Genève, Switzerland",NOT AVAILABLE,022 781 04 04,https://stts.tripbooker.ch/EN/,NOT AVAILABLE,https://maps.google.com/?cid=18166996160246986379
BK Organisation,agenzie di viaggio,"Chem. des Tulipiers 13, 1208 Genève, Switzerland",NOT AVAILABLE,022 737 21 70,http://www.bkorganisation.com/,info@bkorganisation.com,https://maps.google.com/?cid=14479292224646048935
MAGANUCO Voyages,agenzie di viaggio,"Rue des Arpenteurs 16, 1217 Meyrin, Switzerland",NOT AVAILABLE,022 780 81 80,http://www.maganuco-voyages.ch/,NOT AVAILABLE,https://maps.google.com/?cid=6351716634127246859
Kosovafly Sàrl,agenzie di viaggio,"Rue de Lyon 32, 1203 Genève, Switzerland",DE,022 340 50 59,http://www.kosovafly.ch/,NOT AVAILABLE,https://maps.google.com/?cid=4692701488842834779
Agencia de viajes,agenzie di viaggio,"Rue de Richemont 10, 1202 Genève, Switzerland",DE,NOT AVAILABLE,NOT AVAILABLE,NOT AVAILABLE,https://maps.google.com/?cid=7030390164408001778
"Fenice Viaggi - Agenzia Viaggi Stabio, Svizzera",agenzie di viaggio,"primo piano, Via Giulia 43, 6855 Stabio, Switzerland",NOT AVAILABLE,091 647 47 30,http://www.feniceviaggi.com/,info@feniceviaggi.com,https://maps.google.com/?cid=6995899652836090440
Safaris à la carte,agenzie di viaggio,"Rue de Montchoisy 21, 1207 Genève, Switzerland",DE,022 786 14 01,https://ch.safaris-a-la-carte.com/?utm_source=mapsGeneve&utm_medium=organic&utm_campaign=Google_local_business,NOT AVAILABLE,https://maps.google.com/?cid=18104714620155443115
Miki Travel Agency SA,agenzie di viaggio,"Rue de Chantepoulet 1, 1201 Genève, Switzerland",DE,022 731 51 44,http://www.miki-travel.ch/,NOT AVAILABLE,https://maps.google.com/?cid=9006686080047920460
Kuoni,agenzie di viaggio,"DER Touristik Suisse AG, Cr de Rive 8, 1204 Genève, Switzerland",AG,058 702 60 60,https://www.kuoni.ch/fr/consultation/agences-de-voyages/kuoni-voyages-geneve-cours-de-rive,NOT AVAILABLE,https://maps.google.com/?cid=6256283575811545110
Japan Tours,agenzie di viaggio,"Rue de Lausanne 42, 1201 Genève, Switzerland",DE,022 908 61 85,https://www.ad-gentes.ch/destinations/asie/japon,NOT AVAILABLE,https://maps.google.com/?cid=10812352178467734606
Gateway Tours,agenzie di viaggio,"Via dei Gorini 2, 6900 Lugano, Switzerland",NOT AVAILABLE,091 911 34 70,http://www.gatewaytours.ch/,info@gatewaytours.ch,https://maps.google.com/?cid=17106614522419302789
ad gentes,agenzie di viaggio,"1er étage Meyrin Centre, Av. de Feuillasse 24, 1217 Meyrin, Switzerland",DE,022 782 44 44,https://www.ad-gentes.ch/,NOT AVAILABLE,https://maps.google.com/?cid=14566596343126762355
Cocoa Travel Lugano,agenzie di viaggio,"Via Ginevra 5, 6900 Lugano, Switzerland",NOT AVAILABLE,091 970 28 08,http://www.cocoa.travel/,NOT AVAILABLE,https://maps.google.com/?cid=16640191885286448768
Vola e va Sagl,agenzie di viaggio,"Via Marcacci 11, 6600 Locarno, Switzerland",NOT AVAILABLE,091 752 22 05,http://www.volaeva.ch/,info@volaeva.ch,https://maps.google.com/?cid=13299134362995541111
Geneva Tourist Information Centre,agenzie di viaggio,"Cornavin Train Station, Pl. de Cornavin 7/1st floor, 1201 Genève, Switzerland",DE,022 909 70 00,https://genevatourism.co/visit,NOT AVAILABLE,https://maps.google.com/?cid=4403603773029272388
GVA Travel Ville,agenzie di viaggio,"Rue de Lausanne 64, 1202 Genève, Switzerland",DE,022 575 31 41,http://gvatravel.ch/,NOT AVAILABLE,https://maps.google.com/?cid=2491378649045164459
ES Voyages + Vacances SA,agenzie di viaggio,"Grand-Rue 17, 1204 Genève, Switzerland",NOT AVAILABLE,022 909 28 00,https://www.voyagesetvacances.ch/,info@voyagesetvacances.ch,https://maps.google.com/?cid=10822983660649877270
Luna Viaggi,agenzie di viaggio,"Corso S. Gottardo 107C, 6830 Chiasso, Switzerland",NOT AVAILABLE,091 261 49 94,https://lunaviaggi.com/,gruppi@lunaviaggi.com,https://maps.google.com/?cid=4569745992889649347
Pink Travel AG,agenzie di viaggio,"Rümelinspl. 19, 4001 Basel, Switzerland",NOT AVAILABLE,061 365 90 00,http://www.pinktravel.ch/,travel@pinktravel.ch,https://maps.google.com/?cid=4940684696324801561
Travel Shop Ticket & Travel Service Wagner AG,agenzie di viaggio,"Schneidergasse 27, 4051 Basel, Switzerland",NOT AVAILABLE,061 261 70 12,http://www.travelshop.ch/,travelshop@travelshop.ch,https://maps.google.com/?cid=8431421018668070818
Globetrotter Travel Service Basel,agenzie di viaggio,"Rechte Seite, Falknerstrasse 4, 4001 Basel, Switzerland",NOT AVAILABLE,061 269 86 86,https://www.globetrotter.ch/basel,basel@globetrotter.ch,https://maps.google.com/?cid=9830361780149009508
Magic Travel Services GmbH,agenzie di viaggio,"c/o Constanta AG, Flühbergweg 2, 4107 Ettingen, Switzerland",AG,061 588 01 58,http://www.magicswitzerland.com/,NOT AVAILABLE,https://maps.google.com/?cid=4602442983881144536
Madagascar Madagaskarhaus PRIORI Reisen,agenzie di viaggio,"Holeestrasse 6, 4054 Basel, Switzerland",NOT AVAILABLE,061 332 19 27,https://madagaskarhaus.ch/,NOT AVAILABLE,https://maps.google.com/?cid=6091791435234450395
Cleopatra Travel,agenzie di viaggio,"Freie Str. 17, 4051 Basel, Switzerland",NOT AVAILABLE,061 302 00 80,https://www.cleopatra.ch/,info@cleopatra.ch,https://maps.google.com/?cid=4693170247033014759
Laros,agenzie di viaggio,"Freie Str. 9/2. OG, 4001 Basel, Switzerland",OG,061 756 80 80,https://laros.ch/,NOT AVAILABLE,https://maps.google.com/?cid=5016478919203625803
Tüm Reisen GmbH,agenzie di viaggio,"Tellpl. 11, 4053 Basel, Switzerland",NOT AVAILABLE,061 363 33 55,http://tumreisen.ch/,NOT AVAILABLE,https://maps.google.com/?cid=18010421330150124362
Glur Reisen AG,agenzie di viaggio,"Spalenring 111, 4009 Basel, Switzerland",NOT AVAILABLE,061 205 94 94,http://www.glur.ch/,basele-mailglur.ch.reisen@.glur.ch.reisenglur.chfollow,https://maps.google.com/?cid=11524040517512424789
Divertimento GmbH Opera Travel & concert tours,agenzie di viaggio,"Malzgasse 7A, 4052 Basel, Switzerland",NOT AVAILABLE,061 281 11 88,http://divertimento.ch/,info@divertimento.chtel,https://maps.google.com/?cid=2638117028875570580
holidays.ch AG,agenzie di viaggio,"Centralbahnstrasse 9, 4051 Basel, Switzerland",NOT AVAILABLE,0840 800 877,http://www.holidays.ch/,NOT AVAILABLE,https://maps.google.com/?cid=15341257703388338877
Tourist Information Barfüsserplatz - Basel Tourismus,agenzie di viaggio,"Steinenberg 14, 4051 Basel, Switzerland",NOT AVAILABLE,061 268 68 68,https://www.basel.com/,NOT AVAILABLE,https://maps.google.com/?cid=13608084991720216496
Koch-Reisen,agenzie di viaggio,"Lyon-Strasse 43, 4053 Basel, Switzerland",NOT AVAILABLE,061 333 20 30,http://www.koch-reisen.net/,30info@koch-reisen.net,https://maps.google.com/?cid=4920865921173162462
Stiefvater Reisen (Schweiz),agenzie di viaggio,"St. Jakobs-Strasse 200, 4052 Basel, Switzerland",NOT AVAILABLE,061 303 73 73,http://www.stiefvater-reisen.ch/kontakt/,binzeninfo@stiefvater-reisen.comtel,https://maps.google.com/?cid=181814621846739992
"Flexsis Basel, Life Sciences (Global Personal Partner AG)",agenzie di viaggio,"Hochbergerstrasse 70, 4057 Basel, Switzerland",NOT AVAILABLE,061 205 62 62,https://www.flexsis.ch/de/agenturen/,mailaarau@flexsis.ch,https://maps.google.com/?cid=12322629725068564337
Khronos Personalberatung,agenzie di viaggio,"Steinentorstrasse 35, 4051 Basel, Switzerland",NOT AVAILABLE,061 205 70 10,https://www.khronos.ch/,NOT AVAILABLE,https://maps.google.com/?cid=3177086220443996925
EDP Personalberatung GmbH,agenzie di viaggio,"Freie Str. 17, 4001 Basel, Switzerland",NOT AVAILABLE,061 269 90 60,http://www.edp-basel.ch/,60info@edp-basel.ch,https://maps.google.com/?cid=14007867049098888541
Aris Personalberatung GmbH,agenzie di viaggio,"Freie Str. 2, 4001 Basel, Switzerland",NOT AVAILABLE,061 278 80 80,http://www.aris-personal.ch/,contact@aris-personal.ch,https://maps.google.com/?cid=18441490648098199260
Basel Tourismus - Management Office / Back Office,agenzie di viaggio,"Aeschenvorstadt 36, 4051 Basel, Switzerland",NOT AVAILABLE,061 268 68 68,http://www.basel.com/,NOT AVAILABLE,https://maps.google.com/?cid=5719605943045702565
Leif Reisen AG,agenzie di viaggio,"Hirzbodenpark 22, 4052 Basel, Switzerland",NOT AVAILABLE,061 271 00 21,http://www.leifreisen.ch/,NOT AVAILABLE,https://maps.google.com/?cid=18366318619739104207
TUI Travel Center Basel Aeschengraben,agenzie di viaggio,"Aeschengraben 10, 4051 Basel, Switzerland",NOT AVAILABLE,061 278 93 00,https://www.tui.ch/de/reisebuero/basel/tui-basel-aeschengraben,2789300basel.aeschengraben@tui.chzurzeit,https://maps.google.com/?cid=14446870337754293319
TUI Reisebüro Basel Gerbergasse,agenzie di viaggio,"Gerbergasse 20, 4001 Basel, Switzerland",NOT AVAILABLE,061 264 92 64,https://www.tui.ch/de/reisebuero/basel/tui-basel-gerbergasse,2649264basel.gerbergasse@tui.chzurzeit,https://maps.google.com/?cid=9604363224225763158
Cesar's Ag,agenzie di viaggio,"Centralbahnpl. 12, 4051 Basel, Switzerland",NOT AVAILABLE,061 831 14 58,http://www.cesars.ch/,NOT AVAILABLE,https://maps.google.com/?cid=4596439465854877172
knecht reisen ag,agenzie di viaggio,"Aeschengraben 6, 4051 Basel, Switzerland",NOT AVAILABLE,061 272 67 40,https://www.knecht-reisen.ch/,e-mailknecht-reisen.ch.info@.knecht-reisen.ch.infoknecht-reisen.chfollow,https://maps.google.com/?cid=17817286516546845113
Blue Dolphin Reisen AG,agenzie di viaggio,"Claragraben 163, 4057 Basel, Switzerland",NOT AVAILABLE,061 693 43 00,https://www.facebook.com/Blue-Dolphin-Reisen-940491272684167/,NOT AVAILABLE,https://maps.google.com/?cid=15400233687860241515
ltur Reisebüro Basel,agenzie di viaggio,"Steinenvorstadt 65, 4051 Basel, Switzerland",NOT AVAILABLE,061 283 25 35,https://www.ltur.com/de/information/shopfinder/l/basel/steinenvorstadt-65/1151375,NOT AVAILABLE,https://maps.google.com/?cid=11690873999040208223
"Miro Reisen, Perimex AG",agenzie di viaggio,"Solothurnerstrasse 72, 4053 Basel, Switzerland",NOT AVAILABLE,061 361 13 10,http://miro-reisen.ch/,info@miro-reisen.ch,https://maps.google.com/?cid=18253174342364078919
Hotelplan Reisebüro Basel City,agenzie di viaggio,"Gerbergasse 24, 4001 Basel, Switzerland",NOT AVAILABLE,061 260 30 00,https://www.hotelplan.ch/reisebuero-filiale/hotelplan-basel-city/CH9171,00basel-city@hotelplan.chbarrierefreier,https://maps.google.com/?cid=2572916232945649069
Travel Point,agenzie di viaggio,"Greifengasse 36, 4058 Basel, Switzerland",NOT AVAILABLE,061 693 30 80,https://www.travelpoint.ch/,roger.berberat@travelpoint.ch,https://maps.google.com/?cid=13734219745204123260
Reisebüro Prishtina GmbH,agenzie di viaggio,"Haltingerstrasse 12, 4057 Basel, Switzerland",NOT AVAILABLE,061 693 47 10,https://www.rb-prishtina.ch/,info@rb-prishtina.ch,https://maps.google.com/?cid=1709734983015576421
Net Reisen & Handels GmbH,agenzie di viaggio,"Klybeckstrasse 83, 4057 Basel, Switzerland",NOT AVAILABLE,061 683 31 20,NOT AVAILABLE,NOT AVAILABLE,https://maps.google.com/?cid=14288692619758589295
Rhytaxi Ihr Wassertaxi in Basel auf dem Rhein,agenzie di viaggio,"Unterer Rheinweg 10, 4058 Basel, Switzerland",NOT AVAILABLE,061 273 14 14,https://www.rhytaxi-basel.com/,NOT AVAILABLE,https://maps.google.com/?cid=13909144150839791396
Scandella Luxury Adventure Travel GmbH,agenzie di viaggio,"Thannerstrasse 36, 4054 Basel, Switzerland",NOT AVAILABLE,079 475 94 29,http://www.scandellatravel.ch/,NOT AVAILABLE,https://maps.google.com/?cid=11651576359908955054
Media Reisen,agenzie di viaggio,"Petersgraben 33, 4003 Basel, Switzerland",NOT AVAILABLE,061 260 92 60,https://www.mediareisen.ch/,NOT AVAILABLE,https://maps.google.com/?cid=11581740935376927840
KUONI Reisebüro Basel Gerbergasse,agenzie di viaggio,"Gerbergasse 26, 4001 Basel, Switzerland",NOT AVAILABLE,058 702 62 12,https://www.kuoni.ch/beratung/reisebueros/kuoni-reisen-basel-gerbergasse,NOT AVAILABLE,https://maps.google.com/?cid=3466139917628798752
"Busmiete.ch AG, Busvermietung & Carreisen Basel",agenzie di viaggio,"Genuastrasse 15, 4142 Münchenstein, Switzerland",NOT AVAILABLE,061 545 95 95,https://www.busmiete.ch/,info@busmiete.ch,https://maps.google.com/?cid=9526893809219118529
Swissgrand tours,agenzie di viaggio,"Freie Str. 17, 4051 Basel, Switzerland",NOT AVAILABLE,NOT AVAILABLE,http://www.swissgrandtours.com/,info@swissgrandtours.com,https://maps.google.com/?cid=9508872245506744410
Nayak Reisen AG,agenzie di viaggio,"Steinengraben 42, 4051 Basel, Switzerland",NOT AVAILABLE,061 206 88 88,https://www.nayak.ch/,info@nayak.ch,https://maps.google.com/?cid=13732642921107652569
KUONI Reisebüro Basel Aeschenvorstadt,agenzie di viaggio,"Aeschenvorstadt 21, 4010 Basel, Switzerland",NOT AVAILABLE,058 702 66 96,https://www.kuoni.ch/beratung/reisebueros/kuoni-reisen-basel-aeschenvorstadt,NOT AVAILABLE,https://maps.google.com/?cid=5511532323644307155
Baselunterderlupe,agenzie di viaggio,"Petersgraben 45, 4051 Basel, Switzerland",NOT AVAILABLE,079 280 73 89,http://www.baselunterderlupe.ch/,NOT AVAILABLE,https://maps.google.com/?cid=9697300340222912430
Belvista Travel,agenzie di viaggio,"Hammerstrasse 84, 4057 Basel, Switzerland",NOT AVAILABLE,076 589 61 60,http://instagram.com/belvistatravelch,NOT AVAILABLE,https://maps.google.com/?cid=9065636842063468637
Scandella Luxury Adventure Travel GmbH,agenzie di viaggio,"Spalenberg 23, 4051 Basel, Switzerland",NOT AVAILABLE,NOT AVAILABLE,NOT AVAILABLE,NOT AVAILABLE,https://maps.google.com/?cid=10419885816155779115
bta first travel,agenzie di viaggio,"Falknerstrasse 3, 4001 Basel, Switzerland",NOT AVAILABLE,061 205 97 97,https://www.btafirst.com/,NOT AVAILABLE,https://maps.google.com/?cid=4139215126870569088
Linguista Sprachaufenthalte Basel,agenzie di viaggio,"Petersgraben 33, 4051 Basel, Switzerland",NOT AVAILABLE,061 260 92 70,https://www.linguista.ch/de/,NOT AVAILABLE,https://maps.google.com/?cid=17117749619988910257
CWT Basel,agenzie di viaggio,"Münchensteinerstrasse 43, 4052 Basel, Switzerland",NOT AVAILABLE,058 322 23 30,https://www.mycwt.com/countries/switzerland/,NOT AVAILABLE,https://maps.google.com/?cid=13611675192109032018
Tauchsafari,agenzie di viaggio,"Singerstrasse 8, 4052 Basel, Switzerland",NOT AVAILABLE,076 505 90 40,NOT AVAILABLE,NOT AVAILABLE,https://maps.google.com/?cid=146692684155365038
INFOBÜRO TÜRKEI,agenzie di viaggio,"Klybeckstrasse 88, 4057 Basel, Switzerland",NOT AVAILABLE,061 322 49 29,NOT AVAILABLE,NOT AVAILABLE,https://maps.google.com/?cid=1160729222223658274
Open Visa Service,agenzie di viaggio,"Haltingerstrasse 34, 4057 Basel, Switzerland",NOT AVAILABLE,076 516 54 23,https://openvisaservice.ch/,info@openvisaservice.ch,https://maps.google.com/?cid=3873799080067223824
Bunte Welt Reisen,agenzie di viaggio,"Basel-St. Alban, 4052 Basel, Switzerland",NOT AVAILABLE,078 644 38 18,https://buchen.amondo.de/agt/karina-c02844,support@amondo.de,https://maps.google.com/?cid=18375374205364428804
HL Travel Swiss GmbH,agenzie di viaggio,"Lindenhofstrasse 34, 4052 Basel, Switzerland",NOT AVAILABLE,061 271 47 30,https://hltravel.com/,NOT AVAILABLE,https://maps.google.com/?cid=10254242637326538889
"Adras Travel - Tours and Travel to Uzbekistan, Kyrgyzstan and Tajikistan",agenzie di viaggio,"Lerchenweg 7, 4123 Allschwil, Switzerland",NOT AVAILABLE,077 443 69 98,https://adrastravel.com/,info@adrastravel.com,https://maps.google.com/?cid=2215803892739324509
avrasya,agenzie di viaggio,"Güterstrasse 169, 4053 Basel, Switzerland",NOT AVAILABLE,061 506 50 60,http://www.avrasya-travel.com/,NOT AVAILABLE,https://maps.google.com/?cid=16067185598180003388
"Reisebüro Fly Way, Caroline Müller Messaoud",agenzie di viaggio,"Angensteinerstrasse 48, 4052 Basel, Switzerland",NOT AVAILABLE,061 312 02 13,NOT AVAILABLE,NOT AVAILABLE,https://maps.google.com/?cid=5167946244227907585
Australia Tours,agenzie di viaggio,"Sempacherstrasse 30, 4053 Basel, Switzerland",NOT AVAILABLE,061 361 98 73,https://yellow.local.ch/d/n8DZbywrsYHT12JV4VOmKg,NOT AVAILABLE,https://maps.google.com/?cid=9980168711545513548
Mykonos Nomads,agenzie di viaggio,"Gerbergasse 23, 4051 Basel, Switzerland",NOT AVAILABLE,079 322 34 01,https://www.mykonosnomads.com/,NOT AVAILABLE,https://maps.google.com/?cid=17979282606284443423
Boa Lingua Basel - Sprachaufenthalte weltweit,agenzie di viaggio,"Falknerstrasse 26, 4001 Basel, Switzerland",NOT AVAILABLE,061 264 19 19,https://www.boalingua.ch/?utm_source=google&utm_medium=organic&utm_campaign=gbp,88info@boalingua.chfiliale,https://maps.google.com/?cid=17009134019730289081
Flussbus,agenzie di viaggio,"Westquaistrasse 39, 4057 Basel, Switzerland",NOT AVAILABLE,079 839 79 79,http://www.flussbus.ch/,rhyno@flussbus.ch,https://maps.google.com/?cid=83698170910366998
Guidesantai GmbH,agenzie di viaggio,"Aeschengraben 29, 4051 Basel, Switzerland",NOT AVAILABLE,076 233 35 36,https://guidesantai.com/,switzerlandemailinfo@guidesantai.compusat,https://maps.google.com/?cid=16687675077370834605
Rivercruise Line AG,agenzie di viaggio,"St. Alban-Anlage 64, 4052 Basel, Switzerland",NOT AVAILABLE,061 313 58 17,https://www.rivercruise-line.eu/,NOT AVAILABLE,https://maps.google.com/?cid=15935523393846851521
Pro Linguis Sprachaufenthalte,agenzie di viaggio,"Greifengasse 36, 4058 Basel, Switzerland",NOT AVAILABLE,061 515 59 09,https://prolinguis.ch/,info@prolinguis.ch,https://maps.google.com/?cid=17466815167028758280
Reisebüro Frossard AG,agenzie di viaggio,"Sattelgasse 4, 4001 Basel, Switzerland",NOT AVAILABLE,061 264 55 55,http://www.frossard-reisen.ch/,info@frossard-reisen.ch,https://maps.google.com/?cid=13897426803933482166
Conexao Suica,agenzie di viaggio,"Oberwilerstrasse 74, 4102 Binningen, Switzerland",NOT AVAILABLE,079 343 52 24,NOT AVAILABLE,NOT AVAILABLE,https://maps.google.com/?cid=11482321224004365230
Venez Discover Switzerland,agenzie di viaggio,"Marktpl. 1, 4001 Basel, Switzerland",NOT AVAILABLE,061 568 73 88,NOT AVAILABLE,NOT AVAILABLE,https://maps.google.com/?cid=11161269904073434229
Ammari Travel,agenzie di viaggio,"Eisenbahnweg 20, 4058 Basel, Switzerland",NOT AVAILABLE,079 340 62 76,NOT AVAILABLE,NOT AVAILABLE,https://maps.google.com/?cid=4473751915686365815
Rhytaxi Basel GmbH,agenzie di viaggio,"Westquaistr. 39, Büro, Westquaistrasse 4, 4057 Basel, Switzerland",NOT AVAILABLE,061 273 14 14,https://www.rhytaxi-basel.com/,NOT AVAILABLE,https://maps.google.com/?cid=13839840578506155223
GTU Travel AG,agenzie di viaggio,"Blotzheimerstrasse 28A, 4055 Basel, Switzerland",NOT AVAILABLE,061 206 95 95,http://www.sporttickets.ch/,NOT AVAILABLE,https://maps.google.com/?cid=18050480647131324557
Catterfly Travel AG,agenzie di viaggio,"Blauenstrasse 67, 4054 Basel, Switzerland",NOT AVAILABLE,NOT AVAILABLE,http://www.catterfly.com/,NOT AVAILABLE,https://maps.google.com/?cid=17951774000876871892
