name,niche,address,state,phone_number,website,email,result_url
Viaggia Quasi Gratis,agenzie di viaggio,"Via Giuseppe Buonocore, 31/33,35, 80143 Napoli NA, Italy",NA,081 562 2821,http://www.viaggiaquasigratis.com/,NOT AVAILABLE,https://maps.google.com/?cid=17341733794634760917
Agenzia - Avenida Viaggi - Napoli,agenzie di viaggio,"Via Tommaso Caravita, 22, 80134 Napoli NA, Italy",NA,081 1957 6737,http://www.avenidaviaggi.it/,NOT AVAILABLE,https://maps.google.com/?cid=13450540055846565395
Scoop Travel Service S.r.l.,agenzie di viaggio,"Via Gian Lorenzo Bernini, 90a, 80129 Napoli NA, Italy",NA,081 556 4898,https://www.scooptravel.it/,operativo@scooptravel.it,https://maps.google.com/?cid=8699170797921568825
Agenzia di Viaggi Marytour Napoli,agenzie di viaggio,"Via dei Fiorentini, 47/49, 80133 Napoli NA, Italy",NA,081 551 0512,https://www.marytour.it/,NOT AVAILABLE,https://maps.google.com/?cid=10138060725045570468
Gondwana Viaggi,agenzie di viaggio,"Piazza Gian Battista Vico, 43, 80137 Napoli NA, Italy",NA,081 780 9590,NOT AVAILABLE,NOT AVAILABLE,https://maps.google.com/?cid=4129411735336480985
Lab. Gialù,agenzie di viaggio,"V. Salvator Rosa, 80136 Napoli NA, Italy",NA,081 1956 7312,http://www.piratinviaggio.com/,info@piratinviaggio.com,https://maps.google.com/?cid=16549160935333706663
Agenzia Leoga Viaggi - Napoli Self Tour,agenzie di viaggio,"Via Stella, 136, 80137 Napoli NA, Italy",NA,081 557 1101,https://www.leogaviaggi.com/,NOT AVAILABLE,https://maps.google.com/?cid=1181545817743492025
Mister White Travel,agenzie di viaggio,"Piazza Giovanni Bovio, 20, 80133 Napoli NA, Italy",NA,081 551 2478,http://www.misterwhitetravel.it/,NOT AVAILABLE,https://maps.google.com/?cid=12217346640047471106
La Casa di Tourist,agenzie di viaggio,"Via Chiaia, 216, 80132 Napoli NA, Italy",NA,081 376 8725,https://www.lacasaditourist.com/,info@lacasaditourist.comloginlogin,https://maps.google.com/?cid=14026582657673974294
AGENZIA VIAGGI DOVE C'E' IL MARE NAPOLI,agenzie di viaggio,"C.so S. Giovanni a Teduccio, 838, 80146 Napoli NA, Italy",NA,081 1887 0818,https://www.doveceilmare.it/,NOT AVAILABLE,https://maps.google.com/?cid=10537483343141886106
Schema Vacanze Agenzia Viaggi - Tour Operator,agenzie di viaggio,"Centro direzionale, is. g1, Via Giovanni Porzio, 4, 80143 Napoli NA, Italy",NA,081 767 0387,https://www.schemavacanze.it/,info@schemavacanze.it,https://maps.google.com/?cid=11125191744810576272
GREETINGS FROM ... Travel & Tourism,agenzie di viaggio,"Via Antonio Tari, 18, 80138 Napoli NA, Italy",NA,081 563 4261,http://www.salutida.com/,info@salutida.com,https://maps.google.com/?cid=16065812251773089946
inStazione servizi turistici,agenzie di viaggio,"P.za Giuseppe Garibaldi, 80142 Napoli NA, Italy",NA,388 076 9471,https://instazione.it/,NOT AVAILABLE,https://maps.google.com/?cid=9908927097641176045
Venezuelana Agenzia di viaggi,agenzie di viaggio,"Viale Colli Aminei, 134, 80131 Napoli NA, Italy",NA,081 1981 0287,http://venezuelanatours.com/,NOT AVAILABLE,https://maps.google.com/?cid=12420509856232049250
Chiaia Viaggi di Daver Sas,agenzie di viaggio,"Largo Ferrandina, 1, 80121 Napoli NA, Italy",NA,081 1957 4904,http://chiaiaviaggi.it/,info@chiaiaviaggi.itindirizzolargo,https://maps.google.com/?cid=3331531500320854308
Viaggi Insoliti per Conoscere il Mondo di Free Time sas di Scanu Antonio e C.,agenzie di viaggio,"Via Ponte di Tappia, 43, 80133 Napoli NA, Italy",NA,081 552 7878,NOT AVAILABLE,NOT AVAILABLE,https://maps.google.com/?cid=10738978698447214885
Travel Tips - Agenzia di Viaggi,agenzie di viaggio,"Via Orazio, 149 A, 80122 Napoli NA, Italy",NA,081 640041,http://www.traveltips.it/,info@traveltips.itcontattaciil,https://maps.google.com/?cid=6501984477581658027
Atomika Viaggi,agenzie di viaggio,"Via Fabrizio Pignatelli, 2, 80134 Napoli NA, Italy",NA,081 1865 8680,http://www.atomikaviaggi.it/,conferme@atomikaviaggi.itindirizzovia,https://maps.google.com/?cid=17381539869288922232
Fancy Tour,agenzie di viaggio,"Via Francesco Petrarca, 161, 80122 Napoli NA, Italy",NA,081 575 2442,https://www.fancy.it/,info@fancy.it,https://maps.google.com/?cid=3828518802875174536
"Agenzia viaggi ""Turistas viaggi da sogno"" Napoli",agenzie di viaggio,"Strada Provinciale Madonnelle, 101, 80147 Napoli NA, Italy",NA,081 1867 1722,http://www.turistasviaggi.it/,NOT AVAILABLE,https://maps.google.com/?cid=15504432737791716242
Agenzia Che Viaggio,agenzie di viaggio,"Via Giuseppe di Vittorio, 70, 80029 Sant'Antimo NA, Italy",NA,081 843 4124,https://www.agenziacheviaggio.it/,info@agenziacheviaggio.it,https://maps.google.com/?cid=15182976260800056169
Si Travel Napoli Vomero,agenzie di viaggio,"Via Sigmund Freud, 59, 80131 Napoli NA, Italy",NA,081 545 4200,https://www.facebook.com/freud59,NOT AVAILABLE,https://maps.google.com/?cid=11281415873500849008
Dimmi Dove e Quando srl,agenzie di viaggio,"Via Colonnello Carlo Lahalle, 11, 80141 Napoli NA, Italy",NA,350 942 9339,https://www.instagram.com/dimmidoveequando_official?igsh=Nm92dDNydjBlYm01,NOT AVAILABLE,https://maps.google.com/?cid=12926185383537174289
Agenzia Viaggi Landia Napoli,agenzie di viaggio,"Corso Secondigliano, 550, 80144 Napoli NA, Italy",NA,081 543 6329,http://www.viaggilandia.it/,NOT AVAILABLE,https://maps.google.com/?cid=3274696873982424229
Agenzia Viaggi Skeea Travel -Napoli,agenzie di viaggio,"Corso Bruno Buozzi, 203, 80147 Napoli NA, Italy",NA,081 1895 6398,http://www.skeeatravel.com/,NOT AVAILABLE,https://maps.google.com/?cid=211916553355545586
Travel Cloud Capodichino,agenzie di viaggio,"Via Udalrigo Masoni, 65, 80141 Napoli NA, Italy",NA,375 793 9224,https://www.instagram.com/p/Ch5KIKXohlc/?igshid=YmMyMTA2M2Y=,NOT AVAILABLE,https://maps.google.com/?cid=12860702871171844016
corazontravels,agenzie di viaggio,"Via Nuovo Tempio, 169, 80144 Napoli NA, Italy",NA,081 1951 1006,NOT AVAILABLE,NOT AVAILABLE,https://maps.google.com/?cid=16674887162032265234
Kiwi Viaggi Napoli,agenzie di viaggio,"Corso Arnaldo Lucci, 51, 80142 Napoli NA, Italy",NA,081 1956 6019,https://www.kiwiviaggi.it/,info@kiwiviaggi.it,https://maps.google.com/?cid=14052853437355295225
Bongi Travel Tour Operator,agenzie di viaggio,"Piazza Vanvitelli, 15, 80129 Napoli NA, Italy",NA,081 579 5195,http://www.bongitravel.it/,prenotazioni@bongitravel.it,https://maps.google.com/?cid=1611220655801709659
A.v.t. Travel,agenzie di viaggio,"Via Eduardo Suarez, 3, 80129 Napoli NA, Italy",NA,081 558 6592,http://www.avt-travel.it/,NOT AVAILABLE,https://maps.google.com/?cid=1200107062411211725
Si Travel Ponticelli - Pronti per viaggiare,agenzie di viaggio,"Strada Provinciale Madonnelle, 121, 80147 Napoli NA, Italy",NA,081 1830 0760,NOT AVAILABLE,NOT AVAILABLE,https://maps.google.com/?cid=15051741958737484128
Mergellina Travel S.R.L.,agenzie di viaggio,"C.so Vittorio Emanuele, 19/20, 80122 Napoli NA, Italy",NA,081 761 8672,http://www.mergellinatravel.it/,NOT AVAILABLE,https://maps.google.com/?cid=3079610152335716127
TuristaGO di M.R. Viaggi Srl,agenzie di viaggio,"Via Pallucci, 45, 80126 Napoli NA, Italy",NA,081 726 7976,https://turistago.com/,NOT AVAILABLE,https://maps.google.com/?cid=9021942179138496376
Mama Tours Travel Designer,agenzie di viaggio,"Piazza delle Medaglie D'Oro, 41, 80129 Napoli NA, Italy",NA,081 578 9292,http://www.mamatours.it/,info@mamatours.com,https://maps.google.com/?cid=4399368533656705643
Viaggi in altalena,agenzie di viaggio,"Via Duomo, 178, 80138 Napoli NA, Italy",NA,081 298111,http://www.viaggiinaltalena.com/,info@viaggiinaltalena.it,https://maps.google.com/?cid=10281857860574687493
Odino Viaggi,agenzie di viaggio,"C.so Vittorio Emanuele, 88 a/b, 80121 Napoli NA, Italy",NA,081 248 2145,http://www.odinoviaggi.it/,NOT AVAILABLE,https://maps.google.com/?cid=5369990838605341236
Relaxing Tours,agenzie di viaggio,"Corso Giuseppe Garibaldi, 410, 80142 Napoli NA, Italy",NA,081 202034,NOT AVAILABLE,NOT AVAILABLE,https://maps.google.com/?cid=7559333834694994636
Emily Travel S.a.s.,agenzie di viaggio,"Via Antonio Sogliano, 14, 80137 Napoli NA, Italy",NA,081 1883 3367,http://www.emilytravel.it/,NOT AVAILABLE,https://maps.google.com/?cid=10273350531640425534
Schilizzi Viaggi,agenzie di viaggio,"Via Matteo Schilizzi, 9, 80133 Napoli NA, Italy",NA,081 497 1282,http://www.schilizziviaggi.it/,NOT AVAILABLE,https://maps.google.com/?cid=9828645461960379166
Viaggiare a Colori Napoli,agenzie di viaggio,"Via Nicola Rocco, 69, 80139 Napoli NA, Italy",NA,375 625 6544,https://www.viaggiareacolorinapoli.com/,NOT AVAILABLE,https://maps.google.com/?cid=3020452939108722125
Millanta Viaggi,agenzie di viaggio,"Via Nardones, 63, 80132 Napoli NA, Italy",NA,081 015 3440,NOT AVAILABLE,NOT AVAILABLE,https://maps.google.com/?cid=10040528039721942882
Equador Viaggi,agenzie di viaggio,"Via Giovanni Chiarini, 9, 80125 Napoli NA, Italy",NA,081 1992 9436,https://equadorviaggi.it/,081.5046756info@equadorviaggi.itnapoli,https://maps.google.com/?cid=12437522967795026603
Trial Travel,agenzie di viaggio,"Via Guglielmo Melisurgo, 4, 80133 Napoli NA, Italy",NA,081 552 9090,http://www.trialtravel.it/,booking@trialtravel.com,https://maps.google.com/?cid=2407559807669335561
Il Vacanziere,agenzie di viaggio,"Via dell'Epomeo, 334/E, 80126 Napoli NA, Italy",NA,081 1878 7235,NOT AVAILABLE,NOT AVAILABLE,https://maps.google.com/?cid=9364938957445451392
Agenzia di Viaggi Gedimax Sas,agenzie di viaggio,"Via Cardinale Guglielmo Sanfelice, 38, 80134 Napoli NA, Italy",NA,081 420 3602,http://www.gedimaxviaggi.it/,NOT AVAILABLE,https://maps.google.com/?cid=15870034589898949829
Viaggiamoci Su,agenzie di viaggio,"Via Emilio Scaglione, 450, 80145 Napoli NA, Italy",NA,081 1956 7994,http://www.viaggiamocisu.it/,NOT AVAILABLE,https://maps.google.com/?cid=3506192054777582018
Empire Viaggi Srls,agenzie di viaggio,"Via Nicolò Garzilli, 10/12, 80126 Napoli NA, Italy",NA,081 766 2307,http://www.empireviaggi.it/,NOT AVAILABLE,https://maps.google.com/?cid=10997219303584435584
Sefar Said Viaggi,agenzie di viaggio,"Viale Colli Aminei, 385, 80131 Napoli NA, Italy",NA,081 743 4372,https://www.facebook.com/sefarsaidviaggi/,NOT AVAILABLE,https://maps.google.com/?cid=13356827014678919951
Lornet S.r.l.,agenzie di viaggio,"Via San Bartolomeo, 1, 80133 Napoli NA, Italy",NA,081 551 3708,http://www.lornetviaggi.it/,NOT AVAILABLE,https://maps.google.com/?cid=17262042160270596005
Venetours Viaggi di M. Cozzi - MSC POINT Agenzia Viaggi e tour Operator,agenzie di viaggio,"Via Edoardo Nicolardi, 118, 80131 Napoli NA, Italy",NA,081 1821 1278,http://www.venetours.it/,info@venetours.it,https://maps.google.com/?cid=12513212510827009749
Comunque Vada Viaggi,agenzie di viaggio,"Via Vincenzo Bellini, 70, 80135 Napoli NA, Italy",NA,081 1854 3604,NOT AVAILABLE,NOT AVAILABLE,https://maps.google.com/?cid=13382681746523641059
Airspes Sas,agenzie di viaggio,"18 Via Oberdan Guglielmo, Napoli, NA 80134, 80078 Napoli NA, Italy",NA,081 551 2343,https://www.airspesviaggi.it/,NOT AVAILABLE,https://maps.google.com/?cid=12254539538832401019
Vomero Travel srl,agenzie di viaggio,"Via S. Gennaro Ad Antignano, 88/90/92, 80129 Napoli NA, Italy",NA,081 578 0355,http://www.vomerotravel.it/,NOT AVAILABLE,https://maps.google.com/?cid=6701124450921353043
Railway Travel,agenzie di viaggio,"Corso Novara, 54, 80143 Napoli NA, Italy",NA,351 869 8984,http://www.railwaytravel.it/,NOT AVAILABLE,https://maps.google.com/?cid=6018872972652993151
Merliani Viaggi Srl,agenzie di viaggio,"Via Giovanni Merliani, 124, 80129 Napoli NA, Italy",NA,081 556 8079,http://www.merlianiviaggi.com/,NOT AVAILABLE,https://maps.google.com/?cid=14447184377628454561
AGENZIA VIAGGI ALI TRAVEL,agenzie di viaggio,"Via Cesario Console, 2, 80132 Napoli NA, Italy",NA,081 764 8530,NOT AVAILABLE,NOT AVAILABLE,https://maps.google.com/?cid=7535343974014264854
NEW DREAMING VIAGGI,agenzie di viaggio,"C.so Vittorio Emanuele, 113/G, 80121 Napoli NA, Italy",NA,081 663701,NOT AVAILABLE,NOT AVAILABLE,https://maps.google.com/?cid=7085351538480696740
Partenze In Corso,agenzie di viaggio,"P.za Municipio, 88, 80133 Napoli NA, Italy",NA,081 1851 9828,http://www.partenzeincorso.it/,NOT AVAILABLE,https://maps.google.com/?cid=5755416840298885697
Furore Viaggi,agenzie di viaggio,"Via Pablo Picasso, 26, 80126 Napoli NA, Italy",NA,081 588 8921,https://www.furoreviaggi.it/,NOT AVAILABLE,https://maps.google.com/?cid=6972296372412277805
Consales Viaggi e Turismo,agenzie di viaggio,"Via Foggia, 3, 80143 Napoli NA, Italy",NA,081 554 4165,NOT AVAILABLE,NOT AVAILABLE,https://maps.google.com/?cid=11607878936106522547
Napoli Official Tour,agenzie di viaggio,"Via Domenico Capitelli, 9, 80134 Napoli NA, Italy",NA,081 551 1064,http://www.napoliofficialtour.com/,info@napoliofficialtour.it,https://maps.google.com/?cid=14078259517506211098
Napoli Centrale Turismo,agenzie di viaggio,"P.za Principe Umberto, 80142 Napoli NA, Italy",NA,351 232 4940,https://www.napolicentraleturismo.com/,NOT AVAILABLE,https://maps.google.com/?cid=12307497403877584294
Andrea Vento Viaggi,agenzie di viaggio,"Presso ""le botteghe, Via Salvatore di Giacomo, snc, 80040 Volla NA, Italy",NA,081 773 5662,http://www.ventoviaggi.it/,web@ventoviaggi.it,https://maps.google.com/?cid=15458489808754249612
I Viaggi Solari Del Vesuvio S.n.c. Di Albano Gianluca E Spagnuolo Ilar,agenzie di viaggio,"Via Nuova Poggioreale, 164, 80143 Napoli NA, Italy",NA,081 553 5580,http://www.iviaggidelvesuvio.it/chi-siamo,NOT AVAILABLE,https://maps.google.com/?cid=4098556041039701318
Viaggia Napoli Incoming,agenzie di viaggio,"Vico Storto Purgatorio Ad Arco, 9, 80138 Napoli NA, Italy",NA,351 738 6988,NOT AVAILABLE,NOT AVAILABLE,https://maps.google.com/?cid=9389157703861896669
Gems Travel,agenzie di viaggio,"Via Santa Lucia, 9/13, 80132 Napoli NA, Italy",NA,081 764 0729,http://www.gemstravel.it/,NOT AVAILABLE,https://maps.google.com/?cid=5516431426479656549
I Viaggi di Tarsia,agenzie di viaggio,"Via Tarsia, 45, 80134 Napoli NA, Italy",NA,081 1932 3578,http://iviaggiditarsia.it/,info@iviaggiditarsia.it,https://maps.google.com/?cid=1883531283649225947
Malibran Viaggi Srl,agenzie di viaggio,"Via M, Via Miguel Cervantes de Saavedra, 47, 80133 Napoli NA, Italy",DE,081 551 7898,https://it-it.facebook.com/malibran.viaggi/,NOT AVAILABLE,https://maps.google.com/?cid=12532274869574225447
Welcome Travel Sud Srl,agenzie di viaggio,"Via Salvatore Tommasi, 62, 80135 Napoli NA, Italy",NA,081 544 9127,http://www.vacanzewelcometravel.it/,NOT AVAILABLE,https://maps.google.com/?cid=3571557924061037619
Aladino Viaggi - Ag. Vomero (NA),agenzie di viaggio,"Via Francesco Cilea, 157, 80127 Napoli NA, Italy",NA,081 579 9108,http://www.aladino.it/,preventivi@aladino.it,https://maps.google.com/?cid=8282271705322008889
Fran Am Travel di Francesco Milano,agenzie di viaggio,"Via del Parco Margherita, 21, 80121 Napoli NA, Italy",NA,081 421078,http://www.franamtravel.it/index.php/it/,NOT AVAILABLE,https://maps.google.com/?cid=3026614250555738498
A. & G. Travel s.a.s.Di Argentino Eleonora @TRAVELISLIFE,agenzie di viaggio,"Viale Michelangelo, 67, 80129 Napoli NA, Italy",NA,081 012 3774,http://www.travelislife.it/,NOT AVAILABLE,https://maps.google.com/?cid=11157263304664946026
Blue Paradise Viaggi Di Francesca Vitale,agenzie di viaggio,"Via Carlo Doria, 9, 80135 Napoli NA, Italy",NA,379 202 8333,http://www.blueparadiseviaggi.com/,info@blueparadiseviaggi.it,https://maps.google.com/?cid=16767444807613483915
Puerto Svago - Arenaccia,agenzie di viaggio,"Via Arenaccia, 114, 80141 Napoli NA, Italy",NA,081 1838 2769,http://www.puertosvago.it/,info@puertosvago.it,https://maps.google.com/?cid=3099882219903297351
Nabilia Viaggi,agenzie di viaggio,"Via Gabriele Jannelli, 202, 80131 Napoli NA, Italy",NA,081 770 7541,NOT AVAILABLE,NOT AVAILABLE,https://maps.google.com/?cid=11056265292545346745
Easy Tours,agenzie di viaggio,"Via Medina, 29, 80133 Napoli NA, Italy",NA,081 551 9498,NOT AVAILABLE,NOT AVAILABLE,https://maps.google.com/?cid=1005069988188810846
Napoli Private Tours,agenzie di viaggio,"Via Giuseppe Pica, 26, 80142 Napoli NA, Italy",NA,337 844 594,https://www.napoliprivatetours.com/,NOT AVAILABLE,https://maps.google.com/?cid=2374964772534181419
Agenzia Viaggi Madura Viaggi,agenzie di viaggio,"Via Bartolo Longo, 68, 80147 Napoli NA, Italy",NA,081 577 1399,http://www.maduraviaggi.it/,NOT AVAILABLE,https://maps.google.com/?cid=15714750344094811135
AGENZIE di VIAGGIO,agenzie di viaggio,"Via Miguel Cervantes de Saavedra, 55/27, 80133 Napoli NA, Italy",DE,NOT AVAILABLE,NOT AVAILABLE,NOT AVAILABLE,https://maps.google.com/?cid=14764030719741875760
Hobby Viaggi,agenzie di viaggio,"Via Santa Teresa A Chiaia, 12, 80121 Napoli NA, Italy",NA,081 415824,https://www.hobbyviaggi.com/,info@hobbyviaggi.comindirizzovia,https://maps.google.com/?cid=18351746429388156306
Agenzia Viaggi Napoli - Travel Now Si Travel Network,agenzie di viaggio,"Piazza Mercato, 338, 80133 Napoli NA, Italy",NA,377 395 0631,NOT AVAILABLE,NOT AVAILABLE,https://maps.google.com/?cid=15472805305578526882
I MIEI VIAGGI IN EUROPA di Capasso Giuseppe - IMVIE,agenzie di viaggio,"Via S. Paolo, 5, 80026 Casoria NA, Italy",NA,320 679 0027,http://www.imieiviaggiineuropa.it/,imvie@imieiviaggiineuropa.it,https://maps.google.com/?cid=2419588461224899015
I Viaggi dell'Airone,agenzie di viaggio,"Via Vannella Gaetani, 27, 80121 Napoli NA, Italy",NA,081 412020,https://www.iviaggidellairone.com/,disposizione081.41.20.20preventivi@iviaggidellairone.com,https://maps.google.com/?cid=1505134903931216108
Travel Gold World Agenzia Viaggi,agenzie di viaggio,"Via Pietro Borsieri, 32, 20159 Milano MI, Italy",MI,02 6682 3107,https://www.edenviaggi.it/dettaglio-agenzia/34384/travel-gold-world,NOT AVAILABLE,https://maps.google.com/?cid=11633930057125063176
Insieme Viaggi,agenzie di viaggio,"Via Marco Ulpio Traiano, 60, 20149 Milano MI, Italy",MI,02 3300 2117,https://www.agenziaviaggiltc.it/,NOT AVAILABLE,https://maps.google.com/?cid=7222857888581631518
JAMBO TOUR,agenzie di viaggio,"Via Giuseppe Ripamonti, 137, 20141 Milano MI, Italy",MI,02 4311 7337,http://www.jambotour.it/,jambo@jambotour.it,https://maps.google.com/?cid=8543071358920513020
Dove Vuoi Tour,agenzie di viaggio,"Via Alessandro Tadino, 19, 20124 Milano MI, Italy",MI,328 458 3813,https://dovevuoitour.it/,info@dovevuoitour.it,https://maps.google.com/?cid=15929237803429608265
Arenatours - Viaggi Esotici,agenzie di viaggio,"Viale Monza, 347, 20126 Milano MI, Italy",MI,02 0062 4923,https://arenatours.com/it/,hello@arenatours.com,https://maps.google.com/?cid=8865343480011959928
Milan Visitor Center - Zani Viaggi,agenzie di viaggio,"Largo Cairoli, 18, 20121 Milano MI, Italy",MI,02 867131,https://www.zaniviaggi.com/,NOT AVAILABLE,https://maps.google.com/?cid=18403191581837357674
Viaggi di Nozze network,agenzie di viaggio,"Via Gianfranco Zuretti, 50, 20125 Milano MI, Italy",MI,02 5810 0748,http://www.viaggidinozze.net/,NOT AVAILABLE,https://maps.google.com/?cid=78674652439560072
Agenzia Viaggi 5 Giornate,agenzie di viaggio,"Piazza Cinque Giornate, 15, 20129 Milano MI, Italy",MI,02 5519 4646,http://www.5giornate.it/,agenzia@5giornate.it,https://maps.google.com/?cid=11632687483843680624
La Bussola On The Road,agenzie di viaggio,"Via Altaguardia, 1, 20135 Milano MI, Italy",MI,02 8219 6055,https://www.labussola.it/,NOT AVAILABLE,https://maps.google.com/?cid=16920532452517216403
Viaggimmagine - Viaggi su misura,agenzie di viaggio,"Via Giuseppe Govone, 30, 20155 Milano MI, Italy",MI,02 3361 1823,https://viaggimmagine.it/,NOT AVAILABLE,https://maps.google.com/?cid=1680806595930551343
Proposta Viaggi,agenzie di viaggio,"Via Feltre, 1, 20132 Milano MI, Italy",MI,02 264 0347,http://www.propostaviaggi.it/,NOT AVAILABLE,https://maps.google.com/?cid=15312227532803748579
Agenzia Viaggi TU VIAGGI,agenzie di viaggio,"Viale Cassala, 75, 20143 Milano MI, Italy",MI,02 8942 2109,http://www.tuviaggimilano.com/,NOT AVAILABLE,https://maps.google.com/?cid=14466006438242293951
bluviaggi,agenzie di viaggio,"Via Domenico Cimarosa, 12/3, 20144 Milano MI, Italy",MI,02 4810 0154,http://www.bluviaggi.com/,NOT AVAILABLE,https://maps.google.com/?cid=8864326012393500729
SBS Viaggi,agenzie di viaggio,"Via Bagutta, 13, 20121 Milano MI, Italy",MI,349 582 6932,https://sbsviaggi.it/?utm_source=google&utm_medium=business-profile&utm_campaign=local,info@sbsviaggi.it,https://maps.google.com/?cid=6334974279506327206
Agenzia Viaggi Maison du Voyage,agenzie di viaggio,"Via Giambellino, 15, 20146 Milano MI, Italy",MI,02 4943 6581,http://www.maisonduvoyage.it/,preventivi@maisonduvoyage.it,https://maps.google.com/?cid=9025441671645348024
Friendly Travel di Fima Viaggi e Turismo,agenzie di viaggio,"Via Achille Zezon, 5, 20124 Milano MI, Italy",MI,02 6698 2128,http://www.fimaviaggieturismo.it/,NOT AVAILABLE,https://maps.google.com/?cid=6492704737865915938
Davide Travel,agenzie di viaggio,"Via Copernico, 47, 20125 Milano MI, Italy",MI,02 3674 0651,https://www.davidetravel.it/,info@davidetravel.it,https://maps.google.com/?cid=3266943440586853605
BarbaViaggi,agenzie di viaggio,"Via Bagutta, 13, 20121 Milano MI, Italy",MI,378 304 0650,http://www.barbaviaggi.it/,NOT AVAILABLE,https://maps.google.com/?cid=12858773371196320699
Last Minute Tour UVET VIAGGI Milano - Agenzia Viaggi,agenzie di viaggio,"Via Ponte Seveso, 23, 20125 Milano MI, Italy",MI,02 6698 9323,https://www.artravelservice.com/,NOT AVAILABLE,https://maps.google.com/?cid=9913691647789258868
MOVE SRL - Agenzia Viaggi - Esperienze su Misura,agenzie di viaggio,"Via Palermo 20, Corso Garibaldi, 60, 20121 Milano MI, Italy",MI,02 7865 6590,http://www.moveviaggi.com/,scrivicibooking@moveviaggi.com,https://maps.google.com/?cid=2174747953398416294
Superviaggi Milano,agenzie di viaggio,"Via Giovanni Boccaccio, 19, 20123 Milano MI, Italy",MI,02 4819 5202,http://www.superviaggi.com/,agenzia@superviaggi.com,https://maps.google.com/?cid=7203392449355808612
Dossier Viaggi,agenzie di viaggio,"Via Bartolomeo Eustachi, 16, 20129 Milano MI, Italy",MI,02 2952 3641,http://www.viaggidossier.it/,info@viaggidossier.itp.iva,https://maps.google.com/?cid=3671227480119085811
Skyline Travel - Agenzia Viaggi - Flight Tickets Agent,agenzie di viaggio,"Via Vitruvio, 43, 20124 Milano MI, Italy",MI,02 6671 1143,http://www.skylinetravel.it/,info@skylinetravel.it,https://maps.google.com/?cid=5865608330231990889
Mi Guidi,agenzie di viaggio,"Via Stresa, 6, 20125 Milano MI, Italy",MI,328 384 6632,https://www.miguidi.it/,NOT AVAILABLE,https://maps.google.com/?cid=15273046264664919067
Bluvacanze - Milano corso Garibaldi,agenzie di viaggio,"Corso Garibaldi, 24, 20121 Milano MI, Italy",MI,02 8353 3377,https://bluvacanze.it/?utm_source=google&utm_medium=GMBSitelink&utm_campaign=GMBSitelink_Milano_419,NOT AVAILABLE,https://maps.google.com/?cid=11957379130044676434
Insieme Viaggi,agenzie di viaggio,"Via Marco Ulpio Traiano, 60, 20149 Milano MI, Italy",MI,02 3300 2117,https://www.agenziaviaggiltc.it/,NOT AVAILABLE,https://maps.google.com/?cid=6950501246258193571
Madame Voyage,agenzie di viaggio,"Viale Daniele Ranzoni, 17, 20149 Milano MI, Italy",MI,02 9899 4311,http://www.madamevoyage.it/,NOT AVAILABLE,https://maps.google.com/?cid=10540814569397356859
Viaggiatori Del Mondo,agenzie di viaggio,"Via Gioacchino Murat, 32, 20159 Milano MI, Italy",MI,02 8738 8064,http://www.viaggiatoridelmondo.it/,info@viaggiatoridelmondo.itindirizzovia,https://maps.google.com/?cid=11338900525413692226
Nessie Viaggi,agenzie di viaggio,"Via Edmondo de Amicis, 30, 20123 Milano MI, Italy",DE,02 8699 8613,https://nessieviaggi.com/,8613nessie@nessieviaggi.it,https://maps.google.com/?cid=3609697088247412505
Cubamondo Viaggi S.R.L,agenzie di viaggio,"Via Veglia, 44, 20159 Milano MI, Italy",MI,02 3650 8554,http://www.cubamondoviaggi.it/,NOT AVAILABLE,https://maps.google.com/?cid=9076211200468085190
Il Salvagente Viaggi,agenzie di viaggio,"Via Lazzaro Papi, 12, 20135 Milano MI, Italy",MI,02 5412 1216,http://www.salvagenteviaggi.it/,NOT AVAILABLE,https://maps.google.com/?cid=8299500488555407715
Feliz Viaje,agenzie di viaggio,"Via Padova, 154, 20132 Milano MI, Italy",MI,02 3679 9610,http://vuelos.felizviaje.it/,NOT AVAILABLE,https://maps.google.com/?cid=9566741357949299543
Adventure Overland - Agenzia Viaggi di Overland Network srl,agenzie di viaggio,"Viale Paolo Onorato Vigliani, 21, 20148 Milano MI, Italy",MI,02 3360 9360,http://www.overland-viaggi.com/,NOT AVAILABLE,https://maps.google.com/?cid=8492476546256507476
Punto Touring Milan,agenzie di viaggio,"Corso Italia, 10, 20122 Milano MI, Italy",MI,02 852 6760,http://www.touringclub.it/,prontotouring@touringclub.it,https://maps.google.com/?cid=7988110060828577985
Il Girasole Scurria Turismo S.R.L.,agenzie di viaggio,"Via Vincenzo Giordano Orsini, 16, 20147 Milano MI, Italy",MI,02 4009 1234,http://www.ilgirasoleviaggi.it/,info@ilgirasoleviaggi.it,https://maps.google.com/?cid=1170684025804868319
WeRoad - Viaggi di gruppo,agenzie di viaggio,"Viale Cassala, 30, 20143 Milano MI, Italy",MI,348 423 1163,https://www.weroad.it/,NOT AVAILABLE,https://maps.google.com/?cid=2760035949172126335
Viaggi e Visti,agenzie di viaggio,"Corso Ventidue Marzo, 36, 20134 Milano MI, Italy",MI,02 8202 7535,http://viaggievisti.com/,NOT AVAILABLE,https://maps.google.com/?cid=1513169135717378702
Welcome Travel Shop,agenzie di viaggio,"Via Crocefisso, 3, 20122 Milano MI, Italy",MI,02 802 7721,http://www.welcometravelshop.it/,NOT AVAILABLE,https://maps.google.com/?cid=14059570489312885187
Aria Di Viaggi Srl di Atlante Viaggi Italia srl,agenzie di viaggio,"Via Matteo Bandello, 1, 20123 Milano MI, Italy",MI,02 481 8691,http://www.atlanteviaggi.com/milano,info.milano@atlanteviaggi.com,https://maps.google.com/?cid=10307790853426231846
Bianco Viaggi Pellegrinaggi,agenzie di viaggio,"Corso Europa, 15, 20122 Milano MI, Italy",MI,02 8717 7099,https://www.biancoviaggi.com/,87177099info@biancoviaggi.comdestinazioni,https://maps.google.com/?cid=5300542691083938094
Mbros Viaggi,agenzie di viaggio,"Alzaia Naviglio Pavese, 44, 20143 Milano MI, Italy",MI,02 5810 3464,http://www.mbrosviaggi.it/,info@mbrosviaggi.it,https://maps.google.com/?cid=10244906350276795125
BLUTRAVEL VIAGGI,agenzie di viaggio,"C.so Lodi, 83, 20139 Milano MI, Italy",MI,02 2222 8026,https://www.blutravelviaggi.com/,info@blutravelviaggi.comindirizzocorso,https://maps.google.com/?cid=8909596818688489241
Il Volo Viaggio,agenzie di viaggio,"Viale Lucania, 21, 20139 Milano MI, Italy",MI,02 3655 3984,NOT AVAILABLE,NOT AVAILABLE,https://maps.google.com/?cid=7604396534654760184
Aware Pindorama Travel Srl,agenzie di viaggio,"Via Sebastiano Veniero, 48, 20148 Milano MI, Italy",MI,02 3921 8714,https://www.pindorama.it/,info@pindorama.it,https://maps.google.com/?cid=14881153714086686959
Travel Agency Solemania,agenzie di viaggio,"Via Giuseppe Meda, 5, 20136 Milano MI, Italy",MI,02 8941 5935,https://www.viaggisolemania.it/,info@viaggisolemania.it,https://maps.google.com/?cid=17546512778347388178
Bluvacanze - Milano via Lorenteggio,agenzie di viaggio,"Via dei Tulipani, 18, 20146 Milano MI, Italy",MI,02 4229 0796,https://bluvacanze.it/?utm_source=google&utm_medium=GMBSitelink&utm_campaign=GMBSitelink_Milano_470,NOT AVAILABLE,https://maps.google.com/?cid=16108990094222956288
L'astrolabio Agenzia Viaggi Milano,agenzie di viaggio,"Via Monte Rosa, 20 Zona, 20149 Milano MI, Italy",MI,02 4819 5202,NOT AVAILABLE,NOT AVAILABLE,https://maps.google.com/?cid=11482109757156400155
Aliviaggi Tour Operator S.R.L.,agenzie di viaggio,"Piazza Po, 6, 20144 Milano MI, Italy",PO,02 4801 7171,http://www.aliviaggi.it/,info@aliviaggi.it,https://maps.google.com/?cid=9231172761209876934
Bluvacanze - Milano largo Crocetta,agenzie di viaggio,"Largo della Crocetta, 1, 20122 Milano MI, Italy",MI,02 8645 0896,https://bluvacanze.it/,NOT AVAILABLE,https://maps.google.com/?cid=6807405733664303728
Foppa Viaggi,agenzie di viaggio,"Via Vincenzo Foppa, 21, 20144 Milano MI, Italy",MI,346 865 9938,https://www.foppaviaggi.it/,prenotazioni@foppaviaggi.it,https://maps.google.com/?cid=4929149609420911175
Viaggi Stellari,agenzie di viaggio,"C.so Lodi, 6/A, 20135 Milano MI, Italy",MI,02 4952 9042,http://www.viaggistellari.net/,info@viaggistellari.netindirizzocorso,https://maps.google.com/?cid=11217535039823833388
Suema Viaggi S.R.L.,agenzie di viaggio,"Viale Tibaldi, 14, 20136 Milano MI, Italy",MI,02 5530 1144,NOT AVAILABLE,NOT AVAILABLE,https://maps.google.com/?cid=7938369530477689738
Agenzia Viaggi Mister Holiday Milano,agenzie di viaggio,"Viale Umbria, 29, 20135 Milano MI, Italy",MI,02 5411 8915,https://www.misterholiday.it/,info@misterholiday.it,https://maps.google.com/?cid=3205430578664590328
Dove Nel Mondo Viaggi,agenzie di viaggio,"Viale Monza, 160, 20127 Milano MI, Italy",MI,02 2700 0564,http://www.dovenelmondoviaggi.it/,agenzia@dovenelmondoviaggi.it,https://maps.google.com/?cid=15584033051680799121
INTERVIA VIAGGI E TURISMO,agenzie di viaggio,"Via Privata della Torre, 1, 20127 Milano MI, Italy",MI,02 2611 1222,NOT AVAILABLE,NOT AVAILABLE,https://maps.google.com/?cid=1395417246762133817
Schooner Viaggi,agenzie di viaggio,"Piazza Velasca, 6, 20122 Milano MI, Italy",MI,02 7200 3365,http://www.schoonerviaggi.com/it/contatti/,turismo@schoonerviaggi.it,https://maps.google.com/?cid=263278448792477679
Gattinoni Travel Point Milano - Centro Piazza Lodi,agenzie di viaggio,"Viale Umbria, 4, 20135 Milano MI, Italy",MI,02 540 6561,https://piazzalodi.gattinonipoint.it/,piazzalodi@gattinonipoint.itindirizzoviale,https://maps.google.com/?cid=15120274870438042472
Agenzia Viaggi Il Terzo Polo Fully Srl,agenzie di viaggio,"Corso di Porta Romana, 122, 20122 Milano MI, Italy",MI,02 5831 0199,NOT AVAILABLE,NOT AVAILABLE,https://maps.google.com/?cid=3281190593392686216
Los Reyes Viaggi Srl,agenzie di viaggio,"Via Padova, 12, 20131 Milano MI, Italy",MI,02 4341 5836,NOT AVAILABLE,NOT AVAILABLE,https://maps.google.com/?cid=11849139224722016974
Amitaba Viaggi,agenzie di viaggio,"Viale Ca' Granda, 29, 20162 Milano MI, Italy",MI,02 3361 4196,https://amitaba.net/,NOT AVAILABLE,https://maps.google.com/?cid=11080496167785306658
Milanoguida | Visite Guidate e Mostre a Milano,agenzie di viaggio,"Via Alessandro Tadino, 29A, 20124 Milano MI, Italy",MI,02 3598 1535,https://www.milanoguida.com/,info@milanoguida.com,https://maps.google.com/?cid=2388641006274721276
Etnopoint,agenzie di viaggio,"Viale Monza, 154, 20127 Milano MI, Italy",MI,329 359 1352,http://etnopoint.it/,NOT AVAILABLE,https://maps.google.com/?cid=2287091147989800439
Jackie 'O Viaggi di Lusso,agenzie di viaggio,"Piazza del Liberty, 1, 20121 Milano MI, Italy",MI,02 8698 4304,https://www.jackieoviaggi.it/,info@jackieoviaggi.itthis,https://maps.google.com/?cid=11975354138110476313
Acànto Milano - L'Accento sull'Arte,agenzie di viaggio,"Via Francesco Soave, 24, 20135 Milano MI, Italy",MI,339 833 1443,https://www.acantomilano.it/?utm_source=google&utm_medium=organic&utm_campaign=GoogleMyBusiness,info@acantomilano.it,https://maps.google.com/?cid=17538153078392925786
Loft StudioViaggi,agenzie di viaggio,"Via Luigi Porro Lambertenghi, 12, 20159 Milano MI, Italy",MI,02 2809 5531,https://www.loftviaggi.it/,info@loftviaggi.it,https://maps.google.com/?cid=12955699465422791115
Lets.it Last Minute Holidays,agenzie di viaggio,"Piazzale Giulio Cesare, 14, 20145 Milano MI, Italy",MI,02 255 3125,https://www.lets.it/,info@lets.it,https://maps.google.com/?cid=392441473896257975
Berzabò Agenzia di Viaggi,agenzie di viaggio,"Via Friuli, Via Comelico, 51, 20135 Milano MI, Italy",MI,02 5412 2472,https://berzaboviaggi.it/,NOT AVAILABLE,https://maps.google.com/?cid=13931718972374783871
Viaggio & Apprendo,agenzie di viaggio,"Viale Corsica, 95, 20133 Milano MI, Italy",MI,02 4312 8062,http://www.viaggioeapprendo.it/,8062info@viaggioeapprendo.it,https://maps.google.com/?cid=6407411834183109472
Milan Private Tours,agenzie di viaggio,"Via Conchetta, 15, 20136 Milano MI, Italy",MI,338 709 0880,http://www.milanprivatetours.com/,info@milanprivatetours.com,https://maps.google.com/?cid=630079242631683310
Hortensia Viaggi di Silvia Farano,agenzie di viaggio,"Via Giorgio Washington, 105, 20146 Milano MI, Italy",MI,02 3651 6498,https://www.hortensiaviaggi.it/,silvia@hortensiaviaggi.it,https://maps.google.com/?cid=7522966122741298916
Amo Viaggiare Agenzia Viaggi,agenzie di viaggio,"Via Rembrandt, 60, 20148 Milano MI, Italy",MI,02 9166 2806,https://www.amoviaggiare.it/,info@amoviaggiare.it,https://maps.google.com/?cid=7387100148473122471
2nd Chance Travels | Agenzia Viaggi,agenzie di viaggio,"Viale Stelvio, 16, 20159 Milano MI, Italy",MI,02 9161 6308,https://2ndchance.travel/,info@2ndchancetravels.com,https://maps.google.com/?cid=5788885475914560089
New Wings Travel and Tourism,agenzie di viaggio,"Corso Vercelli, 62, 20145 Milano MI, Italy",MI,02 4819 3351,https://www.nuoveali.it/,nuoveali@nuoveali.it,https://maps.google.com/?cid=233309023015745527
Bluvacanze Viale Monza Agenzia Viaggi,agenzie di viaggio,"Viale Monza, 87, 20125 Milano MI, Italy",MI,02 2611 6411,https://milanovialemonza.bluvacanze.it/,NOT AVAILABLE,https://maps.google.com/?cid=10456277358873248865
Viaggiando,agenzie di viaggio,"Via Giorgio Washington, 60, 20146 Milano MI, Italy",MI,02 781978,https://www.edenviaggi.it/agenzie/viaggiando-s-r-l-mi-milano-via-g-washington-60,NOT AVAILABLE,https://maps.google.com/?cid=7224958963391705433
Vuela - Biglietteria aerea,agenzie di viaggio,"Via Padova, Via Francesco Predabissi, 60, 20131 Milano MI, Italy",MI,02 2680 9117,http://www.vuelaonline.com/,NOT AVAILABLE,https://maps.google.com/?cid=4424948957567865545
Volando.pe - La agencia de los peruanos,agenzie di viaggio,"Via Vitruvio, 5, 20124 Milano MI, Italy",MI,NOT AVAILABLE,https://keap.page/vhx475/whatsapp-list-bonus-google-maps.html,NOT AVAILABLE,https://maps.google.com/?cid=9546586758752926903
SunSeeker - Viaggi Firmati,agenzie di viaggio,"Via S. Maurilio, 13, 20123 Milano MI, Italy",MI,02 8050 9523,http://www.sunseeker.it/,preventivi@sunseeker.it,https://maps.google.com/?cid=5896880199940231921
BCD Travel Italy,agenzie di viaggio,"Viale Sarca, 336, 20126 Milano MI, Italy",MI,02 3610 4000,https://www.bcdtravel.com/placemarks/italy/?utm_source=googlemaps&utm_medium=organic&utm_campaign=googlemaps&utm_content=milano,NOT AVAILABLE,https://maps.google.com/?cid=333448285261287408
Caesar Tour S.r.l. - Agenzia Milano Porta Romana,agenzie di viaggio,"Via Gian Carlo Passeroni, 8, 20135 Milano MI, Italy",MI,06 9826 4700,http://www.caesartour.it/,NOT AVAILABLE,https://maps.google.com/?cid=3050412264059106886
Big Italy Viaggi e Turismo,agenzie di viaggio,"Via di Salone, 10, 00131 Roma RM, Italy",RM,06 8391 2259,http://www.bigitalyviaggieturismo.it/,NOT AVAILABLE,https://maps.google.com/?cid=1177232945248665182
Partecipa anche tu Travel,agenzie di viaggio,"Via dei Durantini, 141, 00157 Roma RM, Italy",RM,06 8667 8664,http://www.partecipaanchetutravel.it/,NOT AVAILABLE,https://maps.google.com/?cid=12190862023905507316
Just Holiday,agenzie di viaggio,"Via Giuseppe Mantellini, 4A, 00179 Roma RM, Italy",RM,06 788 6026,http://www.justholidayviaggi.com/,NOT AVAILABLE,https://maps.google.com/?cid=15206323021216344881
Speed Vacanze,agenzie di viaggio,"Via Boezio, 4C, 00193 Roma RM, Italy",RM,06 5654 9985,https://www.speedvacanze.it/,NOT AVAILABLE,https://maps.google.com/?cid=2670373318226535416
Vivere e Viaggiare Roma Pittaluga-Bluvacanze,agenzie di viaggio,"Via Giovanni Pittaluga, 4, 00159 Roma RM, Italy",RM,06 4325 2797,https://www.vivereviaggiare.online/,NOT AVAILABLE,https://maps.google.com/?cid=5805290470767403350
Ali & Sof Viaggi,agenzie di viaggio,"Piazza Cesare de Cupis, 1/2, 00155 Roma RM, Italy",DE,06 2275 4662,https://www.alisof.it/,NOT AVAILABLE,https://maps.google.com/?cid=205049273268423077
Safir Travel Agenzia Viaggi Roma,agenzie di viaggio,"Via Luigi Rizzo, 64, 00136 Roma RM, Italy",RM,06 9784 2097,https://safirtravel.it/,info@safirtravel.it,https://maps.google.com/?cid=14461740844657927541
"Viaggi D Gruppo - Tours con Aperitivo a Roma, Gite in Pullman e Viaggi di gruppo",agenzie di viaggio,"Via Domenico Ciampoli, 7, 00125 Roma RM, Italy",RM,06 5655 7264,http://www.viaggidgruppo.com/,info@viaggidgruppo.com,https://maps.google.com/?cid=3924896638403473632
Fly & Travel Valentina S.R.L,agenzie di viaggio,"Via Massa di San Giuliano, 411/413, 00132 Roma RM, Italy",RM,320 970 9476,https://flytravelvalentina.com/,info@flytravelvalentina.com,https://maps.google.com/?cid=7606759155838222592
The Italian vacation - Cral Reunited Tour Operator,agenzie di viaggio,"Viale Palmiro Togliatti, 1565, 00155 Roma RM, Italy",RM,06 406 3045,https://www.lavacanzaitaliana.it/,cralriuniti.comroby@lavacanzaitaliana.it,https://maps.google.com/?cid=5302926668154483907
T & G Travel - Travel Agency,agenzie di viaggio,"Via Mario Menghini, 32, 00179 Roma RM, Italy",RM,06 8983 6859,https://www.tgtravel.it/,NOT AVAILABLE,https://maps.google.com/?cid=2359748178203972601
I Viaggi di Sildan,agenzie di viaggio,"Via Chisimaio, 6, 00199 Roma RM, Italy",RM,06 5160 0979,http://www.sildanviaggi.it/,NOT AVAILABLE,https://maps.google.com/?cid=12459244942494991124
Agenzia di Viaggi Flash Viaggi,agenzie di viaggio,"Via Appia Nuova, 276, 00183 Roma RM, Italy",RM,06 702 0415,https://flashviaggi.com/,NOT AVAILABLE,https://maps.google.com/?cid=12959371044232166374
Business Class Viaggi Filiale Roma Centro,agenzie di viaggio,"Via del Sudario, 24, 00186 Roma RM, Italy",RM,06 4544 6190,https://www.romacentro.businessclassviaggi.it/,NOT AVAILABLE,https://maps.google.com/?cid=9185814151543158785
Bluvacanze Vaticano,agenzie di viaggio,"Via dei Gracchi, 98, 00193 Roma RM, Italy",RM,389 203 8964,https://viaggi.bluvacanze.it/store/bv-roma-vaticano/,NOT AVAILABLE,https://maps.google.com/?cid=8123616800618073722
Loma Viaggi,agenzie di viaggio,"Via dei Campi Flegrei, 27, 00141 Roma RM, Italy",RM,06 817 7482,https://www.lomaviaggi.com/,loma@lomaviaggi.com,https://maps.google.com/?cid=2498616644419106934
CartOrange Viaggi su misura,agenzie di viaggio,"Via Fabio Massimo, 95, 00192 Roma RM, Italy",RM,06 7227 6278,http://www.cartorange.com/,cartorange@cartorange.com,https://maps.google.com/?cid=8262855452840695036
Travel Single,agenzie di viaggio,"Via del Fontanile Arenato, 147, 00163 Roma RM, Italy",RM,06 9259 3048,http://www.travelsingle.it/,info@travelsingle.it,https://maps.google.com/?cid=11856875679395300022
BUSINESS CLASS VIAGGI - The Travel Lounge,agenzie di viaggio,"Via di Val Tellina, 11, 00151 Roma RM, Italy",RM,06 5820 5903,http://www.businessclassviaggi.it/,NOT AVAILABLE,https://maps.google.com/?cid=9198184351638906724
Plaza Viaggi,agenzie di viaggio,"Via Giosuè Carducci, 22, 00187 Roma RM, Italy",RM,366 342 0907,https://plazzatravels.com/,info@plazzatravels.com,https://maps.google.com/?cid=2847588812692584208
Travel Elephant Tour Operator,agenzie di viaggio,"Via d'Ascanio, 8, 00186 Roma RM, Italy",RM,06 6051 3000,https://www.viaggidellelefante.it/,preventivi@viaggidellelefante.it,https://maps.google.com/?cid=1879785480646654012
Tinky Winky Travel Tour Operator,agenzie di viaggio,"Via Collina, 50, 00187 Roma RM, Italy",RM,06 8746 2150,http://www.tinkywinky.it/,info@tinkywinky.it,https://maps.google.com/?cid=7363399763102946318
THE TRAVELS OF ADRIANO agency tour operator,agenzie di viaggio,"Via Abigaille Zanetta, 18, 00143 Roma RM, Italy",RM,06 5196 3729,http://www.iviaggidiadriano.it/,NOT AVAILABLE,https://maps.google.com/?cid=17172137103789933360
i viaggi di Carlotta srl,agenzie di viaggio,"Via di S. Paolo alla Regola, 33, 00186 Roma RM, Italy",RM,06 6992 5764,http://www.ilguscioviaggi.com/,items.info@ilguscioviaggi.com,https://maps.google.com/?cid=2083391688234913186
VISS Travel S.r.l.,agenzie di viaggio,"Via Gerolamo Cardano, 75, 00146 Roma RM, Italy",RM,06 558 8833,http://www.visstravel.com/,webinfo@visstravel.com,https://maps.google.com/?cid=70424597310914381
Agenzia Viaggi SingleUp,agenzie di viaggio,"Piazza Filattiera, 33, 00139 Roma RM, Italy",RM,06 9480 3505,https://www.singleupviaggi.com/,NOT AVAILABLE,https://maps.google.com/?cid=5214317779654522737
City Travel,agenzie di viaggio,"Via degli Scipioni, 27, 00192 Roma RM, Italy",RM,06 3975 4187,http://www.city-travel.it/,info@city-travel.it,https://maps.google.com/?cid=832331590901356220
"Il Viandante (SAS) - Tour operator Gruppi , Agenzia di Viaggi",agenzie di viaggio,"Via degli Scipioni, 256B/Terzo Piano, 00100 Roma RM, Italy",RM,06 5654 8534,https://www.ilviandante.com/,newsletter@ilviandante.com,https://maps.google.com/?cid=7511671148283541296
Demetra Viaggi Srl,agenzie di viaggio,"Via Spalato, 31, 00198 Roma RM, Italy",RM,06 8620 5858,http://demetraviaggi.it/contatti,NOT AVAILABLE,https://maps.google.com/?cid=2851565544012037616
Viaggi Navona,agenzie di viaggio,"Via delle Coppelle, 17, 00186 Roma RM, Italy",RM,06 686 9591,https://www.navonaviaggi.com/,info@navonaviaggi.com,https://maps.google.com/?cid=7768621525889480727
Landimension Travel,agenzie di viaggio,"Vicolo di S. Nicola de' Cesarini, 4, 00186 Roma RM, Italy",RM,392 157 3353,http://www.landimensiontravel.it/,info@landimensiontravel.it,https://maps.google.com/?cid=4430407178943455174
Le Monde Viaggi srls,agenzie di viaggio,"Via Enrico Fermi, 24/26, 00146 Roma RM, Italy",RM,06 4543 8120,https://lemondeagenziaviaggi.it/,NOT AVAILABLE,https://maps.google.com/?cid=6856660322916595234
Le Gastronaute Agenzia Viaggi,agenzie di viaggio,"Circonvallazione Gianicolense, 322, 00152 Roma RM, Italy",RM,06 4368 2783,http://legastronaute.it/,valeria@legastronaute.it,https://maps.google.com/?cid=4143432297197680092
Roman Holidays Viaggi e Tour Operator,agenzie di viaggio,"Via delle Vestali, 1-3, 00181 Roma RM, Italy",RM,06 4543 8573,http://www.romanholidays.net/,info@romanholidays.net,https://maps.google.com/?cid=8642535194142005711
Al di là dei Sogni Viaggi,agenzie di viaggio,"Via Gian Luca Squarcialupo, 7, 00162 Roma RM, Italy",RM,06 4429 2046,http://www.aldiladeisogniviaggi.it/,NOT AVAILABLE,https://maps.google.com/?cid=8419294295451509437
Il Nuovo Parallelo Viaggi,agenzie di viaggio,"Via Michele Amari, 35, 00179 Roma RM, Italy",RM,06 7835 9193,http://www.nuovoparalleloviaggi.it/,NOT AVAILABLE,https://maps.google.com/?cid=17504443618552640746
Viaggi Nel Mondo Srl,agenzie di viaggio,"Lungotevere Testaccio, 10, 00153 Roma RM, Italy",RM,06 575 4378,https://www.viaggiavventurenelmondo.it/,NOT AVAILABLE,https://maps.google.com/?cid=4776167651524330388
Carpe Diem S. R. L.,agenzie di viaggio,"Piazza di Spagna, 9, 00187 Roma RM, Italy",RM,06 679 0382,http://www.carpediemtravel.it/,simone@carpediemtravel.it,https://maps.google.com/?cid=11858210985384189606
Al di là dei Sogni Viaggi,agenzie di viaggio,"Via Val Maira, 99, 00141 Roma RM, Italy",RM,06 8864 0050,http://www.aldiladeisogniviaggi.it/,NOT AVAILABLE,https://maps.google.com/?cid=11459610576764464814
Agenzia Bravetta Travel Store,agenzie di viaggio,"Via Francesco Inghirami, 14/16, 00164 Roma RM, Italy",RM,06 666 3524,https://www.bravettatravel.it/,info@bravettatravel.itcodice,https://maps.google.com/?cid=3456389613487153580
Viaggio e Vedo Agenzia Viaggi Rebibbia,agenzie di viaggio,"Via Bartolo Longo, 1, 00156 Roma RM, Italy",RM,06 410 3636,http://www.viaggioevedo.it/,info@viaggioevedo.it,https://maps.google.com/?cid=7774953014346789135
Viaggiare S.r.l.,agenzie di viaggio,"Via Barberini, 30, 00187 Roma RM, Italy",RM,06 454101,http://www.viaggiareonline.it/,viaggi@viaggiareonline.it,https://maps.google.com/?cid=13449320252878963474
4Viaggi,agenzie di viaggio,"Via Genzano, 133, 00179 Roma RM, Italy",RM,06 3209 2646,http://www.4viaggi.it/,viaggiamoinsieme@4viaggi.it,https://maps.google.com/?cid=7652198951119706204
Sabbia e Neve Viaggi,agenzie di viaggio,"Via Michele Buonori, 21, 00133 Roma RM, Italy",RM,06 9727 0202,https://www.sabbiaeneve.it/,info@sabbiaeneve.it,https://maps.google.com/?cid=7546735339849018471
Amuleto Viaggi Di Salandra Viaggi Srl,agenzie di viaggio,"Via Antonio Salandra, 30, 00187 Roma RM, Italy",RM,06 4202 1053,http://www.amuletoviaggi.it/,info@amuletoviaggi.it,https://maps.google.com/?cid=94446058997962178
Il Pallino Dei Viaggi Sas Di Pietripaoli Andreina & C.,agenzie di viaggio,"Vle Tirreno, 93, 00141 Roma RM, Italy",RM,06 817 2192,NOT AVAILABLE,NOT AVAILABLE,https://maps.google.com/?cid=1056237944501242976
Fenio Viaggi - Ela Srl - Agenzia Viaggi Roma,agenzie di viaggio,"Via Pietro Maffi, 174, 00168 Roma RM, Italy",RM,06 301 4644,http://fenioviaggi.it/,info@fenioviaggi.it,https://maps.google.com/?cid=5359449664228153570
Zemontour - Agenzia Viaggi Roma,agenzie di viaggio,"Via Flavio Domiziano, 38, 00145 Roma RM, Italy",RM,06 8958 5171,http://zemontour.it/,NOT AVAILABLE,https://maps.google.com/?cid=9597962985558434872
K2 Travel Di Francesco epri S.R.L.,agenzie di viaggio,"V.le Giuseppe Mazzini, 23, 00195 Roma RM, Italy",RM,06 321 7319,NOT AVAILABLE,NOT AVAILABLE,https://maps.google.com/?cid=330657536762842847
Stilnovo Travel Srl,agenzie di viaggio,"SOLO SU APPUNTAMENTO) oppure online tramite videochiamata, Viale Eritrea, 31, 00199 Roma RM, Italy",RM,320 027 7818,NOT AVAILABLE,NOT AVAILABLE,https://maps.google.com/?cid=2684986177395976468
ViaggiOggi srl,agenzie di viaggio,"Via Val Trompia, 136, 00141 Roma RM, Italy",RM,06 4890 3604,https://www.viaggioggi.it/,grecia@viaggioggi.it,https://maps.google.com/?cid=5782891998915069989
Al cuore del mondo agenzia viaggi,agenzie di viaggio,"Lungotevere de' Cenci, 3/A, 00186 Roma RM, Italy",RM,06 4549 4821,http://www.alcuoredelmondo.com/,NOT AVAILABLE,https://maps.google.com/?cid=8054186593267992948
AGENZIA VIAGGI COSTANTINI ROMA,agenzie di viaggio,"Via Nostra Signora di Lourdes, 110, 00167 Roma RM, Italy",RM,06 662 6954,http://www.costantiniviaggi.it/,NOT AVAILABLE,https://maps.google.com/?cid=13383879374572556465
Monteverde Viaggi,agenzie di viaggio,"Via di Monte Verde, 114, 00151 Roma RM, Italy",RM,06 4542 4195,https://www.unviaggiodasogno.it/,NOT AVAILABLE,https://maps.google.com/?cid=13821833214038757990
Impronte Viaggi,agenzie di viaggio,"Via di S. Croce in Gerusalemme, 77, 00185 Roma RM, Italy",IN,06 700 1909,https://www.impronteviaggi.it/,info@impronteviaggi.it,https://maps.google.com/?cid=12154350158707007901
VIAGGIO IN COMPAGNIA,agenzie di viaggio,"Via di Casal Bruciato, 11, 00159 Roma RM, Italy",RM,392 991 6743,http://www.viaggioincompagnia.it/,info@viaggioincompagnia.itufficio,https://maps.google.com/?cid=151435198939983520
Agenzia Viaggi Comunque Viaggi Roma,agenzie di viaggio,"Via Maria Barbara Tosatti, 21/23, 00137 Roma RM, Italy",RM,06 827 1970,http://www.comunqueviaggi.it/,NOT AVAILABLE,https://maps.google.com/?cid=1104330571490068965
Travel Saloon,agenzie di viaggio,"Via dei Galla e Sidama, 22, 00199 Roma RM, Italy",RM,06 9604 6154,https://www.travelsaloon.it/,info@travelsaloon.it,https://maps.google.com/?cid=17458578693407552389
Avventure nel Mondo,agenzie di viaggio,"Largo Carlo Grigioni, 7, 00152 Roma RM, Italy",RM,NOT AVAILABLE,https://www.viaggiavventurenelmondo.it/,NOT AVAILABLE,https://maps.google.com/?cid=13944127695336197173
Agenzia Viaggi Roma | Emozionando Viaggi e Spettacoli,agenzie di viaggio,"Via Spinoza, 63, 00137 Roma RM, Italy",RM,06 8200 4727,http://www.facebook.com/emozionandoviaggi.it/?locale=it_IT,NOT AVAILABLE,https://maps.google.com/?cid=225833847475597773
Borsaviaggi.it,agenzie di viaggio,"Via del Serafico, 185, 00142 Roma RM, Italy",RM,06 558 7667,https://www.borsaviaggi.it/,info@borsaviaggi.itla,https://maps.google.com/?cid=7269098327390220503
Bellezze di Roma,agenzie di viaggio,"Via della Giuliana, 40, 00195 Roma RM, Italy",RM,389 571 1466,http://www.bellezzediromatour.it/,info@bellezzediromatour.it,https://maps.google.com/?cid=9758750781463425232
GB Viaggi,agenzie di viaggio,"Via Antonio Bertoloni, 44, 00197 Roma RM, Italy",RM,06 8115 0355,https://www.gbviaggi.it/,NOT AVAILABLE,https://maps.google.com/?cid=11444946595459652650
Nuova Zelanda Viaggi - Australia Alternativa,agenzie di viaggio,"Via Bartolo Longo, 89, 00156 Roma RM, Italy",RM,06 6813 5046,https://www.australialternativa.com/viaggio/offerte,info@australialternativa.com,https://maps.google.com/?cid=10346594560650871001
Replay Travel,agenzie di viaggio,"Via Portuense, 799/B, 00148 Roma RM, Italy",RM,06 8902 6720,https://www.facebook.com/ReplayTravel/,NOT AVAILABLE,https://maps.google.com/?cid=8121925968635624764
GiraMondo Viaggi Roma Eur,agenzie di viaggio,"Via Bombay, 18, 00144 Roma RM, Italy",RM,06 6858 5871,http://www.giramondo.it/,NOT AVAILABLE,https://maps.google.com/?cid=6409389018578997122
Iberoamerica Viaggi,agenzie di viaggio,"Via Milazzo, 32, 00185 Roma RM, Italy",RM,06 445 1731,http://www.iberoamericaviaggi.com/,06-31052134emailbooking@iberoamericaviaggi.it,https://maps.google.com/?cid=16825309647866287388
Agenzia Viaggi The Partner - ROMA,agenzie di viaggio,"Via Germano Sommeiller, 13, 00185 Roma RM, Italy",RM,06 701 4861,http://www.thepartnerviaggi.it/,NOT AVAILABLE,https://maps.google.com/?cid=14675038388454694155
Travel Planner,agenzie di viaggio,"Via Tacito, 33 ang, Via Plinio, 1/3, 00193 Roma RM, Italy",RM,06 541 6817,http://travelplanneritalia.it/,NOT AVAILABLE,https://maps.google.com/?cid=12918463322942664152
Paesi del Mondo,agenzie di viaggio,"Via Canzone del Piave, 33a, 00143 Roma RM, Italy",RM,06 6453 0164,https://www.paesidelmondo.com/,NOT AVAILABLE,https://maps.google.com/?cid=13298976300787392473
Astro Viaggi Sas di Daniele Moretti & Co.,agenzie di viaggio,"Largo Beato Placido Riccardi, 1, 00146 Roma RM, Italy",RM,06 541 1225,http://www.astrotimeviaggi.com/,NOT AVAILABLE,https://maps.google.com/?cid=5249170000488124747
3L World - Viaggi di nozze su misura e matrimoni all'estero,agenzie di viaggio,"Via Alessandro Trotter, 3, 00156 Roma RM, Italy",RM,333 489 3281,https://www.3lworld.it/,info@3lworld.itt,https://maps.google.com/?cid=1492618155546908045
"Progetour Viaggi - Villaggi, Itinerari su misura e viaggi di nozze",agenzie di viaggio,"Viale Somalia, 157, 00199 Roma RM, Italy",RM,06 860 0723,http://www.progetourviaggi.com/,NOT AVAILABLE,https://maps.google.com/?cid=13862319834693467543
Play Viaggi,agenzie di viaggio,"Via Dario Niccodemi, 105, 00179 Roma RM, Italy",RM,06 2111 7951,http://www.playviaggi.com/,NOT AVAILABLE,https://maps.google.com/?cid=1883471757211266210
Kira Viaggi S.R.L.,agenzie di viaggio,"Via dei Sette Metri, 5, 00118 Roma RM, Italy",RM,06 7989 0222,http://www.kiraviaggi.it/,NOT AVAILABLE,https://maps.google.com/?cid=3743008135691804366
AllTours,agenzie di viaggio,"Via Vittorio Metz, 45, 00173 Roma RM, Italy",RM,06 7290 7290,https://www.alltours.it/,NOT AVAILABLE,https://maps.google.com/?cid=16665540332122569714
AGENZIA VIAGGI ONLINE di Simonetta Cori,agenzie di viaggio,"Via Trionfale, 8200, 00135 Roma RM, Italy",RM,340 188 8400,https://www.simonettacori.com/home,info@simonettacori.com,https://maps.google.com/?cid=744307518658059106
GoGo Travel,agenzie di viaggio,"Via del Forte Tiburtino, 120, 00159 Roma RM, Italy",RM,06 8339 8048,https://www.gogotravel.eu/,booking@gogotravel.eu,https://maps.google.com/?cid=10398763261991838810
GUINESS TRAVEL - sede di Roma,agenzie di viaggio,"Via Ignazio Pettinengo, 72, 00159 Roma RM, Italy",RM,06 4325 3593,http://www.guinesstravel.com/,info@guinesstravel.it,https://maps.google.com/?cid=4999209649397619720
Origini international,agenzie di viaggio,"Circonvallazione Appia, 19, 00179 Roma RM, Italy",RM,06 5656 7462,https://www.origini.net/,origini@origini.net,https://maps.google.com/?cid=3011088835510807286
Onivà - Viaggi Fatti a Mano,agenzie di viaggio,"Via del Pigneto, 303E, 00176 Roma RM, Italy",RM,370 364 0928,http://www.oniva.it/,NOT AVAILABLE,https://maps.google.com/?cid=12298459111412496256
THE FREEWAY S.R.L.,agenzie di viaggio,"Viale Eritrea, 31, 00199 Roma RM, Italy",RM,06 860 6912,https://www.freewaytravel.it/,info@freewaytravel.it,https://maps.google.com/?cid=15463030945445426697
3A Tours,agenzie di viaggio,"francescodeangelis@3atours.com, Via Cornelia, 493, 00166 Roma RM, Italy",RM,06 9727 0895,http://www.3atours.com/,francescodeangelis@3atours.com,https://maps.google.com/?cid=12006143231606410294
EUREKA TRAVEL -Shams S.A.S.,agenzie di viaggio,"Via Giovanni Battista Morgagni, 2e, 00161 Roma RM, Italy",RM,06 4420 2354,http://www.eurekatravel.it/,NOT AVAILABLE,https://maps.google.com/?cid=1103620682540538576
Bluvacanze - Roma Via Tuscolana,agenzie di viaggio,"Via Tuscolana, 1192, 00174 Roma RM, Italy",RM,392 514 7793,https://bluvacanze.it/?utm_source=google&utm_medium=GMBSitelink&utm_campaign=GMBSitelink_Roma_353,NOT AVAILABLE,https://maps.google.com/?cid=8383289747615376063
IDEE PER VIAGGIARE,agenzie di viaggio,"Via dei Magazzini Generali, 18, 00154 Roma RM, Italy",RM,06 520981,http://www.ideeperviaggiare.it/,info@ideeperviaggiare.it,https://maps.google.com/?cid=6529414255815911418
CGTravel Agenzia Viaggi Firenze,agenzie di viaggio,"Via Nicola Tagliaferri, 45, 50127 Firenze FI, Italy",FI,334 333 2799,http://www.cgtravel.it/,info@cgtravel.it,https://maps.google.com/?cid=3172313818603912179
Nova Sasco Viaggi e Turismo,agenzie di viaggio,"Via Reginaldo Giuliani, 1-3/R, 50141 Firenze FI, Italy",FI,055 437 6110,https://m.facebook.com/novasascoviaggi,NOT AVAILABLE,https://maps.google.com/?cid=12924185113734820908
Baiana Tour Operator :: Agenzia di Viaggi,agenzie di viaggio,"Borgo degli Albizi, 55, 50122 Firenze FI, Italy",FI,055 242020,http://www.baiana.com/,contatti@baiana.com,https://maps.google.com/?cid=2758912718512361137
Primavera Viaggi - Vacanze Studio,agenzie di viaggio,"Via Ricasoli, 9, 50122 Firenze FI, Italy",FI,055 282042,https://www.primaveraviaggi.it/,vacanzestudio@primaveraviaggi.it,https://maps.google.com/?cid=11857264449797210507
Sudamerica World Travel,agenzie di viaggio,"Via S. Zanobi, 10R, 50129 Firenze FI, Italy",FI,055 211281,NOT AVAILABLE,NOT AVAILABLE,https://maps.google.com/?cid=4350668275982978176
Certosa Viaggi,agenzie di viaggio,"Via Mario Orsini, 2, 50125 Firenze FI, Italy",FI,055 204 9692,http://www.certosaviaggi.it/,NOT AVAILABLE,https://maps.google.com/?cid=16544941588161239611
Icona Toscana - Guida Turistica a Firenze e in Toscana,agenzie di viaggio,"Via delle Mantellate, 2/a, 50129 Firenze FI, Italy",FI,333 941 4823,http://www.iconatoscana.it/,info@iconatoscana.it,https://maps.google.com/?cid=14569069787432344222
Giubbi Jet Agenzia di Viaggi Firenze,agenzie di viaggio,"Piazza di S. Jacopino, 34/R, 50144 Firenze FI, Italy",FI,055 357022,http://www.giubbijet.com/,NOT AVAILABLE,https://maps.google.com/?cid=5784035688663298164
Ciao Florence Tours,agenzie di viaggio,"Via Camillo Cavour, 18, 50129 Firenze FI, Italy",FI,055 354044,https://www.ciaoflorence.it/,NOT AVAILABLE,https://maps.google.com/?cid=17968970355614892439
Caf Tour & Travel - Headquarter,agenzie di viaggio,"Via dei Calzaiuoli, 7, 50122 Firenze FI, Italy",FI,055 283200,https://www.caftours.com/,NOT AVAILABLE,https://maps.google.com/?cid=634062310395788794
Bluvacanze - Firenze Ponteagreve,agenzie di viaggio,"Viuzzo delle Case Nuove, Ponte a Greve, 9/15 C.C, 50143 Firenze FI, Italy",FI,055 732 7142,https://bluvacanze.it/?utm_source=google&utm_medium=GMBSitelink&utm_campaign=GMBSitelink_Firenze_305,NOT AVAILABLE,https://maps.google.com/?cid=16992574268610456583
Novevie Travel Srl,agenzie di viaggio,"Via Gherardo Caponsacchi, 11 ROSSO, 50126 Firenze FI, Italy",FI,055 685941,https://www.novevietravel.it/,NOT AVAILABLE,https://maps.google.com/?cid=14546750298179079425
Argonauta Viaggi,agenzie di viaggio,"Via Erbosa, 66 B C - 68/Primo Piano, 50126 Firenze FI, Italy",FI,055 680 0452,https://www.gattinonitravel.it/?utm_source=gbp&utm_medium=local&utm_campaign=drivetostore,NOT AVAILABLE,https://maps.google.com/?cid=3964858313791507565
Bigmama.travel,agenzie di viaggio,"Presso @tsh collab, V.le Spartaco Lavagnini, 70, 50129 Firenze FI, Italy",FI,055 035 1441,https://bigmama.travel/,NOT AVAILABLE,https://maps.google.com/?cid=14802999048771111502
Vanessa Viaggi,agenzie di viaggio,"V.le Spartaco Lavagnini, 6r, 50129 Firenze FI, Italy",FI,055 463 3799,http://www.vanessaviaggi.it/,NOT AVAILABLE,https://maps.google.com/?cid=6844488354244881193
Brunelleschi Viaggi,agenzie di viaggio,"Via Giampaolo Orsini, 93r, 50126 Firenze FI, Italy",FI,055 681 0352,http://www.brunelleschiviaggi.it/,NOT AVAILABLE,https://maps.google.com/?cid=14311294140172772499
MEGAN TRAVEL AGENZIA VIAGGI/TOUR OPERATOR,agenzie di viaggio,"Via Libero Andreotti, 78/80, 50142 Firenze FI, Italy",FI,055 073 7774,http://www.megantravel.com/,NOT AVAILABLE,https://maps.google.com/?cid=12322924654599609757
Loop Travel,agenzie di viaggio,"Via Vincenzo Borghini, 11r, 50133 Firenze FI, Italy",FI,055 067 0997,http://www.looptravel.it/,997info@looptravel.it,https://maps.google.com/?cid=4479442422134011466
Mirò L'arte di Viaggiare,agenzie di viaggio,"A, Via Giovanni Antonio Dosio, 2, 50142 Firenze FI, Italy",FI,055 713 1720,http://www.miroviaggi.it/,NOT AVAILABLE,https://maps.google.com/?cid=16473126528516728794
Smart Trip Europe,agenzie di viaggio,"Via Camillo Cavour, 62R, 50129 Firenze FI, Italy",FI,055 239 8640,http://www.smarttrip.it/,NOT AVAILABLE,https://maps.google.com/?cid=16579951055935825243
Laura Micheli Guida turistica certificata locale Firenze,agenzie di viaggio,"Via della Condotta, 12, 50122 Firenze FI, Italy",FI,392 205 8852,https://www.personalguideflorence.it/,NOT AVAILABLE,https://maps.google.com/?cid=12551861987970363048
Agenzia Viaggi Gate 25,agenzie di viaggio,"Via Francesco Puccinotti, 29/R, 50129 Firenze FI, Italy",FI,055 488064,NOT AVAILABLE,NOT AVAILABLE,https://maps.google.com/?cid=9004539799904106545
Yanez Viaggi,agenzie di viaggio,"Via Guelfa, 48/red, 50129 Firenze FI, Italy",FI,055 230 2434,http://www.yanezviaggi.it/,NOT AVAILABLE,https://maps.google.com/?cid=11292877204373452560
American Dream - Viaggi e Tour,agenzie di viaggio,"Via Federico D'Antiochia, 16, 50126 Firenze FI, Italy",FI,055 889 8499,https://www.viaggiamericandream.com/,NOT AVAILABLE,https://maps.google.com/?cid=3239955870791407753
Consorzio Autolinee Pratesi,agenzie di viaggio,"Largo Fratelli Alinari, 10, 50123 Firenze FI, Italy",FI,055 936 7910,http://www.capviaggi.it/,booking@capviaggi.it,https://maps.google.com/?cid=11157949557270910189
In-Travel - Agenzia di Viaggi e Tour Operator,agenzie di viaggio,"Viale Belfiore, 58, 50144 Firenze FI, Italy",FI,055 013 4159,NOT AVAILABLE,NOT AVAILABLE,https://maps.google.com/?cid=11262485690108472130
Ciclone Viaggi Firenze,agenzie di viaggio,"V.le Spartaco Lavagnini, 6r, 50129 Firenze FI, Italy",FI,055 575961,http://www.cicloneviaggi.it/,NOT AVAILABLE,https://maps.google.com/?cid=1611427158522446025
Alhambra Viaggi di Promoturismo Srl,agenzie di viaggio,"Via di Novoli, 42, 50127 Firenze FI, Italy",FI,055 437161,http://www.promoturismo.it/,NOT AVAILABLE,https://maps.google.com/?cid=12125294888652944582
Buckingham Travel,agenzie di viaggio,"Viale Francesco Redi, 241, 50144 Firenze FI, Italy",FI,055 321 7680,NOT AVAILABLE,NOT AVAILABLE,https://maps.google.com/?cid=5720953865805481708
Alighieri Viaggi,agenzie di viaggio,"Via Sant'Egidio, 14r/20r, 50121 Firenze FI, Italy",FI,055 241044,NOT AVAILABLE,NOT AVAILABLE,https://maps.google.com/?cid=4671855145462035347
Md Medici Viaggi,agenzie di viaggio,"Via Stracciatella, 8/r, 50125 Firenze FI, Italy",FI,055 282626,https://www.mynetwork.travel/agenzia/md-medici-viaggi,NOT AVAILABLE,https://maps.google.com/?cid=13619339299158850095
TripForDog - Vacanze con il tuo cane,agenzie di viaggio,"Borgo Allegri, 16R, 50122 Firenze FI, Italy",FI,055 234 0736,https://www.tripfordog.com/,NOT AVAILABLE,https://maps.google.com/?cid=13336116552349924694
Valparaiso Viaggi s.r.l Tour operator,agenzie di viaggio,"Via Antonio del Pollaiolo, 166, 50142 Firenze FI, Italy",FI,055 321 5764,http://www.valparaisoviaggi.it/,info@valparaisoviaggi.it,https://maps.google.com/?cid=11883685861430893462
Lufthansa City Center Intertravel Viaggi,agenzie di viaggio,"Viale Antonio Gramsci, 67a, 50121 Firenze FI, Italy",FI,055 217936,http://www.intertravelviaggi.it/,NOT AVAILABLE,https://maps.google.com/?cid=2343032056801523336
CartOrange Viaggi su misura,agenzie di viaggio,"Piazza Pietro Leopoldo, 7, 50134 Firenze FI, Italy",FI,055 355911,http://www.cartorange.com/,cartorange@cartorange.com,https://maps.google.com/?cid=4880473953847263000
Nota Azzurra Sail & Fly di Primavera Viaggi,agenzie di viaggio,"Via Ricasoli, 9, 50122 Firenze FI, Italy",FI,328 382 1965,https://www.notazzurra.it/company.htm,booking@notazzurra.itp,https://maps.google.com/?cid=13419330303938787219
agenzia di viaggi,agenzie di viaggio,"Via Pratese, 126, 50145 Firenze FI, Italy",FI,0176 85694842,NOT AVAILABLE,NOT AVAILABLE,https://maps.google.com/?cid=14513121441356302039
Massimo Viaggi,agenzie di viaggio,"Via Pietro Francavilla, 14a, 50142 Firenze FI, Italy",FI,324 150 4537,http://www.massimoconsulenzaviaggi.it/,NOT AVAILABLE,https://maps.google.com/?cid=5188741929026672821
Travel & Party Agenzia Viaggi Campi Bisenzio,agenzie di viaggio,"Via Pistoiese, 6, 50058 San Piero a Ponti FI, Italy",FI,333 831 4503,NOT AVAILABLE,NOT AVAILABLE,https://maps.google.com/?cid=17539503668456708334
Agenzia Viaggi S-Cape Partners Italia | sloWays | slowBikes | slowBags | slowShop,agenzie di viaggio,"Borgo Allegri, 16r, 50122 Firenze FI, Italy",FI,055 234 0736,https://www.sloways.it/,NOT AVAILABLE,https://maps.google.com/?cid=15846166941899135007
La Bussola free walking tour,agenzie di viaggio,"Piazza degli Strozzi, 50123 Firenze FI, Italy",FI,327 667 8568,https://www.florence-freewalkingtour.com/tours/,NOT AVAILABLE,https://maps.google.com/?cid=9647434083152196404
Yarimada Travel,agenzie di viaggio,"Via Giampaolo Orsini, 28 Rosso, 50126 Firenze FI, Italy",FI,055 658 1028,https://www.yarimada.it/,info@yarimada.it,https://maps.google.com/?cid=2394780259773864261
Follow Me,agenzie di viaggio,"Via Vincenzo Gioberti, 64/r, 50121 Firenze FI, Italy",FI,055 666006,http://www.followme.it/,booking@followme.it,https://maps.google.com/?cid=2463003457584693250
Florentour Viaggi e Pellegrinaggi,agenzie di viaggio,"Via dei Servi, 23R, 50122 Firenze FI, Italy",FI,055 292237,http://www.florentour.it/,booking@florentour.it,https://maps.google.com/?cid=17865432525097605747
InVibe srl,agenzie di viaggio,"Via dei della Robbia, 66, 50132 Firenze FI, Italy",FI,NOT AVAILABLE,https://www.invibe.it/,NOT AVAILABLE,https://maps.google.com/?cid=6688647613294090872
Gattinoni Travel Store Firenze - Via Degli Artisti,agenzie di viaggio,"Via degli Artisti, 8C, 50132 Firenze FI, Italy",FI,055 499456,https://www.gattinonitravel.it/?utm_source=gbp&utm_medium=local&utm_campaign=drivetostore,NOT AVAILABLE,https://maps.google.com/?cid=4867458686878096722
Billabong Tour Operator Srl,agenzie di viaggio,"7/R Via Pier Luigi Da Palestrina, Firenze, FI 50144, 50137 Firenze FI, Italy",FI,055 367460,http://www.billabong.it/,NOT AVAILABLE,https://maps.google.com/?cid=7676064514105019931
Travel Agency Florence Specialists,agenzie di viaggio,"Via Ricasoli, 119/r, 50100 Firenze FI, Italy",FI,339 242 1435,https://www.florencespecialist.com/,NOT AVAILABLE,https://maps.google.com/?cid=1267361126335012685
Made of Tuscany,agenzie di viaggio,"Via degli Alfani, 23 R, 50121 Firenze FI, Italy",FI,055 218717,http://www.madeoftuscany.it/,info@madeoftuscany.it,https://maps.google.com/?cid=2022761190269875354
Vanalika Travel Agenzia di Viaggi,agenzie di viaggio,"Via Tosca Fiesoli, 9, 50013 Campi Bisenzio FI, Italy",FI,055 897 0321,NOT AVAILABLE,NOT AVAILABLE,https://maps.google.com/?cid=7895469690262694157
Flor T.O. srl,agenzie di viaggio,"Via Solferino, 22, 50123 Firenze FI, Italy",FI,055 067 5104,https://www.florto.it/,NOT AVAILABLE,https://maps.google.com/?cid=16692078840436884096
My Green Tour,agenzie di viaggio,"Via de' Martelli, 33R, 50122 Firenze FI, Italy",FI,055 933 1143,https://mygreentours.com/,NOT AVAILABLE,https://maps.google.com/?cid=4175781463146620011
Arcipelago Viaggi,agenzie di viaggio,"Via Petrosa, 19, 50019 Sesto Fiorentino FI, Italy",FI,055 444842,https://www.gattinonitravel.it/?utm_source=gbp&utm_medium=local&utm_campaign=drivetostore,NOT AVAILABLE,https://maps.google.com/?cid=13788358289509813507
Boston Travel,agenzie di viaggio,"Via Guelfa, 3A, 50129 Firenze FI, Italy",FI,055 291999,http://bostontravel.it/,NOT AVAILABLE,https://maps.google.com/?cid=9351584697005653810
Viaggincanto,agenzie di viaggio,"Via Molino di Villamagna, 2/B, 50012 Bagno a Ripoli FI, Italy",FI,055 530 8934,http://www.viaggincanto.it/,NOT AVAILABLE,https://maps.google.com/?cid=10667236679779758240
ACCORD ITALY SMART TOURS & EXPERIENCES,agenzie di viaggio,"Piazza di Madonna degli Aldobrandini, 8, 50123 Firenze FI, Italy",FI,055 239 9493,https://www.accordsolutions.it/,info@accordsolutions.it,https://maps.google.com/?cid=11901243705840683167
Gattinoni Travel Point Firenze,agenzie di viaggio,"Via Pisana, 144/R, 50143 Firenze FI, Italy",FI,055 229 9838,https://firenze.gattinonipoint.it/,firenze@gattinonipoint.itindirizzovia,https://maps.google.com/?cid=17788454788093979666
La Nave Del Deserto di Paglia Mauro,agenzie di viaggio,"Via Felice Fontana, 17, 50144 Firenze FI, Italy",FI,055 360339,NOT AVAILABLE,NOT AVAILABLE,https://maps.google.com/?cid=12178739769563217444
Tourist Italy Tours,agenzie di viaggio,"Via Antonio Scialoja, 46, 50136 Firenze FI, Italy",FI,333 959 3497,https://www.touristitaly.com/,NOT AVAILABLE,https://maps.google.com/?cid=2250473810132862376
Allosanfan Viaggi,agenzie di viaggio,"Via Giosuè Carducci, 16, 50121 Firenze FI, Italy",FI,335 221 615,http://www.allosanfan.it/,NOT AVAILABLE,https://maps.google.com/?cid=9802871983543211986
"Truescany - Cinque Terre Tour, Tuscany Tours, Wine tours from Florence",agenzie di viaggio,"Via Porta Rossa, 5, Via della Scala, 59, 50123 Firenze FI, Italy",FI,055 093 5928,https://truescany.com/,NOT AVAILABLE,https://maps.google.com/?cid=6758189400270516907
Flow Traveling,agenzie di viaggio,"Via Lorenzo Il Magnifico, 54, 50129 Firenze FI, Italy",IL,371 311 3876,http://www.flowtraveling.com/,info@flowtraveling.com,https://maps.google.com/?cid=9202624720607906730
Sightseeing Experience Visitor Center (meeting point tourist assistance),agenzie di viaggio,"Stazione atrio biglietterie, Piazza della Stazione, 1, 50123 Firenze FI, Italy",FI,327 328 2342,https://www.sightseeing-experience.com/,NOT AVAILABLE,https://maps.google.com/?cid=11449450897236682801
Out of the Box Florence - Sustainable travel Experiences and Tours by locals,agenzie di viaggio,"P.za della Libertà, 50121 Firenze FI, Italy",FI,347 080 9904,http://www.outoftheboxflorence.com/,info@outoftheboxflorence.com,https://maps.google.com/?cid=16346391587896010650
Viaggiare in bici,agenzie di viaggio,"Borgo la Noce, 9, 50123 Firenze FI, Italy",LA,392 491 3161,https://www.viaggiareinbici.it/,info@viaggiareinbici.it,https://maps.google.com/?cid=12701009434564390576
Prestige Rent - Private and Small Group Tours,agenzie di viaggio,"Via della Saggina, 98, 50145 Firenze FI, Italy",FI,055 286059,https://www.prestigerent.com/,usa@prestigerent.com,https://maps.google.com/?cid=1545501801728773722
Guided Tours of Florence,agenzie di viaggio,"Via Degli Agrifogli, 8, 50142 Firenze FI, Italy",FI,347 862 8987,http://www.guidedtoursofflorence.com/,info@guidedtoursofflorence.com,https://maps.google.com/?cid=86689776008734305
Tour Florence,agenzie di viaggio,"Borgo Ognissanti, 1, 50123 Firenze FI, Italy",FI,349 810 5552,https://www.tour-florence.info/,contactus@tour-florence.info,https://maps.google.com/?cid=11547815209141460265
Vago Viaggi,agenzie di viaggio,"Via Camillo Cavour, 8, 50129 Firenze FI, Italy",FI,055 354044,http://www.vagoviaggi.it/,NOT AVAILABLE,https://maps.google.com/?cid=5940216745359102105
Agenzia iReparo Firenze,agenzie di viaggio,"Via del Ponte alle Mosse, 141A/B, 50144 Firenze FI, Italy",FI,331 755 2564,NOT AVAILABLE,NOT AVAILABLE,https://maps.google.com/?cid=7731998394160902975
Itinera Travel,agenzie di viaggio,"Via dei Tavolini, 15r, 50122 Firenze FI, Italy",FI,055 295572,https://www.itinera.travel/,viaggi@itinera.travelindirizzovia,https://maps.google.com/?cid=17508212678866813489
Lea Travel - Around the world,agenzie di viaggio,"Via Roma, 381, 50012 Bagno a Ripoli FI, Italy",FI,334 153 0139,https://leatravel.it/,NOT AVAILABLE,https://maps.google.com/?cid=7689687809778175476
Guia Brasileira em Florença e na Toscana,agenzie di viaggio,"Via Ciuto Brandini, 15, 50126 Firenze FI, Italy",FI,339 168 2568,http://www.guiaflorenca.net/,NOT AVAILABLE,https://maps.google.com/?cid=7009111605902166588
Demidoff Viaggi,agenzie di viaggio,"Via Ilaria Alpi, Borgonuovo, 50038 Scarperia e San Piero FI, Italy",FI,055 848490,http://www.demidoffviaggi.com/,info@demidoffviaggi.com,https://maps.google.com/?cid=10760688927982976471
Yana Viaggi Tour Operator,agenzie di viaggio,"Via Torre, 18, 50056 Montelupo Fiorentino FI, Italy",FI,0571 913093,http://www.yanaviaggi.it/,info@yanaviaggi.it,https://maps.google.com/?cid=6792268181069849682
Sylvie Jourdan Visite Guidée Florence avec un Guide Francophone,agenzie di viaggio,"P.za della Signoria, 1, 50122 Firenze FI, Italy",FI,338 161 0637,https://www.visiteguideeflorence.com/,NOT AVAILABLE,https://maps.google.com/?cid=13457802386323397457
Gattinoni Travel Store Firenze - Torrigiani,agenzie di viaggio,"Lungarno Torrigiani, 33 B, 50125 Firenze FI, Italy",FI,055 234 2777,https://www.gattinonitravel.it/?utm_source=gbp&utm_medium=local&utm_campaign=drivetostore,NOT AVAILABLE,https://maps.google.com/?cid=14199267413682582698
Sand Tour,agenzie di viaggio,"Via Sandro Pertini, 32, 50127 Firenze FI, Italy",FI,055 051 5677,http://www.sandtour.it/,NOT AVAILABLE,https://maps.google.com/?cid=9888407926171868451
Aliwest Travel,agenzie di viaggio,"Via Niccolò Paganini, 30, 50127 Firenze FI, Italy",FI,055 422 1201,NOT AVAILABLE,NOT AVAILABLE,https://maps.google.com/?cid=4079689923848821321
Toscana Turismo,agenzie di viaggio,"Viale Corsica, 20R, 50127 Firenze FI, Italy",FI,055 398 7318,http://toscanaturismo.eu/,info@cooptoscanaturismo.it,https://maps.google.com/?cid=3439807440634483125
Caesar Tour,agenzie di viaggio,"Via Giovanni Lanza, 67, 50136 Firenze FI, Italy",FI,06 9826 4700,http://www.caesartour.it/,NOT AVAILABLE,https://maps.google.com/?cid=17266827203135647730
Italy My Way,agenzie di viaggio,"Via Cairoli, 36, 50131 Firenze FI, Italy",FI,055 538 3455,https://www.italy-my-way.com/,NOT AVAILABLE,https://maps.google.com/?cid=18105827130643085517
Italy Travels Srl,agenzie di viaggio,"Via Livorno, 54/2, 50142 Firenze FI, Italy",FI,055 532 1180,https://www.ticketsrome.com/it/,NOT AVAILABLE,https://maps.google.com/?cid=13776061371635181358
JEROBOAM VIAGGI,agenzie di viaggio,"Via Nicola Tagliaferri, 36, 50127 Firenze FI, Italy",FI,342 868 5367,NOT AVAILABLE,NOT AVAILABLE,https://maps.google.com/?cid=2394862160293026000
Andiamo In Italia,agenzie di viaggio,"Via Claudio Monteverdi, 85, 50144 Firenze FI, Italy",FI,NOT AVAILABLE,https://www.andiamoinitaly.com/,NOT AVAILABLE,https://maps.google.com/?cid=12632569934952604294
Toscana Turismo,agenzie di viaggio,"Via Angelo Tavanti, 2R, 50134 Firenze FI, Italy",FI,055 796 3812,https://www.toscanaturismo.eu/,info@cooptoscanaturismo.it,https://maps.google.com/?cid=10111888892757974367
Fun in Tuscany,agenzie di viaggio,"Piazza della Repubblica, 2, 50122 Firenze FI, Italy",FI,NOT AVAILABLE,https://funintuscany.com/,info@funintuscany.com,https://maps.google.com/?cid=8747678864640680908
Ghan Travel Di Conti Federico,agenzie di viaggio,"Piazza Ubaldino Peruzzi, 39 a, 50012 Antella FI, Italy",FI,055 656 5217,http://www.ghantravel.com/,info@ghantravel.it,https://maps.google.com/?cid=15291244547360151553
Tenere' Voyages snc Agenzia Viaggi e Turismo,agenzie di viaggio,"Via Baccio da Montelupo, 118, 50018 Scandicci FI, Italy",FI,055 756021,https://www.tenereviaggi.it/,info@tenereviaggi.it,https://maps.google.com/?cid=11561260974734233600
Porta Romana Viaggi,agenzie di viaggio,"Viale Francesco Petrarca, 30r, 50124 Firenze FI, Italy",FI,055 229 8123,http://www.portaromanaviaggi.it/,NOT AVAILABLE,https://maps.google.com/?cid=16416659442807570624
