name,niche,address,state,phone_number,website,email,result_url
Insieme Viaggi,agenzie di viaggio,"Via Marco Ulpio Traiano, 60, 20149 Milano MI, Italy",MI,02 3300 2117,https://www.agenziaviaggiltc.it/,NOT AVAILABLE,https://maps.google.com/?cid=7222857888581631518
Travel Gold World Agenzia Viaggi,agenzie di viaggio,"Via Pietro Borsieri, 32, 20159 Milano MI, Italy",MI,02 6682 3107,https://www.edenviaggi.it/dettaglio-agenzia/34384/travel-gold-world,NOT AVAILABLE,https://maps.google.com/?cid=11633930057125063176
Viaggiatori Del Mondo,agenzie di viaggio,"Via Gioacchino Murat, 32, 20159 Milano MI, Italy",MI,02 8738 8064,http://www.viaggiatoridelmondo.it/,info@viaggiatoridelmondo.itindirizzovia,https://maps.google.com/?cid=11338900525413692226
Agenzia Viaggi Maison du Voyage,agenzie di viaggio,"Via Giambellino, 15, 20146 Milano MI, Italy",MI,02 4943 6581,http://www.maisonduvoyage.it/,preventivi@maisonduvoyage.it,https://maps.google.com/?cid=9025441671645348024
JAMBO TOUR,agenzie di viaggio,"Via Giuseppe Ripamonti, 137, 20141 Milano MI, Italy",MI,02 4311 7337,http://www.jambotour.it/,jambo@jambotour.it,https://maps.google.com/?cid=8543071358920513020
Dove Nel Mondo Viaggi,agenzie di viaggio,"Viale Monza, 160, 20127 Milano MI, Italy",MI,02 2700 0564,http://www.dovenelmondoviaggi.it/,agenzia@dovenelmondoviaggi.it,https://maps.google.com/?cid=15584033051680799121
Dove Vuoi Tour,agenzie di viaggio,"Via Alessandro Tadino, 19, 20124 Milano MI, Italy",MI,328 458 3813,https://www.dovevuoiasia.com/,NOT AVAILABLE,https://maps.google.com/?cid=15929237803429608265
La Bussola On The Road,agenzie di viaggio,"Via Altaguardia, 1, 20135 Milano MI, Italy",MI,02 8219 6055,https://www.labussola.it/,NOT AVAILABLE,https://maps.google.com/?cid=16920532452517216403
Bianco Viaggi Pellegrinaggi,agenzie di viaggio,"Corso Europa, 15, 20122 Milano MI, Italy",MI,02 8717 7099,https://www.biancoviaggi.com/,87177099info@biancoviaggi.comdestinazioni,https://maps.google.com/?cid=5300542691083938094
Mi Guidi,agenzie di viaggio,"Via Stresa, 6, 20125 Milano MI, Italy",MI,328 384 6632,https://www.miguidi.it/,NOT AVAILABLE,https://maps.google.com/?cid=15273046264664919067
Agenzia Viaggi 5 Giornate,agenzie di viaggio,"Piazza Cinque Giornate, 15, 20129 Milano MI, Italy",MI,02 5519 4646,http://www.5giornate.it/,agenzia@5giornate.it,https://maps.google.com/?cid=11632687483843680624
Agenzia Viaggi Mister Holiday Milano,agenzie di viaggio,"Viale Umbria, 29, 20135 Milano MI, Italy",MI,02 5411 8915,https://www.misterholiday.it/,info@misterholiday.it,https://maps.google.com/?cid=3205430578664590328
Viaggi di Nozze network,agenzie di viaggio,"Via Gianfranco Zuretti, 50, 20125 Milano MI, Italy",MI,02 5810 0748,http://www.viaggidinozze.net/,NOT AVAILABLE,https://maps.google.com/?cid=78674652439560072
Arenatours - Viaggi Esotici,agenzie di viaggio,"Viale Monza, 347, 20126 Milano MI, Italy",MI,02 0062 4923,https://arenatours.com/it/,hello@arenatours.com,https://maps.google.com/?cid=8865343480011959928
Milan Visitor Center - Zani Viaggi,agenzie di viaggio,"Largo Cairoli, 18, 20121 Milano MI, Italy",MI,02 867131,https://www.zaniviaggi.com/,NOT AVAILABLE,https://maps.google.com/?cid=18403191581837357674
Il Girasole Scurria Turismo S.R.L.,agenzie di viaggio,"Via Vincenzo Giordano Orsini, 16, 20147 Milano MI, Italy",MI,02 4009 1234,http://www.ilgirasoleviaggi.it/,info@ilgirasoleviaggi.it,https://maps.google.com/?cid=1170684025804868319
Foppa Viaggi,agenzie di viaggio,"Via Vincenzo Foppa, 21, 20144 Milano MI, Italy",MI,346 865 9938,https://www.foppaviaggi.it/,prenotazioni@foppaviaggi.it,https://maps.google.com/?cid=4929149609420911175
Il Salvagente Viaggi,agenzie di viaggio,"Via Lazzaro Papi, 12, 20135 Milano MI, Italy",MI,02 5412 1216,http://www.salvagenteviaggi.it/,NOT AVAILABLE,https://maps.google.com/?cid=8299500488555407715
Viaggio & Apprendo,agenzie di viaggio,"Viale Corsica, 95, 20133 Milano MI, Italy",MI,02 4312 8062,http://www.viaggioeapprendo.it/,8062info@viaggioeapprendo.it,https://maps.google.com/?cid=6407411834183109472
Bluvacanze Viale Monza Agenzia Viaggi,agenzie di viaggio,"Viale Monza, 87, 20125 Milano MI, Italy",MI,02 2611 6411,https://milanovialemonza.bluvacanze.it/,NOT AVAILABLE,https://maps.google.com/?cid=10456277358873248865
Cubamondo Viaggi S.R.L,agenzie di viaggio,"Via Veglia, 44, 20159 Milano MI, Italy",MI,02 3650 8554,http://www.cubamondoviaggi.it/,NOT AVAILABLE,https://maps.google.com/?cid=9076211200468085190
Viaggi e Visti,agenzie di viaggio,"Corso Ventidue Marzo, 36, 20134 Milano MI, Italy",MI,02 8202 7535,http://viaggievisti.com/,NOT AVAILABLE,https://maps.google.com/?cid=1513169135717378702
Superviaggi Milano,agenzie di viaggio,"Via Giovanni Boccaccio, 19, 20123 Milano MI, Italy",MI,02 4819 5202,http://www.superviaggi.com/,agenzia@superviaggi.com,https://maps.google.com/?cid=7203392449355808612
Dossier Viaggi,agenzie di viaggio,"Via Bartolomeo Eustachi, 16, 20129 Milano MI, Italy",MI,02 2952 3641,http://www.viaggidossier.it/,info@viaggidossier.itp.iva,https://maps.google.com/?cid=3671227480119085811
Agenzia Viaggi Matamis,agenzie di viaggio,"Viale Monza, 271, 20126 Milano MI, Italy",MI,02 3653 0427,https://www.matamisviaggi.it/,NOT AVAILABLE,https://maps.google.com/?cid=4168417763197825901
Viaggimmagine - Viaggi su misura,agenzie di viaggio,"Via Giuseppe Govone, 30, 20155 Milano MI, Italy",MI,02 3361 1823,https://viaggimmagine.it/,NOT AVAILABLE,https://maps.google.com/?cid=1680806595930551343
Gattinoni Travel Point Milano - Centro Piazza Lodi,agenzie di viaggio,"Viale Umbria, 4, 20135 Milano MI, Italy",MI,02 540 6561,https://piazzalodi.gattinonipoint.it/,piazzalodi@gattinonipoint.itindirizzoviale,https://maps.google.com/?cid=15120274870438042472
Proposta Viaggi,agenzie di viaggio,"Via Feltre, 1, 20132 Milano MI, Italy",MI,02 264 0347,http://www.propostaviaggi.it/,NOT AVAILABLE,https://maps.google.com/?cid=15312227532803748579
Agenzia Viaggi TU VIAGGI,agenzie di viaggio,"Viale Cassala, 75, 20143 Milano MI, Italy",MI,02 8942 2109,http://www.tuviaggimilano.com/,NOT AVAILABLE,https://maps.google.com/?cid=14466006438242293951
Visti,agenzie di viaggio,"Via della Moscova, 13, 20121 Milano MI, Italy",MI,NOT AVAILABLE,https://visti.it/,NOT AVAILABLE,https://maps.google.com/?cid=17496087198768519194
Désirée Carsetti/Agente di viaggio di Travelit Srl,agenzie di viaggio,"Via Ruggero di Lauria, 12, 20149 Milano MI, Italy",MI,347 040 5116,https://www.travelevents.it/desiree-carsetti/,info@travelevents.it,https://maps.google.com/?cid=15350900646113838888
Aliviaggi Tour Operator S.R.L.,agenzie di viaggio,"Piazza Po, 6, 20144 Milano MI, Italy",PO,02 4801 7171,http://www.aliviaggi.it/,info@aliviaggi.it,https://maps.google.com/?cid=9231172761209876934
Madame Voyage,agenzie di viaggio,"Viale Daniele Ranzoni, 17, 20149 Milano MI, Italy",MI,02 9899 4311,http://www.madamevoyage.it/,NOT AVAILABLE,https://maps.google.com/?cid=10540814569397356859
BarbaViaggi,agenzie di viaggio,"Via Bagutta, 13, 20121 Milano MI, Italy",MI,378 304 0650,http://www.barbaviaggi.it/,NOT AVAILABLE,https://maps.google.com/?cid=12858773371196320699
World Explorer - Viaggi Su Misura | Tour Operator Milano,agenzie di viaggio,"Consigliamo di chiamare per prendere un appuntamento, Piazza Gerusalemme, 4, 20154 Milano MI, Italy",MI,02 3206 0101,https://www.worldexplorer.it/,viaggi@worldexplorer.it,https://maps.google.com/?cid=13713584280605004353
SBS Viaggi,agenzie di viaggio,"Via Bagutta, 13, 20121 Milano MI, Italy",MI,349 582 6932,https://sbsviaggi.it/?utm_source=google&utm_medium=business-profile&utm_campaign=local,info@sbsviaggi.it,https://maps.google.com/?cid=6334974279506327206
Travel Agency Solemania,agenzie di viaggio,"Via Giuseppe Meda, 5, 20136 Milano MI, Italy",MI,02 8941 5935,https://www.viaggisolemania.it/,info@viaggisolemania.it,https://maps.google.com/?cid=17546512778347388178
Agenzia viaggi Il viaggio nel cassetto,agenzie di viaggio,"Via Antonio Grossich, 29, 20131 Milano MI, Italy",MI,02 8969 7824,http://www.ilviaggionelcassetto.it/,NOT AVAILABLE,https://maps.google.com/?cid=1413363951601119269
MOVE SRL - Agenzia Viaggi - Esperienze su Misura,agenzie di viaggio,"Via Palermo 20, Corso Garibaldi, 60, 20121 Milano MI, Italy",MI,02 7865 6590,http://www.moveviaggi.com/,scrivicibooking@moveviaggi.com,https://maps.google.com/?cid=2174747953398416294
bluviaggi,agenzie di viaggio,"Via Domenico Cimarosa, 12/3, 20144 Milano MI, Italy",MI,02 4810 0154,http://www.bluviaggi.com/,NOT AVAILABLE,https://maps.google.com/?cid=8864326012393500729
WeRoad - Viaggi di gruppo,agenzie di viaggio,"Viale Cassala, 30, 20143 Milano MI, Italy",MI,348 423 1163,https://www.weroad.it/,NOT AVAILABLE,https://maps.google.com/?cid=2760035949172126335
Viaggi Stellari,agenzie di viaggio,"C.so Lodi, 6/A, 20135 Milano MI, Italy",MI,02 4952 9042,http://www.viaggistellari.net/,info@viaggistellari.netindirizzocorso,https://maps.google.com/?cid=11217535039823833388
Hortensia Viaggi di Silvia Farano,agenzie di viaggio,"Via Giorgio Washington, 105, 20146 Milano MI, Italy",MI,02 3651 6498,https://www.hortensiaviaggi.it/,silvia@hortensiaviaggi.it,https://maps.google.com/?cid=7522966122741298916
Loft StudioViaggi,agenzie di viaggio,"Via Luigi Porro Lambertenghi, 12, 20159 Milano MI, Italy",MI,02 2809 5531,https://www.loftviaggi.it/,info@loftviaggi.it,https://maps.google.com/?cid=12955699465422791115
Friendly Travel di Fima Viaggi e Turismo,agenzie di viaggio,"Via Achille Zezon, 5, 20124 Milano MI, Italy",MI,02 6698 2128,http://www.fimaviaggieturismo.it/,NOT AVAILABLE,https://maps.google.com/?cid=6492704737865915938
Last Minute Tour UVET VIAGGI Milano - Agenzia Viaggi,agenzie di viaggio,"Via Ponte Seveso, 23, 20125 Milano MI, Italy",MI,02 6698 9323,https://www.artravelservice.com/,NOT AVAILABLE,https://maps.google.com/?cid=9913691647789258868
Stonehenge Viaggi,agenzie di viaggio,"Via Giuseppe Ripamonti, 186, 20141 Milano MI, Italy",MI,02 5521 3520,http://www.vacanzeggiando.com/,info@vacanzeggiando.com,https://maps.google.com/?cid=6570500924962217143
Mbros Viaggi,agenzie di viaggio,"Alzaia Naviglio Pavese, 44, 20143 Milano MI, Italy",MI,02 5810 3464,http://www.mbrosviaggi.it/,info@mbrosviaggi.it,https://maps.google.com/?cid=10244906350276795125
Skyline Travel - Agenzia Viaggi - Flight Tickets Agent,agenzie di viaggio,"Via Vitruvio, 43, 20124 Milano MI, Italy",MI,02 6671 1143,http://www.skylinetravel.it/,info@skylinetravel.it,https://maps.google.com/?cid=5865608330231990889
I VIAGGI IN UN CIAK agenzia viaggi,agenzie di viaggio,"Via Gerolamo Arganini, 23, 20162 Milano MI, Italy",MI,329 333 8027,http://www.iviaggiinunciak.com/,NOT AVAILABLE,https://maps.google.com/?cid=12528605644969797274
Adventure Overland - Agenzia Viaggi di Overland Network srl,agenzie di viaggio,"Viale Paolo Onorato Vigliani, 21, 20148 Milano MI, Italy",MI,02 3360 9360,http://www.overland-viaggi.com/,NOT AVAILABLE,https://maps.google.com/?cid=8492476546256507476
New Wings Travel and Tourism,agenzie di viaggio,"Corso Vercelli, 62, 20145 Milano MI, Italy",MI,02 4819 3351,https://www.nuoveali.it/,nuoveali@nuoveali.it,https://maps.google.com/?cid=233309023015745527
Nessie Viaggi,agenzie di viaggio,"Via Edmondo de Amicis, 30, 20123 Milano MI, Italy",DE,02 8699 8613,https://nessieviaggi.com/,8613nessie@nessieviaggi.it,https://maps.google.com/?cid=3609697088247412505
L'astrolabio Agenzia Viaggi Milano,agenzie di viaggio,"Via Monte Rosa, 20 Zona, 20149 Milano MI, Italy",MI,02 4819 5202,NOT AVAILABLE,NOT AVAILABLE,https://maps.google.com/?cid=11482109757156400155
Vuela - Biglietteria aerea,agenzie di viaggio,"Via Padova, Via Francesco Predabissi, 60, 20131 Milano MI, Italy",MI,02 2680 9117,http://www.vuelaonline.com/,NOT AVAILABLE,https://maps.google.com/?cid=4424948957567865545
Lets.it Last Minute Holidays,agenzie di viaggio,"Piazzale Giulio Cesare, 14, 20145 Milano MI, Italy",MI,02 255 3125,https://www.lets.it/,info@lets.it,https://maps.google.com/?cid=392441473896257975
Insieme Viaggi,agenzie di viaggio,"Via Marco Ulpio Traiano, 60, 20149 Milano MI, Italy",MI,02 3300 2117,https://www.agenziaviaggiltc.it/,NOT AVAILABLE,https://maps.google.com/?cid=6950501246258193571
Scegli & Parti,agenzie di viaggio,"Via Pisanello, 26, 20146 Milano MI, Italy",MI,02 407 7787,NOT AVAILABLE,NOT AVAILABLE,https://maps.google.com/?cid=3870673651693939241
Bluvacanze - Milano corso Garibaldi,agenzie di viaggio,"Corso Garibaldi, 24, 20121 Milano MI, Italy",MI,02 8353 3377,https://bluvacanze.it/?utm_source=google&utm_medium=GMBSitelink&utm_campaign=GMBSitelink_Milano_419,NOT AVAILABLE,https://maps.google.com/?cid=11957379130044676434
ALLA CONQUISTA DEL MONDO,agenzie di viaggio,"Via Lorenzo Valla, 25, 20141 Milano MI, Italy",MI,02 3705 3571,NOT AVAILABLE,NOT AVAILABLE,https://maps.google.com/?cid=16982604455426925509
Milanoguida | Visite Guidate e Mostre a Milano,agenzie di viaggio,"Via Alessandro Tadino, 29A, 20124 Milano MI, Italy",MI,02 3598 1535,https://www.milanoguida.com/,info@milanoguida.com,https://maps.google.com/?cid=2388641006274721276
BLUTRAVEL VIAGGI,agenzie di viaggio,"C.so Lodi, 83, 20139 Milano MI, Italy",MI,02 2222 8026,https://www.blutravelviaggi.com/,info@blutravelviaggi.comindirizzocorso,https://maps.google.com/?cid=8909596818688489241
Milan Private Tours,agenzie di viaggio,"Via Conchetta, 15, 20136 Milano MI, Italy",MI,338 709 0880,http://www.milanprivatetours.com/,info@milanprivatetours.com,https://maps.google.com/?cid=630079242631683310
Berzabò Agenzia di Viaggi,agenzie di viaggio,"Via Friuli, Via Comelico, 51, 20135 Milano MI, Italy",MI,02 5412 2472,https://berzaboviaggi.it/,NOT AVAILABLE,https://maps.google.com/?cid=13931718972374783871
Avior Viaggi srl,agenzie di viaggio,"Via Pola, 6, 20124 Milano MI, Italy",MI,02 668 8407,https://www.aviorviaggi.it/,aviorviaggi@aviorviaggi.it,https://maps.google.com/?cid=10040654280022247680
WELCOME TRAVEL POINT,agenzie di viaggio,"Via Bruno Cassinari, 14, 20138 Milano MI, Italy",MI,02 8960 0030,http://www.vacanzewelcometravel.it/,NOT AVAILABLE,https://maps.google.com/?cid=17615438007604548710
Aquilone Viaggi (S.R.L.),agenzie di viaggio,"V.le Sabotino, 38, 20135 Milano MI, Italy",MI,02 5831 8500,https://www.aquilone.com/,NOT AVAILABLE,https://maps.google.com/?cid=5709868806722805982
Acànto Milano - L'Accento sull'Arte,agenzie di viaggio,"Via Francesco Soave, 24, 20135 Milano MI, Italy",MI,339 833 1443,https://www.acantomilano.it/?utm_source=google&utm_medium=organic&utm_campaign=GoogleMyBusiness,info@acantomilano.it,https://maps.google.com/?cid=17538153078392925786
Jackie 'O Viaggi di Lusso,agenzie di viaggio,"Piazza del Liberty, 1, 20121 Milano MI, Italy",MI,02 8698 4304,https://www.jackieoviaggi.it/,info@jackieoviaggi.itthis,https://maps.google.com/?cid=11975354138110476313
Feliz Viaje,agenzie di viaggio,"Via Padova, 154, 20132 Milano MI, Italy",MI,02 3679 9610,http://vuelos.felizviaje.it/,NOT AVAILABLE,https://maps.google.com/?cid=9566741357949299543
Amo Viaggiare Agenzia Viaggi,agenzie di viaggio,"Via Rembrandt, 60, 20148 Milano MI, Italy",MI,02 9166 2806,https://www.amoviaggiare.it/,info@amoviaggiare.it,https://maps.google.com/?cid=7387100148473122471
Eurotarget Viaggi Srl,agenzie di viaggio,"P.za Ventiquattro Maggio, 7, 20136 Milano MI, Italy",MI,02 4127 0711,http://www.eurotargetviaggi.it/,info@eurotargetviaggi.it,https://maps.google.com/?cid=11681186834261943720
Bluvacanze - Milano via Padova,agenzie di viaggio,"Via Padova, 209, 20127 Milano MI, Italy",MI,02 2720 6239,https://bluvacanze.it/?utm_source=google&utm_medium=GMBSitelink&utm_campaign=GMBSitelink_Milano_310,NOT AVAILABLE,https://maps.google.com/?cid=1683208856599086942
VAXVI TOUR,agenzie di viaggio,"Via Pietro Marocco, 15, 20127 Milano MI, Italy",MI,02 3982 3141,http://www.vaxvi.com/,viaggio.info@vaxvi.com,https://maps.google.com/?cid=14069504446520015255
Lunettes Viaggi Milano,agenzie di viaggio,"Via Angelo Poliziano, 10, 20154 Milano MI, Italy",MI,02 3453 0329,http://www.lunettesviaggi.it/,NOT AVAILABLE,https://maps.google.com/?cid=7633479243248354358
Agenzia viaggi Milano - Shaula Viaggi S.R.L.,agenzie di viaggio,"Via Gian Rinaldo Carli, 15, 20161 Milano MI, Italy",MI,02 646 1549,http://www.shaulaviaggi.com/,NOT AVAILABLE,https://maps.google.com/?cid=14266383232735473379
Punto Touring Milan,agenzie di viaggio,"Corso Italia, 10, 20122 Milano MI, Italy",MI,02 852 6760,http://www.touringclub.it/,prontotouring@touringclub.it,https://maps.google.com/?cid=7988110060828577985
P7 Viaggi,agenzie di viaggio,"Via Piero della Francesca, 7, 20154 Milano MI, Italy",MI,02 3459 2331,NOT AVAILABLE,NOT AVAILABLE,https://maps.google.com/?cid=16556436518077278311
Sharewood,agenzie di viaggio,"V.le Col di Lana, 6/a, 20136 Milano MI, Italy",MI,02 8716 9206,https://sharewood.io/it,adventure@sharewood.io,https://maps.google.com/?cid=1733102327573393879
Bluvacanze - Assago C.C. Carrefour - Milanofiori,agenzie di viaggio,"V.le Milanofiori, 1, 20057 Assago MI, Italy",MI,02 8920 0268,https://bluvacanze.it/,NOT AVAILABLE,https://maps.google.com/?cid=2266326719049252967
Taverviaggi S.R.L.,agenzie di viaggio,"Via della Moscova, 7, 20121 Milano MI, Italy",MI,02 659 9111,http://www.taverviaggi.it/,taver.milano@taverviaggi.it,https://maps.google.com/?cid=4887869956600883320
Il Viaggio Che Ti Manca,agenzie di viaggio,"Via Milano, 162/164, 25127 Brescia BS, Italy",BS,030 984 0517,https://www.ilviaggiochetimanca.com/,NOT AVAILABLE,https://maps.google.com/?cid=2994745807234760969
Agenzia Di Viaggio Oltre I Miraggi Di Benedetti & Ronconi Snc,agenzie di viaggio,"Via Corsica, 259/261, 25125 Brescia BS, Italy",BS,030 242 8189,http://www.oltreimiraggi.it/,NOT AVAILABLE,https://maps.google.com/?cid=11264591078486676240
Epicentro Viaggi,agenzie di viaggio,"Via Moretto, 50, 25121 Brescia BS, Italy",BS,030 294 4144,http://www.epicentroviaggi.it/,NOT AVAILABLE,https://maps.google.com/?cid=1595448311779496554
Istante Viaggi Brescia / Kalundra,agenzie di viaggio,"Via Triumplina, 129, 25136 Brescia BS, Italy",BS,030 200 7052,https://www.istanteviaggi.it/,NOT AVAILABLE,https://maps.google.com/?cid=2057362716186339956
Travel SIA - Agenzia viaggi a Brescia,agenzie di viaggio,"Viale della Stazione, 14/A, 25122 Brescia BS, Italy",BS,030 240 0408,http://www.travelsia.it/?utm_source=GoogleMyBusiness&utm_medium=organic,NOT AVAILABLE,https://maps.google.com/?cid=14085596285406608204
Amerigo Travel Emotion,agenzie di viaggio,"Piazza Cesare Battisti, 2, 25128 Brescia BS, Italy",BS,030 396161,https://www.amerigoviaggi.it/,info@amerigoviaggi.it,https://maps.google.com/?cid=8560002220319283879
Duemilauno Tour Brescia,agenzie di viaggio,"Via Cremona, 210, 25124 Brescia BS, Italy",BS,030 223861,http://www.duemilaunotour.com/,NOT AVAILABLE,https://maps.google.com/?cid=8523981891449927425
Unitour Agenzia Viaggi a Brescia,agenzie di viaggio,"Via Altipiano D'Asiago, 3, 25128 Brescia BS, Italy",BS,030 384 4770,http://unitour.it/,NOT AVAILABLE,https://maps.google.com/?cid=892240303567296064
Viaggi Di Una Volta Srl,agenzie di viaggio,"Via A. Diaz, 154, 25010 San Zeno Naviglio BS, Italy",BS,346 667 9817,http://viaggidiunavolta.it/,NOT AVAILABLE,https://maps.google.com/?cid=15490340517921962872
Bignami Viaggi,agenzie di viaggio,"Via X Giornate, 42, 25121 Brescia BS, Italy",BS,030 377 2089,http://www.bignamiviaggi.it/,NOT AVAILABLE,https://maps.google.com/?cid=11369118378057433708
Bluvacanze S.P.A.,agenzie di viaggio,"Via Crocifissa di Rosa, 47, 25128 Brescia BS, Italy",BS,030 383662,http://www.bluvacanze.it/,NOT AVAILABLE,https://maps.google.com/?cid=246500306058134717
Gate 65 I Viaggi,agenzie di viaggio,"Via Marcantonio Ducco, 1/C, 25123 Brescia BS, Italy",BS,030 252 3286,http://www.gate65iviaggi.it/,NOT AVAILABLE,https://maps.google.com/?cid=7704231807961240027
Ippogrifo Viaggi Brescia,agenzie di viaggio,"Via Marcantonio Ducco, 34, 25123 Brescia BS, Italy",BS,030 391398,http://www.ippogrifoviaggi.it/,info@ippogrifoviaggi.itvia,https://maps.google.com/?cid=17975378935556763922
Agenzia Viaggi Contrada 34 Soc. Cooperativa,agenzie di viaggio,"Contrada del Cavalletto, 34, 25122 Brescia BS, Italy",BS,030 375 0195,http://www.contrada34.it/,NOT AVAILABLE,https://maps.google.com/?cid=2827982523516575983
MASCARENE VIAGGI,agenzie di viaggio,"Via Milano, 45A/47, 25126 Brescia BS, Italy",BS,030 320506,NOT AVAILABLE,NOT AVAILABLE,https://maps.google.com/?cid=1287804028132592536
Travel Hub,agenzie di viaggio,"Via Istria, 3c, 25125 Brescia BS, Italy",BS,030 204 1400,https://www.travelhub.it/,booking@travelhub.it,https://maps.google.com/?cid=12967802566815144054
Il Viaggio Che Ti Manca,agenzie di viaggio,"Via Mirolte, 11/13, 25049 Iseo BS, Italy",BS,030 984 0517,http://www.ilviaggiochetimanca.com/,NOT AVAILABLE,https://maps.google.com/?cid=4626883025379042954
Panorama Viaggi,agenzie di viaggio,"Viale Venezia, 61/I, 25123 Brescia BS, Italy",BS,030 360449,http://www.panoramaviaggi.it/,NOT AVAILABLE,https://maps.google.com/?cid=15792050780243934822
Be Nomad Di Filippini Stefania,agenzie di viaggio,"Via Pietro Bulloni, 13, 25121 Brescia BS, Italy",BS,030 240 0468,http://www.benomad.it/,info@benomad.it,https://maps.google.com/?cid=15599991618088306738
Gattinoni Travel Store Brescia,agenzie di viaggio,"Via Giovanni Renica, 51, 25124 Brescia BS, Italy",BS,030 375 8079,https://www.gattinonitravel.it/?utm_source=gbp&utm_medium=local&utm_campaign=drivetostore,NOT AVAILABLE,https://maps.google.com/?cid=8962102518939013117
PROTAGONISTA VIAGGI By CLUB MED,agenzie di viaggio,"Via Parma, 10, 25125 Brescia BS, Italy",BS,030 353 3674,http://www.protagonistaviaggi.it/,info@protagonistaviaggi.it,https://maps.google.com/?cid=17887573653523135071
Volta 45 Viaggi & Vacanze,agenzie di viaggio,"Via della Volta, 45, 25124 Brescia BS, Italy",BS,351 373 4997,https://www.volta45.it/,info@volta45.it,https://maps.google.com/?cid=12329711779255233368
Agenzia Viaggi I Giardini D'Oriente,agenzie di viaggio,"Via Fratelli Cairoli, 8, 25122 Brescia BS, Italy",BS,030 290 6650,http://www.igiardinidoriente.it/,NOT AVAILABLE,https://maps.google.com/?cid=7279168278129474511
Bluvacanze Brescia,agenzie di viaggio,"Via Cipro, 166, 25124 Brescia BS, Italy",BS,030 242 2682,http://www.bluvacanze.it/,NOT AVAILABLE,https://maps.google.com/?cid=235421132988604110
Metevagabonde Brescia,agenzie di viaggio,"Via Moretto, 68/A, 25121 Brescia BS, Italy",BS,030 240 0522,http://www.metevagabonde.it/,italyinfo@metevagabonde.ittel,https://maps.google.com/?cid=3525682556134908474
AGENZIA VIAGGI VOYAGER 125,agenzie di viaggio,"Via Giacomo Matteotti, 125, 25086 Rezzato BS, Italy",BS,030 259 6141,http://www.voyager125.it/,NOT AVAILABLE,https://maps.google.com/?cid=12171882959356825478
Agenzia Viaggi Tuttomondo,agenzie di viaggio,"Contrada del Cavalletto, 4, 25122 Brescia BS, Italy",BS,030 42243,http://www.mediterraneo-to.it/,NOT AVAILABLE,https://maps.google.com/?cid=5438429675213842944
Tatami Viaggi,agenzie di viaggio,"Via Fratelli Ugoni, 8/C, 25126 Brescia BS, Italy",BS,030 294 2397,http://www.tatamiviaggi.it/,tatami@tatamiviaggi.it,https://maps.google.com/?cid=2997607184262585477
Agenzia di Viaggi Il Sesto Continente,agenzie di viaggio,"Via John Fitzgerald Kennedy, 40, 25030 Torbole Casaglia BS, Italy",BS,030 265 0478,http://www.ilsestocontinente.com/,NOT AVAILABLE,https://maps.google.com/?cid=17376475625028865187
Agenzia Viaggi Prossima Meta,agenzie di viaggio,"Via Umberto I°, 20, 25030 Castel Mella BS, Italy",BS,030 261 0922,http://www.prossimameta.com/,NOT AVAILABLE,https://maps.google.com/?cid=15319958153001532914
Agenzia Viaggi Jarvis di Gabrieli Cristina,agenzie di viaggio,"Via Giuseppe Zanardelli, 118, 25062 Concesio BS, Italy",BS,030 376 2784,http://www.jarvisviaggi.com/,jarvis@jarvisviaggi.com,https://maps.google.com/?cid=895421223608895954
Travel Agency Leonessa,agenzie di viaggio,"Via del Risorgimento, 75, 25127 Brescia BS, Italy",BS,030 300159,NOT AVAILABLE,NOT AVAILABLE,https://maps.google.com/?cid=1947398274051943748
Panorama Viaggi,agenzie di viaggio,"Via Felice Cavallotti, 12, 25121 Brescia BS, Italy",BS,030 44057,http://www.panoramaviaggi.it/,NOT AVAILABLE,https://maps.google.com/?cid=12396609932087202089
Last Minute Tour UVET VIAGGI E TURISMO,agenzie di viaggio,"Corsia del Gambero, 20, 25121 Brescia BS, Italy",BS,030 290 6391,https://www.lastminutetour.com/info/puntivendita.html,poviglio@lastminutetour.com,https://maps.google.com/?cid=6108881592155328508
Brevivet,agenzie di viaggio,"Via Alessandro Monti, 29, 25121 Brescia BS, Italy",BS,030 289 5311,https://www.brevivet.it/,NOT AVAILABLE,https://maps.google.com/?cid=2678715609505202951
AGENZIA VIAGGI,agenzie di viaggio,"Via Corsica, 295, 25125 Brescia BS, Italy",BS,030 245 2427,NOT AVAILABLE,NOT AVAILABLE,https://maps.google.com/?cid=13569944383210886891
Mareando Tour Brescia,agenzie di viaggio,"Via Chiusure, 333, 25127 Brescia BS, Italy",BS,030 241 0977,http://www.mareando.it/,web@mareando.it,https://maps.google.com/?cid=14154254849309867114
Assalama Viaggi Brescia,agenzie di viaggio,"Via Milano, 7/d, 25126 Brescia BS, Italy",BS,320 039 9341,NOT AVAILABLE,NOT AVAILABLE,https://maps.google.com/?cid=13192598518650913038
Haneen Group,agenzie di viaggio,"Piazza della Repubblica, 6, 25126 Brescia BS, Italy",BS,030 528 1472,https://www.haneen-group.com/,NOT AVAILABLE,https://maps.google.com/?cid=5633841779230496644
Olivetti Tours,agenzie di viaggio,"Via Privata de Vitalis, 5/B, 25124 Brescia BS, Italy",DE,030 242 0085,NOT AVAILABLE,NOT AVAILABLE,https://maps.google.com/?cid=7003587061280254200
Agenzia Viaggi Terraviglia,agenzie di viaggio,"Via Brescia, 188, 25075 Nave BS, Italy",BS,030 253 2224,http://www.terravigliaviaggi.it/,NOT AVAILABLE,https://maps.google.com/?cid=6627421441790217300
Viaggi Da Raccontare,agenzie di viaggio,"Via dei Prati, 25/D, 25073 Bovezzo BS, Italy",BS,030 211 6047,http://www.viaggidaraccontare.it/,info@viaggidaraccontare.it,https://maps.google.com/?cid=4537413521593734485
La Compagnia Delle Indie De I Viaggi Di Rachele,agenzie di viaggio,"Via Cesare Beccaria, 21, 25121 Brescia BS, Italy",BS,030 375 1060,https://www.iviaggidirachele.com/contatti,emailcastiglione@iviaggidirachele.com,https://maps.google.com/?cid=4678873670163033936
Punjab Aviation Di Singh Gurinder,agenzie di viaggio,"Via Milano, 73, 25126 Brescia BS, Italy",BS,327 142 5704,https://www.facebook.com/punjabaviationbrescia,NOT AVAILABLE,https://maps.google.com/?cid=11160449034278734032
Bluvacanze Villaggio Sereno,agenzie di viaggio,"Traversa XII, n.132, 25125 Villaggio Sereno BS, Italy",BS,030 097 7188,NOT AVAILABLE,NOT AVAILABLE,https://maps.google.com/?cid=2764425902328634163
Museo Viaggi,agenzie di viaggio,"Via Parrocchia, 1, 25020 Flero BS, Italy",BS,030 276 1111,https://www.museoviaggi.it/,NOT AVAILABLE,https://maps.google.com/?cid=10609961056707881698
Tuttomondo Viaggi sas,agenzie di viaggio,"Via Antonio Gramsci, 6a, 25122 Brescia BS, Italy",BS,NOT AVAILABLE,NOT AVAILABLE,NOT AVAILABLE,https://maps.google.com/?cid=634751923294061732
L'ora Feliz srl,agenzie di viaggio,"Piazza Italia, 3, 25060 Collebeato BS, Italy",BS,030 251 0069,https://www.lorafelizagenziaviaggi.com/,NOT AVAILABLE,https://maps.google.com/?cid=10596356402637034593
Ba.Ci e Viaggi,agenzie di viaggio,"Via Francesco Franchi, 47, 25045 Castegnato BS, Italy",BS,030 375 1146,https://sites.google.com/view/bacieviaggi?usp=sharing,info@bacieviaggi.itgoogle,https://maps.google.com/?cid=17783077642998199249
Travel & Fun Srl,agenzie di viaggio,"Via Moretto, 52, 25121 Brescia BS, Italy",BS,030 294 4152,NOT AVAILABLE,NOT AVAILABLE,https://maps.google.com/?cid=12210110724617841945
VALTROMPIA VIAGGI - EMMEBIESSE TRAVEL AGENCY,agenzie di viaggio,"Via Europa, 337, 25062 Concesio BS, Italy",BS,392 904 8867,http://www.valtrompiaviaggi.it/,concesio@valtrompiaviaggi.it,https://maps.google.com/?cid=9474836943156885017
Riva Viaggi - Istante Viaggi Palazzolo,agenzie di viaggio,"Centro Commerciale Europa, V.le Europa, 6, 25036 Palazzolo sull'Oglio BS, Italy",BS,030 740 2924,http://www.istanteviaggi.it/,NOT AVAILABLE,https://maps.google.com/?cid=1167685546189113143
Brevivet,agenzie di viaggio,"Via Trieste, 13, 25121 Brescia BS, Italy",BS,030 289 5311,http://brevivet.it/,NOT AVAILABLE,https://maps.google.com/?cid=1650923776022686586
Csi Centro Servizi Immigrati Di R Parkash E P Gioi,agenzie di viaggio,"Via Milano, 100, 25126 Brescia BS, Italy",BS,030 503 0529,http://www.csiviaggi.com/,NOT AVAILABLE,https://maps.google.com/?cid=2859662599890508217
CartOrange Viaggi su Misura,agenzie di viaggio,"Galleria Duomo, 7, 25121 Brescia BS, Italy",BS,030 377 1528,https://www.cartorange.com/,cartorange@cartorange.com,https://maps.google.com/?cid=8111504698910141464
Viaggi Moleskine,agenzie di viaggio,"Contrada del Cavalletto, 7/a, 25122 Brescia BS, Italy",BS,030 294 2231,http://www.viaggimoleskine.it/,030.2942231info@viaggimoleskine.itlun,https://maps.google.com/?cid=17785016645286851567
Agenzia Viaggi Kiocajo,agenzie di viaggio,"Piazza Vittorio Veneto, 24, 25064 Gussago BS, Italy",BS,030 252 4320,https://www.kiocajo.it/,NOT AVAILABLE,https://maps.google.com/?cid=9134646591100070947
Eos Viaggi SRL,agenzie di viaggio,"Via Dante, 3, 25010 Borgosatollo BS, Italy",BS,392 098 4286,https://www.eosviaggi.it/,luca@eosviaggi.it,https://maps.google.com/?cid=14788016472003474921
Youthpoint - I viaggi dei giovani,agenzie di viaggio,"Via Nicolò Tommaseo, 2/a, 25100 Brescia BS, Italy",BS,030 41889,http://www.youthpoint.eu/,prenotazioni@youthpoint.eu,https://maps.google.com/?cid=12305326871343011908
Nicolini Viaggi,agenzie di viaggio,"centro commerciale cristallo, Via Giovanni Falcone, 4, 25085 Gavardo BS, Italy",BS,0365 371501,http://www.nicoliniviaggi.it/,NOT AVAILABLE,https://maps.google.com/?cid=17731833702824830936
La mia guida di Brescia,agenzie di viaggio,"P.za del Foro, 1, 25121 BS, Italy",BS,347 766 7008,https://www.lamiaguidadibrescia.com/,NOT AVAILABLE,https://maps.google.com/?cid=15026864122285459043
Take The Plane,agenzie di viaggio,"Via Amba D'Oro, 25123 Brescia BS, Italy",BS,339 105 9994,https://www.taketheplane.it/,NOT AVAILABLE,https://maps.google.com/?cid=17392602737708819129
"Marcello Vedari - Guida turistica di Brescia, lago di Garda, lago d'Iseo e Franciacorta",agenzie di viaggio,"Via IV Novembre 1918, 38, 25086 Rezzato BS, Italy",BS,333 105 2438,https://isolalillaa.wixsite.com/bresciaedintorni,NOT AVAILABLE,https://maps.google.com/?cid=3554308270126016706
Connect,agenzie di viaggio,"Via Branze, 44, 25123 Brescia BS, Italy",BS,030 377 6173,http://www.connectviaggi.com/,NOT AVAILABLE,https://maps.google.com/?cid=17692645516863970793
Le Gru Travels,agenzie di viaggio,"Via Santuario, 2B, 25030 Castel Mella BS, Italy",BS,366 987 5117,http://www.legrutravels.net/,NOT AVAILABLE,https://maps.google.com/?cid=1729984582755647623
Osservando Il Mondo African Roads,agenzie di viaggio,"Via Boves, 5, 25124 Brescia BS, Italy",BS,335 534 0456,http://www.osservandoilmondo.com/,NOT AVAILABLE,https://maps.google.com/?cid=17873959962438160048
TIME TO FLY VACANZE,agenzie di viaggio,"Via della Volta, 6 TER, 25124 Brescia BS, Italy",BS,030 856 1374,https://www.timetoflyvacanze.com/,NOT AVAILABLE,https://maps.google.com/?cid=11989292825579238405
"OLTRE IL TONDINO – guida turistica Brescia, Garda, Iseo",agenzie di viaggio,"Via Caduti Piazza Loggia, 82, 25121 Botticino BS, Italy",BS,348 383 1984,https://www.oltreiltondino.it/,NOT AVAILABLE,https://maps.google.com/?cid=546724331503912312
Stefano Mutti - Guida Turistica Brescia - Tour Guide - Gästeführer,agenzie di viaggio,"Via Alessandro Volta, 1, 25122 Brescia BS, Italy",BS,349 166 8419,http://www.guidaturisticamantovaverona.it/,NOT AVAILABLE,https://maps.google.com/?cid=12993794627947456127
MilleMonti,agenzie di viaggio,"Via Corsica, 14, 25125 Brescia BS, Italy",BS,338 901 3003,https://www.millemonti.it/,9013003info@millemonti.it,https://maps.google.com/?cid=15594816945225519682
EGYTOURS - Agenzia viaggi,agenzie di viaggio,"Via S. Faustino, 9/C, 25122 Brescia BS, Italy",BS,030 503 1096,NOT AVAILABLE,NOT AVAILABLE,https://maps.google.com/?cid=4418789021364165123
Oltre il viaggio,agenzie di viaggio,"Via Carlo Prina, 4, 20900 Monza MB, Italy",MB,039 905 2434,https://oltreilviaggio.net/,NOT AVAILABLE,https://maps.google.com/?cid=12041659227873724105
Agenzia Viaggi Finestra sul Mondo di Nicoletta Artina,agenzie di viaggio,"Via Carlo Rota, 27, 20900 Monza MB, Italy",MB,039 940 2053,http://www.finestrasulmondo.com/,NOT AVAILABLE,https://maps.google.com/?cid=18076944050146632632
Agenzia Viaggi Papillon - Monza,agenzie di viaggio,"Via Gerolamo Borgazzi, 38, 20900 Monza MB, Italy",MB,039 200 2490,http://www.papillonviaggi.it/,NOT AVAILABLE,https://maps.google.com/?cid=3297965178949898523
Scam Viaggi S.r.l. Monza,agenzie di viaggio,"Via Lodovico Pavoni, 1, 20900 Monza MB, Italy",MB,039 839031,https://www.scamviaggi.it/,NOT AVAILABLE,https://maps.google.com/?cid=14802774701802011314
G & P Travel Snc Di Antonella Grassi E Patrizia Pioltelli,agenzie di viaggio,"Via Arrigo Boito, 73/A, 20900 Monza MB, Italy",MB,039 380090,http://www.geptravel.it/,info@geptravel.it,https://maps.google.com/?cid=4776853351316434881
Maniaci Dei Viaggi,agenzie di viaggio,"Via F. Confalonieri, 50, 20852 Villasanta MB, Italy",MB,039 205 4112,http://maniacideiviaggi.it/,NOT AVAILABLE,https://maps.google.com/?cid=3679739741955537673
Bluvacanze Monza,agenzie di viaggio,"Via Romagna, 33, 20900 Monza MB, Italy",MB,039 214 8008,https://monza.bluvacanze.it/,NOT AVAILABLE,https://maps.google.com/?cid=16112450798893524221
Paesaggialtrove,agenzie di viaggio,"Via Spalto Piodo, 10, 20900 Monza MB, Italy",MB,039 230 8940,http://www.paesaggialtrove.it/,info@paesaggialtrove.it,https://maps.google.com/?cid=15252243742333710855
Blacksun Viaggi,agenzie di viaggio,"Via San Fruttuoso, 13, 20900 Monza MB, Italy",MB,039 214 1439,http://www.blacksunviaggi.it/,dubbi.info@blacksunviaggi.it,https://maps.google.com/?cid=16046797667303072002
Viaggi nel Risparmio,agenzie di viaggio,"Via della Guerrina, 98/100, 20900 Monza MB, Italy",MB,039 284 8647,http://www.viagginelrisparmio.com/,NOT AVAILABLE,https://maps.google.com/?cid=15714492755373168696
De Luxe Travels,agenzie di viaggio,"Via Vittorio Emanuele II, 24/C, 20900 Monza MB, Italy",MB,039 211 0973,http://www.deluxe-travels.com/,info@deluxe-travels.com,https://maps.google.com/?cid=11654415225405245562
Viaggia Che Ti Passa,agenzie di viaggio,"Via A. Cederna, 24/C, 20900 Monza MB, Italy",MB,039 202 2088,http://www.viaggiachetipassa.fun/,NOT AVAILABLE,https://maps.google.com/?cid=3427064543890044892
Vivere & Viaggiare - Monza,agenzie di viaggio,"Via Alessandro Manzoni, 2, 20052 Monza MB, Italy",MB,039 232 6772,https://viaggi.bluvacanze.it/?utm_source=google&utm_medium=GMBSitelink&utm_campaign=GMBSitelink_Monza_103,NOT AVAILABLE,https://maps.google.com/?cid=2759324174918321450
GiraMondo Viaggi - Monza,agenzie di viaggio,"Via Dei Mille, 16/A, 20900 Monza MB, Italy",MB,039 230 7479,http://www.giramondo.it/,NOT AVAILABLE,https://maps.google.com/?cid=2198338637792467209
I Viaggi di Simona,agenzie di viaggio,"Via Magenta, 12, 20900 Monza MB, Italy",MB,347 882 0943,https://www.iviaggidisimona.com/,NOT AVAILABLE,https://maps.google.com/?cid=9934356086576428790
Gattinoni Travel Store Monza,agenzie di viaggio,"Via Carlo Alberto, 13, 20900 Monza MB, Italy",MB,039 230 2040,https://www.gattinonitravel.it/?utm_source=gbp&utm_medium=local&utm_campaign=drivetostore,NOT AVAILABLE,https://maps.google.com/?cid=9244198837814419493
Famiglie in Tour,agenzie di viaggio,"Via Adigrat, 14, 20900 Monza MB, Italy",MB,039 741641,https://famiglieintour.com/,info@famiglieintour.com,https://maps.google.com/?cid=4018583855445346922
Touring Club Italiano,agenzie di viaggio,"Via Francesco Frisi, 2, 20900 Monza MB, Italy",MB,039 232 6467,https://mypushop.com/punto-touring-club-italiano-monza-agenzia-viaggi-monza-monza-e-brianza-e-provincia-a00ab9-s/,NOT AVAILABLE,https://maps.google.com/?cid=1510108881496776854
Muriando Travel,agenzie di viaggio,"Via Calatafimi, 7, 20052 Monza MB, Italy",MB,039 677 2333,NOT AVAILABLE,NOT AVAILABLE,https://maps.google.com/?cid=3630457288131187046
Lissone Viaggi di The Time Machine,agenzie di viaggio,"Via Antonio Gramsci, 2 D, 20851 Lissone MB, Italy",MB,039 245 5301,https://www.lissoneviaggi.it/,NOT AVAILABLE,https://maps.google.com/?cid=17602431229942098529
FlyLab Travels,agenzie di viaggio,"Via M. Buonarroti, 22/G, 20900 Monza MB, Italy",MB,375 631 0363,http://www.flylabtravels.com/,NOT AVAILABLE,https://maps.google.com/?cid=12797759856423352711
Dove Nel Mondo Viaggi,agenzie di viaggio,"Viale Monza, 160, 20127 Milano MI, Italy",MI,02 2700 0564,http://www.dovenelmondoviaggi.it/,agenzia@dovenelmondoviaggi.it,https://maps.google.com/?cid=15584033051680799121
Bluvacanze - Agrate Brianza,agenzie di viaggio,"Via Cesare Battisti, 35, 20864 Agrate Brianza MB, Italy",MB,039 689 0027,https://bluvacanze.it/?utm_source=google&utm_medium=GMBSitelink&utm_campaign=GMBSitelink_Agrate_Brianza_386,NOT AVAILABLE,https://maps.google.com/?cid=5181996323964119047
Bluvacanze - Lissone,agenzie di viaggio,"Via Loreto, 37, 20851 Lissone MB, Italy",MB,039 245 4104,https://bluvacanze.it/?utm_source=google&utm_medium=GMBSitelink&utm_campaign=GMBSitelink_Lissone_280,NOT AVAILABLE,https://maps.google.com/?cid=4658597176127922213
Gio Viaggi Di Bruno Giordano,agenzie di viaggio,"Via Federico Confalonieri, 48G, 20835 Muggiò MB, Italy",MB,349 317 9163,NOT AVAILABLE,NOT AVAILABLE,https://maps.google.com/?cid=3052138713712035303
"SIDDHARTA VIAGGI - organizzazione viaggi e vacanze, tour di gruppo, viaggi di nozze.",agenzie di viaggio,"Via Toscana, 10, 20061 Carugate MI, Italy",MI,02 925 3823,http://www.siddhartaviaggi.it/,NOT AVAILABLE,https://maps.google.com/?cid=15824768769094559470
La Zattera Viaggi,agenzie di viaggio,"Via Trento e Trieste, 9, 20900 Arcore MB, Italy",MB,039 601 3691,http://www.zatteraviaggi.it/,info@zatteraviaggi.it,https://maps.google.com/?cid=2389061172624636450
Agenzia Ola Loca Viaggi,agenzie di viaggio,"Viale Rinascita, 80, 20092 Cinisello Balsamo MI, Italy",MI,02 6129 8685,http://www.olalocaviaggi.com/,info@olalocaviaggi.com,https://maps.google.com/?cid=17599602816641020348
TRE RE VIAGGI di Martinelli Daniele,agenzie di viaggio,"Via Tre Re, 6, 20861 Brugherio MB, Italy",RE,039 900 8690,NOT AVAILABLE,NOT AVAILABLE,https://maps.google.com/?cid=694883956936245325
Suomi Viaggi S.N.C. Di Pistocchi L. & C. Monza,agenzie di viaggio,"Viale Vittorio Veneto, 7, 20900 Monza MB, Italy",MB,039 284 8577,http://www.suomiviaggi.it/,NOT AVAILABLE,https://maps.google.com/?cid=17083475170003708225
Crea Viaggi S.a.s. Di Cattaneo Nicoletta E C.,agenzie di viaggio,"Via Cesana e Villa, 89, 20853 Biassono MB, Italy",MB,039 491911,NOT AVAILABLE,NOT AVAILABLE,https://maps.google.com/?cid=6695262600014003420
Standard Travel Sas Di Cotta Ramusino Antonia & C.,agenzie di viaggio,"Via Dante Alighieri, 49, 20099 Sesto San Giovanni MI, Italy",MI,02 2247 1213,http://www.standardtravel.it/,info@standardtravel.it,https://maps.google.com/?cid=8947580858784758674
viaggi hakunamatata,agenzie di viaggio,"Via Galileo Galilei, 22/24, 20853 Biassono MI, Italy",MI,039 232 4162,http://www.viaggihakunamatata.com/httpdocs/azienda.htm,NOT AVAILABLE,https://maps.google.com/?cid=12872581449551624614
Kanguro Viaggi E Vacanze S.R.L.,agenzie di viaggio,"Piazza Giovanni-XXIII, 10, 20851 Lissone MB, Italy",MB,039 461637,http://www.kanguroviaggi.com/,NOT AVAILABLE,https://maps.google.com/?cid=12294335106131968415
GeoTrawell - Viaggiare Bene il Mondo,agenzie di viaggio,"Via Piermarini, 3, 20900 Monza MB, Italy",MB,039 328689,NOT AVAILABLE,NOT AVAILABLE,https://maps.google.com/?cid=3092034146012046081
Blunoa,agenzie di viaggio,"Via Eugenio Curiel, 36, 20093 Cologno Monzese MI, Italy",MI,393 958 5359,http://www.blunoaviaggi.com/,laura@blunoaviaggi.it,https://maps.google.com/?cid=5016762587620563957
Vivere & Viaggiare,agenzie di viaggio,"Via Libertà, 195, 20863 Concorezzo MB, Italy",MB,039 690 8169,https://concorezzo.vivereeviaggiare.it/,NOT AVAILABLE,https://maps.google.com/?cid=15341096570811915127
Bluvacanze Viale Monza Agenzia Viaggi,agenzie di viaggio,"Viale Monza, 87, 20125 Milano MI, Italy",MI,02 2611 6411,https://milanovialemonza.bluvacanze.it/,NOT AVAILABLE,https://maps.google.com/?cid=10456277358873248865
Bluvacanze,agenzie di viaggio,"Viale Italia, 555, 20099 Sesto San Giovanni MI, Italy",MI,02 2441 6924,https://bluvacanze.it/?utm_source=google&utm_medium=GMBSitelink&utm_campaign=GMBSitelink_Sesto_San_Giovanni_369,NOT AVAILABLE,https://maps.google.com/?cid=16715019037858584761
Destinazione Sole - Brugherio,agenzie di viaggio,"Via A. Doria, 29, 20861 Brugherio MB, Italy",MB,039 228 7011,http://www.destinazionesole.it/,info@destinazionesole.it,https://maps.google.com/?cid=17936320643141144581
Soluzione Travel,agenzie di viaggio,"Via Libertà, 62, 20863 Concorezzo MB, Italy",MB,039 596 8156,http://www.soluzionetravel.it/,NOT AVAILABLE,https://maps.google.com/?cid=5755918287773984145
Effeviaggi Di Fossati Roberta & C. Sas,agenzie di viaggio,"Via Antonio Origo, 23, 20851 Lissone MB, Italy",MB,039 214 5240,https://www.gattinonimondodivacanze.it/agenzia/verde-smeraldo,NOT AVAILABLE,https://maps.google.com/?cid=12576761705382468247
Giorni Tour srl - Tour operator viaggi di gruppo in pullman - Agenzia viaggi,agenzie di viaggio,"Via Giacomo Matteotti, 70, 20842 Besana in Brianza MB, Italy",IN,0362 994809,https://www.giorni.biz/?utm_source=MyBusiness&utm_medium=SitoScheda,iniziative@giorni.biz,https://maps.google.com/?cid=2368883936087152463
Agenzia Viaggi Grigna,agenzie di viaggio,"Via Dante Alighieri, 3, 20900 Monza MB, Italy",MB,039 239 9347,http://www.grignaexpress.it/,NOT AVAILABLE,https://maps.google.com/?cid=986999830988461183
Agenzia viaggi Goblin Viaggi,agenzie di viaggio,"Via Giuseppe Mazzini, 39, 20852 Villasanta MB, Italy",MB,345 540 6171,https://goblinviaggi.it/,info@goblinviaggi.itgiusi,https://maps.google.com/?cid=7994168108984215593
Agenzia Qi Viaggi,agenzie di viaggio,"Via Padre Clemente Vismara, 63, 20864 Agrate Brianza MB, Italy",MB,039 689 2297,http://www.qiviaggi.it/,info@qiviaggi.it,https://maps.google.com/?cid=10738411001098944547
Antigua Viaggi,agenzie di viaggio,"Via Umberto I, 46, 20862 Arcore MB, Italy",MB,039 688 2257,https://www.antiguaviaggi.com/,NOT AVAILABLE,https://maps.google.com/?cid=7378853390871146354
Vox Tour Operator,agenzie di viaggio,"Via Lorenzo Perosi, 16, 20900 Monza MB, Italy",MB,NOT AVAILABLE,https://voxtouroperator.it/,info@voxtouroperator.it,https://maps.google.com/?cid=8145222877589113614
Bluvacanze - Brugherio C.C. Bennet,agenzie di viaggio,"C. Bennet, Viale Lombardia, 264/C, 20861 Brugherio MB, Italy",MB,039 287 3829,https://bluvacanze.it/?utm_source=google&utm_medium=GMBSitelink&utm_campaign=GMBSitelink_Brugherio_275,NOT AVAILABLE,https://maps.google.com/?cid=15339848157849450164
Agenzia Viaggi Honeymoon Travel Emotions,agenzie di viaggio,"Via Monte Santo, 4, 20900 Monza MB, Italy",MB,391 754 2042,https://honeymoon-travelemotions.webnode.it/,NOT AVAILABLE,https://maps.google.com/?cid=13803750870119557550
Surya Viaggi,agenzie di viaggio,"Via Baruso, 25, 20835 Muggiò MB, Italy",MB,039 941 7970,NOT AVAILABLE,NOT AVAILABLE,https://maps.google.com/?cid=12890251715261414374
Agenzia Viaggi Failla Salvatore Salvatore Muggiò,agenzie di viaggio,"Piazza Giuseppe Garibaldi, 15, 20835 Muggiò MB, Italy",MB,039 262 5398,http://sunwaytour.pinguino.it/,sunwaytour@pinguinoviaggi.netwww.sunwaytour.pinguino.it,https://maps.google.com/?cid=3343465760150310275
part_IRE Viaggi di Nozze - Agenzia Viaggi Online di Irene Mariani,agenzie di viaggio,"Via Ugo Foscolo, 19, 20063 Cernusco sul Naviglio MI, Italy",MI,348 565 4834,http://www.part-ire.com/,NOT AVAILABLE,https://maps.google.com/?cid=5200268502386938604
Primaklasse | Agenzia di Comunicazione B2B,agenzie di viaggio,"Via Giacomo Leopardi, 22, 20900 Monza MB, Italy",MB,039 688 6101,http://www.primaklasse.com/,info@primaklasse.com,https://maps.google.com/?cid=15732040247306923851
Tailor - Made,agenzie di viaggio,"Via Dante Alighieri, 5, 20900 Monza MB, Italy",MB,039 971 6198,http://tailor-made.it/,allegra@tailor-made.it,https://maps.google.com/?cid=12422550037142801983
Haere Tatou di Consonni Emilia,agenzie di viaggio,"Via Enrico Toti, 20, 20846 Macherio MB, Italy",MB,039 214 3279,http://haeretatou.gattinonimondodivacanze.it/,NOT AVAILABLE,https://maps.google.com/?cid=909445537004852031
Stelo Viaggi,agenzie di viaggio,"Via Luigi Cadorna, 49, 20092 Cinisello Balsamo MI, Italy",MI,02 6129 3712,http://www.steloviaggi.it/,NOT AVAILABLE,https://maps.google.com/?cid=1544150379534885347
Seiviaggi,agenzie di viaggio,"Vicolo del Duomo, 2, 20900 Monza MB, Italy",MB,039 390 0274,NOT AVAILABLE,NOT AVAILABLE,https://maps.google.com/?cid=16391892170587127032
B2B TRAVEL S.R.L,agenzie di viaggio,"Via Venti Settembre, 2, 20900 Monza MB, Italy",MB,039 963 9748,http://www.b2bfly.it/,info@b2bfly.it,https://maps.google.com/?cid=7712827653503290453
Bluvacanze - Vimercate C.C. Torribianche,agenzie di viaggio,"Via Torri Bianche, 16, 20871 Vimercate MB, Italy",MB,039 608 5093,https://bluvacanze.it/?utm_source=google&utm_medium=GMBSitelink&utm_campaign=GMBSitelink_Vimercate_360,NOT AVAILABLE,https://maps.google.com/?cid=9726877020825205814
Samarka Viaggi,agenzie di viaggio,"Via Indipendenza, 162, 20821 Meda MB, Italy",MB,388 820 3265,http://www.samarka.it/,NOT AVAILABLE,https://maps.google.com/?cid=6117507171453421470
LATITUDINE SUD - AGENZIA VIAGGI AFRICA,agenzie di viaggio,"Viale Fratelli Casiraghi, 219, 20099 Sesto San Giovanni MI, Italy",MI,02 3954 7766,https://latitudinesud-continentenero-visit-africa.it/,NOT AVAILABLE,https://maps.google.com/?cid=7221210064802570839
Multiservice La Etnica,agenzie di viaggio,"Viale Fratelli Casiraghi, 376, 20099 Sesto San Giovanni MI, Italy",MI,02 9280 2322,NOT AVAILABLE,NOT AVAILABLE,https://maps.google.com/?cid=14310265934807353586
Cairo Tours Di Hammad Hisham Sesto San Giovanni,agenzie di viaggio,"Via Zara, 9, 20099 Sesto San Giovanni MI, Italy",MI,02 8907 6455,NOT AVAILABLE,NOT AVAILABLE,https://maps.google.com/?cid=12761336244525064920
Viaggia Felice,agenzie di viaggio,"Via Giovanni da Sovico, 66, 20845 Sovico MB, Italy",MB,039 598 8079,http://www.viaggiafelice.it/,NOT AVAILABLE,https://maps.google.com/?cid=17478995406273828227
Gattinoni Travel Store Sesto San Giovanni,agenzie di viaggio,"Viale Antonio Gramsci, 33, 20099 Sesto San Giovanni MI, Italy",MI,02 2247 7218,https://www.gattinonitravel.it/?utm_source=gbp&utm_medium=local&utm_campaign=drivetostore,NOT AVAILABLE,https://maps.google.com/?cid=3078888127426560997
Contigo Travel & Service,agenzie di viaggio,"Via Giovanni Boccaccio, 167, 20099 Sesto San Giovanni MI, Italy",MI,02 3966 2382,https://www.contigots.it/,info@contigots.it,https://maps.google.com/?cid=9035974635066968635
Agenzia Viaggi Matamis,agenzie di viaggio,"Viale Monza, 271, 20126 Milano MI, Italy",MI,02 3653 0427,https://www.matamisviaggi.it/,NOT AVAILABLE,https://maps.google.com/?cid=4168417763197825901
Agenzia i Viaggi di Gabriel,agenzie di viaggio,"Via Borromeo, 50, 20811 Cesano Maderno MB, Italy",MB,0362 140 0059,https://iviaggidigabriel.eu/,NOT AVAILABLE,https://maps.google.com/?cid=12939356728892105840
Arenatours - Viaggi Esotici,agenzie di viaggio,"Viale Monza, 347, 20126 Milano MI, Italy",MI,02 0062 4923,https://arenatours.com/it/,hello@arenatours.com,https://maps.google.com/?cid=8865343480011959928
AGENZIA VIAGGI HABANA SOL CLUB MEDA,agenzie di viaggio,"Via Indipendenza, 78, 20821 Meda MB, Italy",MB,0362 347360,http://www.habanasol.it/,NOT AVAILABLE,https://maps.google.com/?cid=18276393178156188253
Travelit Viaggi & Events Srl,agenzie di viaggio,"Via Roma, 28, 20057 Assago MI, Italy",MI,02 3663 6090,http://www.travelit.srl/,info@travelit.srl,https://maps.google.com/?cid=15451002216904445699
Bluvacanze - Nova Milanese,agenzie di viaggio,"Via Paolo Mariani, 14, 20834 Nova Milanese MB, Italy",MB,0362 366625,https://bluvacanze.it/?utm_source=google&utm_medium=GMBSitelink&utm_campaign=GMBSitelink_Nova_Milanese_357,NOT AVAILABLE,https://maps.google.com/?cid=7368846758699541445
Agenzia Viaggi Balajo',agenzie di viaggio,"Corso della Libertà, 53, 20811 Cesano Maderno MB, Italy",MB,0362 508100,http://www.balajo.it/,balajo@pec.balajo.it,https://maps.google.com/?cid=15609250027799060706
Frigerio Viaggi - Sede di Giussano,agenzie di viaggio,"Via Viganò, 5, 20833 Giussano MB, Italy",MB,0362 350001,https://www.frigerioviaggi.com/,NOT AVAILABLE,https://maps.google.com/?cid=4637041088599285707
Etnopoint,agenzie di viaggio,"Viale Monza, 154, 20127 Milano MI, Italy",MI,329 359 1352,http://etnopoint.it/,NOT AVAILABLE,https://maps.google.com/?cid=2287091147989800439
Tang Lang Viaggi,agenzie di viaggio,"Viale S. Josemaria Escrivà de Balaguer, 6, 21047 Saronno VA, Italy",DE,333 473 6030,https://www.tanglangviaggi.it/,info@tanglangviaggi.itp.iva,https://maps.google.com/?cid=16018969543209014980
TravelExperts,agenzie di viaggio,"Viale Monza, 58, 20127 Milano MI, Italy",MI,02 4070 1812,http://www.travelexperts.it/,contact@travelexperts.it,https://maps.google.com/?cid=12605197080885981710
CLASCI VIAGGI,agenzie di viaggio,"C.so Federico Borromeo, 34, 20822 Seveso MB, Italy",MB,0362 575013,http://www.clasciviaggi.it/,NOT AVAILABLE,https://maps.google.com/?cid=14106815412634180281
Viaggi di Nozze network,agenzie di viaggio,"Via Gianfranco Zuretti, 50, 20125 Milano MI, Italy",MI,02 5810 0748,http://www.viaggidinozze.net/,NOT AVAILABLE,https://maps.google.com/?cid=78674652439560072
Malabar Viaggi Carate Brianza,agenzie di viaggio,"Via Francesco Cusani, 61, 20841 Carate Brianza MB, Italy",MB,0362 912153,http://www.malabarviaggi.com/,info@malabarviaggi.comindirizzovia,https://maps.google.com/?cid=2307576777921547123
Agenzia Viaggi Clio Viaggi Srl,agenzie di viaggio,"P.za Maggiore, 22, 20065 Inzago MI, Italy",MI,02 954 7531,http://www.clioviaggi.com/,inzago@clioviaggi.com,https://maps.google.com/?cid=6582003540256387018
NUOVA FABELLO VIAGGI SRL,agenzie di viaggio,"Via Enrico Cernuschi, 1, 20129 Milano MI, Italy",MI,335 636 9268,http://www.nuovafabelloviaggi.com/,info@nuovafabelloviaggi.comsito,https://maps.google.com/?cid=12337602867984257576
Franca Viaggi Srl,agenzie di viaggio,"Via Roma, 21, 20865 Usmate Velate MB, Italy",MB,039 674590,https://vacanzedare.gattinonimondodivacanze.it/,info@vacanzedare.itindirizzovia,https://maps.google.com/?cid=13580496382251111880
Al 31 Viaggi,agenzie di viaggio,"Via Zanica, 31/a, 24126 Bergamo BG, Italy",BG,035 424 3121,http://www.al31viaggi.it/,NOT AVAILABLE,https://maps.google.com/?cid=17894935519312212187
Viaggi Lorandi di Cinquantacinque S.R.L.,agenzie di viaggio,"Largo Porta Nuova, 16a, 24122 Bergamo BG, Italy",BG,035 222244,http://www.viaggilorandi.it/,info@viaggilorandi.it,https://maps.google.com/?cid=535455421259487791
Ascot Agenzia Viaggi,agenzie di viaggio,"Via Broseta, 38, 24122 Bergamo BG, Italy",BG,035 211349,http://www.ascotviaggi.com/,agenzia@ascotviaggi.com,https://maps.google.com/?cid=17716163416266282854
IASSU VIAGGI,agenzie di viaggio,"Via F. Corridoni, 12, 24124 Bergamo BG, Italy",BG,035 362382,https://www.edenviaggi.it/dettaglio-agenzia/12895/iassu-viaggi-sas,NOT AVAILABLE,https://maps.google.com/?cid=16849047502524948046
Viaggi Voltaire,agenzie di viaggio,"Via Sant'Alessandro, 78, 24122 Bergamo BG, Italy",BG,035 231682,http://www.viaggivoltaire.it/,booking@voltaire.it,https://maps.google.com/?cid=16763591308939149267
Borgoviaggi - Agenzia viaggi Bergamo,agenzie di viaggio,"Via Giovanni Carnovali, 88, 24126 Bergamo BG, Italy",BG,035 388 2500,https://www.borgoviaggi.it/,info@borgoviaggi.it,https://maps.google.com/?cid=15266586115180589538
Maceba Viaggi,agenzie di viaggio,"Via F. Corridoni, 42/f, 24124 Bergamo BG, Italy",BG,035 363600,http://www.macebaviaggi.it/,marketing@macebaviaggi.it,https://maps.google.com/?cid=227398879012110412
Turistiamo,agenzie di viaggio,"Via Borgo Palazzo, 90, 24125 Bergamo BG, Italy",BG,035 211864,https://www.turistiamo.it/,NOT AVAILABLE,https://maps.google.com/?cid=1012408167508428830
New Travel Agenzia Viaggi,agenzie di viaggio,"Piazza IV Novembre, 3, 24052 Azzano San Paolo BG, Italy",BG,035 533415,http://www.newtravel.biz/,NOT AVAILABLE,https://maps.google.com/?cid=18397954572880958888
Zani Travel - Bergamo Agency,agenzie di viaggio,"Via Vincenzo Magni, 2a, 24125 Bergamo BG, Italy",BG,035 678678,http://www.zaniviaggi.com/it,NOT AVAILABLE,https://maps.google.com/?cid=1945169412553641240
Vagari Travel,agenzie di viaggio,"Via Antonio Berlese, 9, 24124 Bergamo BG, Italy",BG,035 093 4835,http://www.vagaritravel.it/,NOT AVAILABLE,https://maps.google.com/?cid=12307481416036474762
Viaggiamo Etli Tac S.r.l.,agenzie di viaggio,"Via Giuseppe Garibaldi, 3/B, 24122 Bergamo BG, Italy",BG,035 218325,http://www.etli.bergamo.it/,NOT AVAILABLE,https://maps.google.com/?cid=11561729729422817022
Centocittà Viaggi,agenzie di viaggio,"Via Betty Ambiveri, 25, 24126 Bergamo BG, Italy",BG,035 322899,http://www.centocittaviaggi.it/,info@centocittaviaggi.it,https://maps.google.com/?cid=14586616680238371230
Caramba Che Viaggi (ex Feliz Viaje) Bergamo,agenzie di viaggio,"Via Gianbattista Moroni, 162, 24122 Bergamo BG, Italy",BG,035 240260,https://www.facebook.com/Carambacheviaggibergamo,NOT AVAILABLE,https://maps.google.com/?cid=2338568077992100584
OVET Viaggi,agenzie di viaggio,"Viale Papa Giovanni XXIII, 110, 24121 Bergamo BG, Italy",BG,035 243723,https://www.ovetviaggi.it/,NOT AVAILABLE,https://maps.google.com/?cid=5780282283664330351
Il Tetto Del Mondo Agenzia Viaggi,agenzie di viaggio,"Via Bergamo, 32, 24035 Curno BG, Italy",BG,035 463636,NOT AVAILABLE,NOT AVAILABLE,https://maps.google.com/?cid=4720481240258983452
Agenzia Viaggi in Corso S.R.L.,agenzie di viaggio,"Corso Roma, 72a, 24068 Seriate BG, Italy",BG,035 452 0335,http://www.viaggincorso.com/,NOT AVAILABLE,https://maps.google.com/?cid=13456030861847696074
BREMBO VIAGGI - Incoming Bergamo & Italy,agenzie di viaggio,"Via Pontesecco, 7, 24010 Ponteranica BG, Italy",BG,035 575431,http://www.bremboviaggi.com/,info@bremboviaggi.it,https://maps.google.com/?cid=5765072122930945679
Travel Design Studio,agenzie di viaggio,"Via Bianzanella, 11, 24124 Bergamo BG, Italy",BG,035 1990 1200,http://www.traveldesignstudio.com/,info@traveldesignstudio.com,https://maps.google.com/?cid=1323993527406865692
Job Viaggi Bergamo,agenzie di viaggio,"Via Giorgio e Guido Paglia, 28, 24122 Bergamo BG, Italy",BG,035 214359,http://www.jobviaggi.it/,milano@jobviaggi.it,https://maps.google.com/?cid=11819679037885621420
Bluvacanze Corridoni,agenzie di viaggio,"Via F. Corridoni, 16A, 24124 Bergamo BG, Italy",BG,035 417 5000,https://bluvacanze.it/?utm_source=google&utm_medium=GMBSitelink&utm_campaign=GMBSitelink_Bergamo_441,NOT AVAILABLE,https://maps.google.com/?cid=4598284866291434436
Vola e Va Agenzia Viaggi Giramondo,agenzie di viaggio,"Via S. Giovanni Bosco, 29/E, 24100 Bergamo BG, Italy",BG,340 947 5663,https://www.facebook.com/GiraMondoBergamoMalpensata/,NOT AVAILABLE,https://maps.google.com/?cid=14066519679882123533
ISTANTE VIAGGI BERGAMO/Idea Vacanze,agenzie di viaggio,"Via Broseta, 59, 24128 Bergamo BG, Italy",BG,035 265 0433,http://www.istanteviaggi.it/,NOT AVAILABLE,https://maps.google.com/?cid=8021625259787814684
Toyot Viaggi S.R.L.,agenzie di viaggio,"Via Legionari in Polonia, 35a, 24128 Bergamo BG, Italy",IN,035 261279,https://toyotviaggi.it/,viaggi@toyotviaggi.com,https://maps.google.com/?cid=13849752493288600721
Immagini dal Mondo,agenzie di viaggio,"Via Pietro Ronzoni, 12, 24127 Bergamo BG, Italy",BG,035 210965,http://www.idmviaggi.com/,NOT AVAILABLE,https://maps.google.com/?cid=10321856573544158276
Turi Turi Tour Operator de Il Migratore Srl,agenzie di viaggio,"Via F. Corridoni, 6, 24124 Bergamo BG, Italy",BG,035 215956,http://www.turituri.com/,info@turituri.com,https://maps.google.com/?cid=16035903488611192193
Roncalli Viaggi,agenzie di viaggio,"Via Alberto Pitentino, 2, 24124 Bergamo BG, Italy",BG,035 225501,https://www.roncalliviaggi.it/,info@roncalliviaggi.it,https://maps.google.com/?cid=8480392778717013612
Le Chic Viaggi S.R.L.,agenzie di viaggio,"Via Torquato Tasso, 80, 24121 Bergamo BG, Italy",BG,035 221260,https://lechicviaggi.it/,NOT AVAILABLE,https://maps.google.com/?cid=9903351896865433726
Agenzia Viaggi Mister Holiday Curnasco,agenzie di viaggio,"Via M. L. Cadorna, 76, 24048 Treviolo BG, Italy",BG,035 622 1277,NOT AVAILABLE,NOT AVAILABLE,https://maps.google.com/?cid=5525852394842639897
Viaggi Arcobaleno Orio,agenzie di viaggio,"Via Portico, 59, 24050 Orio al Serio BG, Italy",AL,035 330688,http://www.viaggiarcobaleno.it/,info@viaggiarcobaleno.it,https://maps.google.com/?cid=13963123709736923267
Gattinoni Travel Store Bergamo,agenzie di viaggio,"Via Giorgio e Guido Paglia, 4, 24122 Bergamo BG, Italy",BG,035 222294,https://www.gattinonitravel.it/?utm_source=gbp&utm_medium=local&utm_campaign=drivetostore,NOT AVAILABLE,https://maps.google.com/?cid=17078682477473847337
Agenzia di viaggi internazionale,agenzie di viaggio,"Via Borgo Palazzo, 55, 24121 Bergamo BG, Italy",BG,342 184 8555,NOT AVAILABLE,NOT AVAILABLE,https://maps.google.com/?cid=8464262848169211591
Elounda viaggi,agenzie di viaggio,"Via Papa Giovanni XXIII, 74, 24020 Villa di Serio BG, Italy",BG,035 667086,http://www.eloundaviaggi.it/,info@eloundaviaggi.itfondo,https://maps.google.com/?cid=14366154262650976761
Roxteam Viaggi E Vacanze,agenzie di viaggio,"Portici Sentierone, 50, 24121 Bergamo BG, Italy",BG,035 271180,http://www.roxteam.it/,info@roxteamviaggi.it,https://maps.google.com/?cid=7125759811789307126
Travelix,agenzie di viaggio,"Via Borgo Palazzo, 8A, 24125 Bergamo BG, Italy",BG,035 318925,http://www.travelix.it/,travelix@travelix.it,https://maps.google.com/?cid=7487361726441909660
Multimedia Travel,agenzie di viaggio,"Via Angelo Maj, 15/e, 24121 Bergamo BG, Italy",BG,035 211675,http://www.multimediatravel.com/,NOT AVAILABLE,https://maps.google.com/?cid=8804044523545859900
Destinazione Sole - Ranica,agenzie di viaggio,"Via Giovanni Adelasio, 10, 24020 Ranica BG, Italy",BG,035 412 3370,http://destinazionesole.it/chi-siamo/,info@destinazionesole.it,https://maps.google.com/?cid=15467609470245281578
Ponte Travel Group - Agenzia Viaggi Dalmine - Bergamo,agenzie di viaggio,"Viale A. Locatelli, 119, 24044 Dalmine BG, Italy",BG,035 565611,https://www.pontetravel.it/,NOT AVAILABLE,https://maps.google.com/?cid=17694346747309712619
Destinazione Sole - Alzano Lombardo,agenzie di viaggio,"Via Andrea Fantoni, 42, 24022 Alzano Lombardo BG, Italy",BG,035 341105,https://www.destinazionesole.it/,info@destinazionesole.it,https://maps.google.com/?cid=5690248137653381613
Ayala Viaggi Curno,agenzie di viaggio,"c/o Centro Commerciale Curno, Via Enrico Fermi, 1, 24035 Curno BG, Italy",BG,035 463750,http://www.ayalaviaggi.it/,NOT AVAILABLE,https://maps.google.com/?cid=3349528812155897795
Ines&Bruno Holiday Viaggi,agenzie di viaggio,"Piazza Emanuele Filiberto, 8e, 24126 Bergamo BG, Italy",BG,035 424 3722,https://www.holidayviaggi.it/,NOT AVAILABLE,https://maps.google.com/?cid=13536507296746908633
Magoni Viaggi,agenzie di viaggio,"Via Giovanni XXIII, 23, 24030 Brembate di Sopra BG, Italy",BG,035 333062,http://www.magoniviaggi.it/,NOT AVAILABLE,https://maps.google.com/?cid=16778108988445977541
Viaggi Arcobaleno Seriate,agenzie di viaggio,"Via Brusaporto, 41, 24068 Seriate BG, Italy",BG,035 452 3873,http://www.viaggiarcobaleno.it/,info@viaggiarcobaleno.it,https://maps.google.com/?cid=10382047444777128644
TRAVEL WAYS S.R.L.,agenzie di viaggio,"Via Ermete Novelli, 4B, 24122 Bergamo BG, Italy",BG,035 242309,https://www.travelways.it/,travel@travelways.itvia,https://maps.google.com/?cid=15825620575880381245
AURYN VIAGGI Srl,agenzie di viaggio,"Via Alberto Pitentino, 8, 24124 Bergamo BG, Italy",BG,035 236660,http://www.aurynviaggi.it/,NOT AVAILABLE,https://maps.google.com/?cid=16562429992498326260
Gustinetti Viaggi s.a.s.,agenzie di viaggio,"Via Giuseppe Mazzini, 18, 24020 Gorle BG, Italy",BG,035 003 7386,http://www.gustinettiviaggi.it/,NOT AVAILABLE,https://maps.google.com/?cid=11608333138440694983
Isola Magica S.R.L.,agenzie di viaggio,"Corso Roma, 25, 24068 Seriate BG, Italy",BG,035 423 6481,http://isolamagica.net/,NOT AVAILABLE,https://maps.google.com/?cid=2405990166525326589
Passatempo Srl Tour Operator - Agenzia Viaggi,agenzie di viaggio,"Via Giosuè Carducci, 13/C, 24127 Bergamo BG, Italy",BG,035 403530,http://www.passatempotour.it/,NOT AVAILABLE,https://maps.google.com/?cid=14838249569156969189
Avamposti S.R.L.,agenzie di viaggio,"Via Borgo Palazzo, 59/d, 24125 Bergamo BG, Italy",BG,035 233439,http://www.avamposti.it/,info@avamposti.it,https://maps.google.com/?cid=1041537561429408570
MLC EDU - Anno Scolastico All'Estero e Viaggi Studio,agenzie di viaggio,"Via Giuseppe Verdi, 8, 24121 Bergamo BG, Italy",BG,035 836 0380,https://mlc-education.com/,NOT AVAILABLE,https://maps.google.com/?cid=17281540555142309509
Red Sun Tour,agenzie di viaggio,"Via Padergnone, 1, 24050 Zanica BG, Italy",BG,035 670624,http://www.bluelagoon.it/,info@bluelagoon.it,https://maps.google.com/?cid=1036156262661268360
Uvet Viaggi filiale Bergamo,agenzie di viaggio,"Via Sant'Alessandro, 15, 24122 Bergamo BG, Italy",BG,02 8183 9337,http://www.uvetviaggi.com/,NOT AVAILABLE,https://maps.google.com/?cid=368112394671626569
Terre Di Bergamo Di Tosca Rossi Guida Turistica Bergamo E Provincia,agenzie di viaggio,"Piazza Vecchia, 24100 Bergamo BG, Italy",BG,339 377 0651,http://www.terredibergamo.com/,NOT AVAILABLE,https://maps.google.com/?cid=3192822871221131669
Francoviaggi & Tempolibero,agenzie di viaggio,"Via Roma, 1, 24036 Ponte San Pietro BG, Italy",BG,035 616666,https://francoviaggi.it/,info@francoviaggi.it,https://maps.google.com/?cid=1742676651983083467
Miraluna S.A.S. Di Rota Barbara & C.,agenzie di viaggio,"Via per Grumello, 63/L, 24127 Bergamo BG, Italy",BG,035 251104,http://www.miralunaviaggi.com/,NOT AVAILABLE,https://maps.google.com/?cid=6976952576094266893
Clantour,agenzie di viaggio,"Via C. Baioni, 38, 24123 Bergamo BG, Italy",BG,035 220692,http://www.clantour.it/,loredana@clantour.it,https://maps.google.com/?cid=10737386370366611913
Capricorn Travel Della Fantastic Travel S.R.L.,agenzie di viaggio,"Via Campofiori, 23, 24011 Almè BG, Italy",BG,035 545430,http://www.capricorntravel.it/,NOT AVAILABLE,https://maps.google.com/?cid=15600906928006879183
Malakite Viaggi,agenzie di viaggio,"Via Antonio Locatelli, 24/f, 24121 Bergamo BG, Italy",BG,035 245378,http://www.malakite.it/,info@malakite.it,https://maps.google.com/?cid=11256765696326875621
"BAHIA BLANCA, AGENZIA VIAGGI",agenzie di viaggio,"Via dei Carpinoni, 6, 24126 Bergamo BG, Italy",BG,035 247912,https://www.bahiablancaviaggi.com/,NOT AVAILABLE,https://maps.google.com/?cid=7834311973783845418
AGENZIA BANCO VIAGGI,agenzie di viaggio,"Via Silvio Pellico, 9I, 24060 Montello BG, Italy",BG,035 687187,http://bancoviaggi.it/,NOT AVAILABLE,https://maps.google.com/?cid=12365398584897853830
LA MARGÌ - Nadia Mangili Guida turistica di Bergamo,agenzie di viaggio,"L.go Colle Aperto, 24129 Bergamo BG, Italy",BG,349 565 3794,http://www.nadiamangili.com/,info@nadiamangili.comseguimi,https://maps.google.com/?cid=1796670448841182450
Walking Cap,agenzie di viaggio,"Piazza Mercato delle Scarpe, 24129 Bergamo BG, Italy",BG,035 031 1698,https://walkingcap.com/,NOT AVAILABLE,https://maps.google.com/?cid=18037189705405646462
Kokai Viaggi Travel Designer,agenzie di viaggio,"Via F. Corridoni, 6, 24124 Bergamo BG, Italy",BG,035 008 6906,http://www.kokaiviaggi.com/,NOT AVAILABLE,https://maps.google.com/?cid=297337530795100893
Ruota Viaggi Srl,agenzie di viaggio,"Piazza Cavour, 31, 24069 Trescore Balneario BG, Italy",BG,035 941525,https://ruotaviaggi.it/,info@ruotaviaggi.it,https://maps.google.com/?cid=4530784868796913781
Valentina Maini - Guida di Bergamo,agenzie di viaggio,"Piazza Mercato delle Scarpe, 24129 Bergamo BG, Italy",BG,348 869 5262,https://mainivalentina.it/,NOT AVAILABLE,https://maps.google.com/?cid=9817099586654469042
Sentieri Turistici By Destinazione Sole,agenzie di viaggio,"Via Roma, 3, 24040 Bonate Sopra BG, Italy",BG,035 499 7133,http://www.destinazionesole.it/,info@destinazionesole.it,https://maps.google.com/?cid=376190470001931152
Destinazione Sole - Osio Sotto,agenzie di viaggio,"Via Monte Grappa, 13/h, 24046 Osio Sotto BG, Italy",BG,035 040 2230,https://www.destinazionesole.it/,info@destinazionesole.it,https://maps.google.com/?cid=3096264849750267147
Guida Turistica di Bergamo Elisabetta Ronzoni,agenzie di viaggio,"Piazza Vecchia, 24129 Bergamo BG, Italy",BG,347 251 5374,https://www.elisabettaronzoni.it/,NOT AVAILABLE,https://maps.google.com/?cid=5437229954379227326
Cocoisland - partner GATTINONI Mondo di vacanze,agenzie di viaggio,"Via Vittorio Veneto, 32, 24021 Albino BG, Italy",BG,035 760321,http://cocoislandviaggi.it/,NOT AVAILABLE,https://maps.google.com/?cid=2966909217628808181
Simul Viaggi,agenzie di viaggio,"Via Nazionale, 95, 24060 Casazza BG, Italy",BG,035 810356,http://www.simulviaggi.it/,info@simulviaggi.it,https://maps.google.com/?cid=6415293417765230047
Barbara Savà - Guida Turistica Bergamo/Lago di Iseo-Tour Leader. ( ita/eng /esp ),agenzie di viaggio,"Piazza Vecchia, 24129 Bergamo BG, Italy",BG,320 756 7059,https://www.tourlab.it/,NOT AVAILABLE,https://maps.google.com/?cid=3388761324448392749
