name,niche,address,state,phone_number,website,email,result_url
Vivere e Viaggiare Roma Pittaluga-Bluvacanze,agenzie di viaggio,"Via Giovanni Pittaluga, 4, 00159 Roma RM, Italy",RM,06 4325 2797,https://www.vivereviaggiare.online/,NOT AVAILABLE,https://maps.google.com/?cid=5805290470767403350
Agenzia di Viaggi Flash Viaggi,agenzie di viaggio,"Via Appia Nuova, 276, 00183 Roma RM, Italy",RM,06 702 0415,https://flashviaggi.com/,NOT AVAILABLE,https://maps.google.com/?cid=12959371044232166374
Agenzia Viaggi SingleUp,agenzie di viaggio,"Piazza Filattiera, 33, 00139 Roma RM, Italy",RM,06 9480 3505,https://www.singleupviaggi.com/,NOT AVAILABLE,https://maps.google.com/?cid=5214317779654522737
Loma Viaggi,agenzie di viaggio,"Via dei Campi Flegrei, 27, 00141 Roma RM, Italy",RM,06 817 7482,https://www.lomaviaggi.com/,loma@lomaviaggi.com,https://maps.google.com/?cid=2498616644419106934
Ali & Sof Viaggi,agenzie di viaggio,"Piazza Cesare de Cupis, 1/2, 00155 Roma RM, Italy",DE,06 2275 4662,https://www.alisof.it/,NOT AVAILABLE,https://maps.google.com/?cid=205049273268423077
Safir Travel Agenzia Viaggi Roma,agenzie di viaggio,"Via Luigi Rizzo, 64, 00136 Roma RM, Italy",RM,06 9784 2097,https://safirtravel.it/,info@safirtravel.it,https://maps.google.com/?cid=14461740844657927541
4Viaggi,agenzie di viaggio,"Via Genzano, 133, 00179 Roma RM, Italy",RM,06 3209 2646,http://www.4viaggi.it/,viaggiamoinsieme@4viaggi.it,https://maps.google.com/?cid=7652198951119706204
T & G Travel - Travel Agency,agenzie di viaggio,"Via Mario Menghini, 32, 00179 Roma RM, Italy",RM,06 8983 6859,https://www.tgtravel.it/,NOT AVAILABLE,https://maps.google.com/?cid=2359748178203972601
BUSINESS CLASS VIAGGI - The Travel Lounge,agenzie di viaggio,"Via di Val Tellina, 11, 00151 Roma RM, Italy",RM,06 5820 5903,http://www.businessclassviaggi.it/,NOT AVAILABLE,https://maps.google.com/?cid=9198184351638906724
Big Italy Viaggi e Turismo,agenzie di viaggio,"Via di Salone, 10, 00131 Roma RM, Italy",RM,06 8391 2259,http://www.bigitalyviaggieturismo.it/,NOT AVAILABLE,https://maps.google.com/?cid=1177232945248665182
Speed Vacanze,agenzie di viaggio,"Via Boezio, 4C, 00193 Roma RM, Italy",RM,06 5654 9985,https://www.speedvacanze.it/,NOT AVAILABLE,https://maps.google.com/?cid=2670373318226535416
Just Holiday,agenzie di viaggio,"Via Giuseppe Mantellini, 4A, 00179 Roma RM, Italy",RM,06 788 6026,http://www.justholidayviaggi.com/,NOT AVAILABLE,https://maps.google.com/?cid=15206323021216344881
Fly & Travel Valentina S.R.L,agenzie di viaggio,"Via Massa di San Giuliano, 411/413, 00132 Roma RM, Italy",RM,320 970 9476,https://flytravelvalentina.com/,info@flytravelvalentina.com,https://maps.google.com/?cid=7606759155838222592
Fenio Viaggi - Ela Srl - Agenzia Viaggi Roma,agenzie di viaggio,"Via Pietro Maffi, 174, 00168 Roma RM, Italy",RM,06 301 4644,http://fenioviaggi.it/,info@fenioviaggi.it,https://maps.google.com/?cid=5359449664228153570
Partecipa anche tu Travel,agenzie di viaggio,"Via dei Durantini, 141, 00157 Roma RM, Italy",RM,06 8667 8664,http://www.partecipaanchetutravel.it/,NOT AVAILABLE,https://maps.google.com/?cid=12190862023905507316
Roman Holidays Viaggi e Tour Operator,agenzie di viaggio,"Via delle Vestali, 1-3, 00181 Roma RM, Italy",RM,06 4543 8573,http://www.romanholidays.net/,info@romanholidays.net,https://maps.google.com/?cid=8642535194142005711
3L World - Viaggi di nozze su misura e matrimoni all'estero,agenzie di viaggio,"Via Alessandro Trotter, 3, 00156 Roma RM, Italy",RM,333 489 3281,https://www.3lworld.it/,info@3lworld.itt,https://maps.google.com/?cid=1492618155546908045
I Viaggi di Sildan,agenzie di viaggio,"Via Chisimaio, 6, 00199 Roma RM, Italy",RM,06 5160 0979,http://www.sildanviaggi.it/,NOT AVAILABLE,https://maps.google.com/?cid=12459244942494991124
The Italian vacation - Cral Reunited Tour Operator,agenzie di viaggio,"Viale Palmiro Togliatti, 1565, 00155 Roma RM, Italy",RM,06 406 3045,https://www.lavacanzaitaliana.it/,cralriuniti.comroby@lavacanzaitaliana.it,https://maps.google.com/?cid=5302926668154483907
Avventure nel Mondo,agenzie di viaggio,"Largo Carlo Grigioni, 7, 00152 Roma RM, Italy",RM,NOT AVAILABLE,https://www.viaggiavventurenelmondo.it/,NOT AVAILABLE,https://maps.google.com/?cid=13944127695336197173
"Viaggi D Gruppo - Tours con Aperitivo a Roma, Gite in Pullman e Viaggi di gruppo",agenzie di viaggio,"Via Domenico Ciampoli, 7, 00125 Roma RM, Italy",RM,06 5655 7264,http://www.viaggidgruppo.com/,info@viaggidgruppo.com,https://maps.google.com/?cid=3924896638403473632
Agenzia di Viaggi Summer And Winter,agenzie di viaggio,"Via Marco Valerio Corvo, 28, 00174 Roma RM, Italy",RM,06 7696 7500,https://www.summerandwinter.it/,NOT AVAILABLE,https://maps.google.com/?cid=18138530366659220329
Astro Viaggi Sas di Daniele Moretti & Co.,agenzie di viaggio,"Largo Beato Placido Riccardi, 1, 00146 Roma RM, Italy",RM,06 541 1225,http://www.astrotimeviaggi.com/,NOT AVAILABLE,https://maps.google.com/?cid=5249170000488124747
Agenzia Viaggi Mister Holiday Roma Boccea,agenzie di viaggio,"Via di Boccea, 635/B, 00166 Roma RM, Italy",RM,06 8395 4626,https://romaboccea.misterholiday.it/,romaboccea@misterholiday.it,https://maps.google.com/?cid=17449467527024912493
Stilnovo Travel Srl,agenzie di viaggio,"SOLO SU APPUNTAMENTO) oppure online tramite videochiamata, Viale Eritrea, 31, 00199 Roma RM, Italy",RM,320 027 7818,NOT AVAILABLE,NOT AVAILABLE,https://maps.google.com/?cid=2684986177395976468
THE FREEWAY S.R.L.,agenzie di viaggio,"Viale Eritrea, 31, 00199 Roma RM, Italy",RM,06 860 6912,https://www.freewaytravel.it/,info@freewaytravel.it,https://maps.google.com/?cid=15463030945445426697
Agenzia Viaggi Roma Vivere e Viaggiare Via dell'Aeroporto - Cisalpina,agenzie di viaggio,"Via dell'Aeroporto, 100, 00175 Roma RM, Italy",RM,06 7696 5782,https://romaviaeroporto.vivereeviaggiare.it/,NOT AVAILABLE,https://maps.google.com/?cid=12764894742104936871
Al di là dei Sogni Viaggi,agenzie di viaggio,"Via Val Maira, 99, 00141 Roma RM, Italy",RM,06 8864 0050,http://www.aldiladeisogniviaggi.it/,NOT AVAILABLE,https://maps.google.com/?cid=11459610576764464814
Le Gastronaute Agenzia Viaggi,agenzie di viaggio,"Circonvallazione Gianicolense, 322, 00152 Roma RM, Italy",RM,06 4368 2783,http://legastronaute.it/,valeria@legastronaute.it,https://maps.google.com/?cid=4143432297197680092
Agenzia Viaggi The Partner - ROMA,agenzie di viaggio,"Via Germano Sommeiller, 13, 00185 Roma RM, Italy",RM,06 701 4861,http://www.thepartnerviaggi.it/,NOT AVAILABLE,https://maps.google.com/?cid=14675038388454694155
Gauguin Viaggi Srl,agenzie di viaggio,"Viale Pantelleria, 11, 00141 Roma RM, Italy",RM,06 818 8209,http://www.gauguinviaggi.it/,NOT AVAILABLE,https://maps.google.com/?cid=15842330575844948472
Business Class Viaggi Filiale Roma Centro,agenzie di viaggio,"Via del Sudario, 24, 00186 Roma RM, Italy",RM,06 4544 6190,https://www.romacentro.businessclassviaggi.it/,NOT AVAILABLE,https://maps.google.com/?cid=9185814151543158785
Paesi del Mondo,agenzie di viaggio,"Via Canzone del Piave, 33a, 00143 Roma RM, Italy",RM,06 6453 0164,https://www.paesidelmondo.com/,NOT AVAILABLE,https://maps.google.com/?cid=13298976300787392473
Montesacro Viaggi Roma,agenzie di viaggio,"Via Valle Corteno, 17, 00137 Roma RM, Italy",RM,06 9259 3499,https://www.montesacroviaggi.it/,info@montesacroviaggi.it,https://maps.google.com/?cid=11166921065369082028
Cavitravel Agenzia Viaggi,agenzie di viaggio,"Via Oderisi da Gubbio, 57, 00146 Roma RM, Italy",RM,06 559 2355,http://www.cavitravel.it/,NOT AVAILABLE,https://maps.google.com/?cid=4088528927309195139
Manzoni Travel,agenzie di viaggio,"Via Emanuele Filiberto, 84, 00185 Roma RM, Italy",RM,06 709 6578,https://www.manzonitravel.com/,NOT AVAILABLE,https://maps.google.com/?cid=9780682558233102209
Il Pallino Dei Viaggi Sas Di Pietripaoli Andreina & C.,agenzie di viaggio,"Vle Tirreno, 93, 00141 Roma RM, Italy",RM,06 817 2192,NOT AVAILABLE,NOT AVAILABLE,https://maps.google.com/?cid=1056237944501242976
ALICE E LA LUNA VIAGGI,agenzie di viaggio,"Via Adolfo Albertazzi, 53, 00137 Roma RM, Italy",RM,06 8777 2200,http://www.aliceelaluna.com/,agenzia@aliceelaluna.comseguicicookies,https://maps.google.com/?cid=17613845729723662646
Tinky Winky Travel Tour Operator,agenzie di viaggio,"Via Collina, 50, 00187 Roma RM, Italy",RM,06 8746 2150,http://www.tinkywinky.it/,info@tinkywinky.it,https://maps.google.com/?cid=7363399763102946318
Caesar Tour S.r.l. - Agenzia Roma Monteverde,agenzie di viaggio,"V.le Isacco Newton, 24, 00151 Roma RM, Italy",RM,06 9826 4700,http://www.caesartour.it/,NOT AVAILABLE,https://maps.google.com/?cid=6538566937526402622
i viaggi di Carlotta srl,agenzie di viaggio,"Via di S. Paolo alla Regola, 33, 00186 Roma RM, Italy",RM,06 6992 5764,http://www.ilguscioviaggi.com/,items.info@ilguscioviaggi.com,https://maps.google.com/?cid=2083391688234913186
Royal Palm Viaggi e Vacanze,agenzie di viaggio,"90 C, Via Eschilo, 00125 Roma RM, Italy",RM,06 525 0150,NOT AVAILABLE,NOT AVAILABLE,https://maps.google.com/?cid=5095936548382389360
CartOrange Viaggi su misura,agenzie di viaggio,"Via Fabio Massimo, 95, 00192 Roma RM, Italy",RM,06 7227 6278,http://www.cartorange.com/,cartorange@cartorange.com,https://maps.google.com/?cid=8262855452840695036
AGENZIA VIAGGI COSTANTINI ROMA,agenzie di viaggio,"Via Nostra Signora di Lourdes, 110, 00167 Roma RM, Italy",RM,06 662 6954,http://www.costantiniviaggi.it/,NOT AVAILABLE,https://maps.google.com/?cid=13383879374572556465
Bluvacanze Vaticano,agenzie di viaggio,"Via dei Gracchi, 98, 00193 Roma RM, Italy",RM,389 203 8964,https://viaggi.bluvacanze.it/store/bv-roma-vaticano/,NOT AVAILABLE,https://maps.google.com/?cid=8123616800618073722
Bellezze di Roma,agenzie di viaggio,"Via della Giuliana, 40, 00195 Roma RM, Italy",RM,389 571 1466,http://www.bellezzediromatour.it/,info@bellezzediromatour.it,https://maps.google.com/?cid=9758750781463425232
Megghy Travel,agenzie di viaggio,"Via Camesena, 12, 00157 Roma RM, Italy",RM,06 8956 9469,http://megghytravel.com/,NOT AVAILABLE,https://maps.google.com/?cid=3688772993593273975
Agenzia Viaggi ALLE FALDE DEL KILIMANJARO - Roma,agenzie di viaggio,"Via Palermo, 78/C, 00055 Ladispoli RM, Italy",RM,06 8953 4621,http://www.allefaldedelkilimanjaro.it/,NOT AVAILABLE,https://maps.google.com/?cid=17797664250203648133
Agenzia Viaggi Roma | Emozionando Viaggi e Spettacoli,agenzie di viaggio,"Via Spinoza, 63, 00137 Roma RM, Italy",RM,06 8200 4727,http://www.facebook.com/emozionandoviaggi.it/?locale=it_IT,NOT AVAILABLE,https://maps.google.com/?cid=225833847475597773
Jurassic Travel,agenzie di viaggio,"Via Anco Marzio, 56, 00054 Fiumicino RM, Italy",RM,06 8902 4090,http://www.jurassic-travel.it/,NOT AVAILABLE,https://maps.google.com/?cid=9123890999318395080
Crico' Viaggi Roma,agenzie di viaggio,"Via Diego Angeli, 104, 00159 Roma RM, Italy",RM,06 4353 5180,http://www.cricoviaggi.it/,NOT AVAILABLE,https://maps.google.com/?cid=11802319684741086117
Luleka Experience,agenzie di viaggio,"Via degli Zingari, 59, 00184 Roma RM, Italy",RM,351 543 8639,NOT AVAILABLE,NOT AVAILABLE,https://maps.google.com/?cid=12096014689349681223
Bluvacanze Roma Fleming,agenzie di viaggio,"Via Antonio Serra, 38, 00191 Roma RM, Italy",RM,06 6921 6757,https://www.pittalugaviaggi.com/,NOT AVAILABLE,https://maps.google.com/?cid=6194219659360001664
Al di là dei Sogni Viaggi,agenzie di viaggio,"Largo di S. Luca Evangelista, 6, 00176 Roma RM, Italy",RM,06 2780 0557,http://www.aldiladeisogniviaggi.it/,NOT AVAILABLE,https://maps.google.com/?cid=17667020186224053333
Monteverde Viaggi,agenzie di viaggio,"Via di Monte Verde, 114, 00151 Roma RM, Italy",RM,06 4542 4195,https://www.unviaggiodasogno.it/,NOT AVAILABLE,https://maps.google.com/?cid=13821833214038757990
Fadan Viaggi - S.R.L.,agenzie di viaggio,"Via Flaminia, 63, 00196 Roma RM, Italy",RM,06 321 7087,https://www.fadanviaggi.it/,NOT AVAILABLE,https://maps.google.com/?cid=3152084695664198243
Plaza Viaggi,agenzie di viaggio,"Via Giosuè Carducci, 22, 00187 Roma RM, Italy",RM,366 342 0907,https://plazzatravels.com/,info@plazzatravels.com,https://maps.google.com/?cid=2847588812692584208
Travel Elephant Tour Operator,agenzie di viaggio,"Via d'Ascanio, 8, 00186 Roma RM, Italy",RM,06 6051 3000,https://www.viaggidellelefante.it/,preventivi@viaggidellelefante.it,https://maps.google.com/?cid=1879785480646654012
Impronte Viaggi,agenzie di viaggio,"Via di S. Croce in Gerusalemme, 77, 00185 Roma RM, Italy",IN,06 700 1909,https://www.impronteviaggi.it/,info@impronteviaggi.it,https://maps.google.com/?cid=12154350158707007901
Landimension Travel,agenzie di viaggio,"Vicolo di S. Nicola de' Cesarini, 4, 00186 Roma RM, Italy",RM,392 157 3353,http://www.landimensiontravel.it/,info@landimensiontravel.it,https://maps.google.com/?cid=4430407178943455174
SOGNANDO IL MONDO,agenzie di viaggio,"Via Prenestina, 1228, 00132 Roma RM, Italy",RM,06 2242 8510,http://www.sognandoilmondo.it/,NOT AVAILABLE,https://maps.google.com/?cid=16189108064418167433
Point In The World Srl,agenzie di viaggio,"Via Prenestina, 398, 00171 Roma RM, Italy",RM,06 2180 8000,https://www.puntonelmondo.it/,online@puntonelmondo.it,https://maps.google.com/?cid=6058541189364373229
VISS Travel S.r.l.,agenzie di viaggio,"Via Gerolamo Cardano, 75, 00146 Roma RM, Italy",RM,06 558 8833,http://www.visstravel.com/,webinfo@visstravel.com,https://maps.google.com/?cid=70424597310914381
ViaggiOggi srl,agenzie di viaggio,"Via Val Trompia, 136, 00141 Roma RM, Italy",RM,06 4890 3604,https://www.viaggioggi.it/,grecia@viaggioggi.it,https://maps.google.com/?cid=5782891998915069989
Zemontour - Agenzia Viaggi Roma,agenzie di viaggio,"Via Flavio Domiziano, 38, 00145 Roma RM, Italy",RM,06 8958 5171,http://zemontour.it/,NOT AVAILABLE,https://maps.google.com/?cid=9597962985558434872
DEMATOUR - TOUR OPERATOR,agenzie di viaggio,"Via Catone, 29, 00192 Roma RM, Italy",RM,06 3973 2951,NOT AVAILABLE,NOT AVAILABLE,https://maps.google.com/?cid=8812550963903165242
Conti Travel,agenzie di viaggio,"Via Mentana, 2/B, 00185 Roma RM, Italy",RM,06 4521 2071,http://www.contitravel.it/,NOT AVAILABLE,https://maps.google.com/?cid=10617299902779901720
Trastevere Travel,agenzie di viaggio,"Viale di Trastevere, 248/interno 5, 00153 Roma RM, Italy",RM,06 5833 1163,http://epocatour.com/,info@epocatour.com,https://maps.google.com/?cid=2525760322428348344
Travel Single,agenzie di viaggio,"Via del Fontanile Arenato, 147, 00163 Roma RM, Italy",RM,06 9259 3048,http://www.travelsingle.it/,info@travelsingle.it,https://maps.google.com/?cid=11856875679395300022
Insieme Viaggi,agenzie di viaggio,"Via Marco Ulpio Traiano, 60, 20149 Milano MI, Italy",MI,02 3300 2117,https://www.agenziaviaggiltc.it/,NOT AVAILABLE,https://maps.google.com/?cid=7222857888581631518
Agenzia Viaggi Maison du Voyage,agenzie di viaggio,"Via Giambellino, 15, 20146 Milano MI, Italy",MI,02 4943 6581,http://www.maisonduvoyage.it/,preventivi@maisonduvoyage.it,https://maps.google.com/?cid=9025441671645348024
Viaggiatori Del Mondo,agenzie di viaggio,"Via Gioacchino Murat, 32, 20159 Milano MI, Italy",MI,02 8738 8064,http://www.viaggiatoridelmondo.it/,info@viaggiatoridelmondo.itindirizzovia,https://maps.google.com/?cid=11338900525413692226
JAMBO TOUR,agenzie di viaggio,"Via Giuseppe Ripamonti, 137, 20141 Milano MI, Italy",MI,02 4311 7337,http://www.jambotour.it/,jambo@jambotour.it,https://maps.google.com/?cid=8543071358920513020
Dove Vuoi Tour,agenzie di viaggio,"Via Alessandro Tadino, 19, 20124 Milano MI, Italy",MI,328 458 3813,https://www.dovevuoiasia.com/,NOT AVAILABLE,https://maps.google.com/?cid=15929237803429608265
Mi Guidi,agenzie di viaggio,"Via Stresa, 6, 20125 Milano MI, Italy",MI,328 384 6632,https://www.miguidi.it/,NOT AVAILABLE,https://maps.google.com/?cid=15273046264664919067
Travel Gold World Agenzia Viaggi,agenzie di viaggio,"Via Pietro Borsieri, 32, 20159 Milano MI, Italy",MI,02 6682 3107,https://www.edenviaggi.it/dettaglio-agenzia/34384/travel-gold-world,NOT AVAILABLE,https://maps.google.com/?cid=11633930057125063176
Dove Nel Mondo Viaggi,agenzie di viaggio,"Viale Monza, 160, 20127 Milano MI, Italy",MI,02 2700 0564,http://www.dovenelmondoviaggi.it/,agenzia@dovenelmondoviaggi.it,https://maps.google.com/?cid=15584033051680799121
Agenzia Viaggi Mister Holiday Milano,agenzie di viaggio,"Viale Umbria, 29, 20135 Milano MI, Italy",MI,02 5411 8915,https://www.misterholiday.it/,info@misterholiday.it,https://maps.google.com/?cid=3205430578664590328
Agenzia Viaggi 5 Giornate,agenzie di viaggio,"Piazza Cinque Giornate, 15, 20129 Milano MI, Italy",MI,02 5519 4646,http://www.5giornate.it/,agenzia@5giornate.it,https://maps.google.com/?cid=11632687483843680624
Viaggi di Nozze network,agenzie di viaggio,"Via Gianfranco Zuretti, 50, 20125 Milano MI, Italy",MI,02 5810 0748,http://www.viaggidinozze.net/,NOT AVAILABLE,https://maps.google.com/?cid=78674652439560072
Arenatours - Viaggi Esotici,agenzie di viaggio,"Viale Monza, 347, 20126 Milano MI, Italy",MI,02 0062 4923,https://arenatours.com/it/,hello@arenatours.com,https://maps.google.com/?cid=8865343480011959928
Milan Visitor Center - Zani Viaggi,agenzie di viaggio,"Largo Cairoli, 18, 20121 Milano MI, Italy",MI,02 867131,https://www.zaniviaggi.com/,NOT AVAILABLE,https://maps.google.com/?cid=18403191581837357674
Il Salvagente Viaggi,agenzie di viaggio,"Via Lazzaro Papi, 12, 20135 Milano MI, Italy",MI,02 5412 1216,http://www.salvagenteviaggi.it/,NOT AVAILABLE,https://maps.google.com/?cid=8299500488555407715
Foppa Viaggi,agenzie di viaggio,"Via Vincenzo Foppa, 21, 20144 Milano MI, Italy",MI,346 865 9938,https://www.foppaviaggi.it/,prenotazioni@foppaviaggi.it,https://maps.google.com/?cid=4929149609420911175
Il Girasole Scurria Turismo S.R.L.,agenzie di viaggio,"Via Vincenzo Giordano Orsini, 16, 20147 Milano MI, Italy",MI,02 4009 1234,http://www.ilgirasoleviaggi.it/,info@ilgirasoleviaggi.it,https://maps.google.com/?cid=1170684025804868319
Agenzia Viaggi Matamis,agenzie di viaggio,"Viale Monza, 271, 20126 Milano MI, Italy",MI,02 3653 0427,https://www.matamisviaggi.it/,NOT AVAILABLE,https://maps.google.com/?cid=4168417763197825901
Bluvacanze Viale Monza Agenzia Viaggi,agenzie di viaggio,"Viale Monza, 87, 20125 Milano MI, Italy",MI,02 2611 6411,https://milanovialemonza.bluvacanze.it/,NOT AVAILABLE,https://maps.google.com/?cid=10456277358873248865
Visti,agenzie di viaggio,"Via della Moscova, 13, 20121 Milano MI, Italy",MI,NOT AVAILABLE,https://visti.it/,NOT AVAILABLE,https://maps.google.com/?cid=17496087198768519194
Dossier Viaggi,agenzie di viaggio,"Via Bartolomeo Eustachi, 16, 20129 Milano MI, Italy",MI,02 2952 3641,http://www.viaggidossier.it/,info@viaggidossier.itp.iva,https://maps.google.com/?cid=3671227480119085811
Viaggimmagine - Viaggi su misura,agenzie di viaggio,"Via Giuseppe Govone, 30, 20155 Milano MI, Italy",MI,02 3361 1823,https://viaggimmagine.it/,NOT AVAILABLE,https://maps.google.com/?cid=1680806595930551343
La Bussola On The Road,agenzie di viaggio,"Via Altaguardia, 1, 20135 Milano MI, Italy",MI,02 8219 6055,https://www.labussola.it/,NOT AVAILABLE,https://maps.google.com/?cid=16920532452517216403
Cubamondo Viaggi S.R.L,agenzie di viaggio,"Via Veglia, 44, 20159 Milano MI, Italy",MI,02 3650 8554,http://www.cubamondoviaggi.it/,NOT AVAILABLE,https://maps.google.com/?cid=9076211200468085190
Superviaggi Milano,agenzie di viaggio,"Via Giovanni Boccaccio, 19, 20123 Milano MI, Italy",MI,02 4819 5202,http://www.superviaggi.com/,agenzia@superviaggi.com,https://maps.google.com/?cid=7203392449355808612
Hortensia Viaggi di Silvia Farano,agenzie di viaggio,"Via Giorgio Washington, 105, 20146 Milano MI, Italy",MI,02 3651 6498,https://www.hortensiaviaggi.it/,silvia@hortensiaviaggi.it,https://maps.google.com/?cid=7522966122741298916
Viaggio & Apprendo,agenzie di viaggio,"Viale Corsica, 95, 20133 Milano MI, Italy",MI,02 4312 8062,http://www.viaggioeapprendo.it/,8062info@viaggioeapprendo.it,https://maps.google.com/?cid=6407411834183109472
Agenzia Viaggi TU VIAGGI,agenzie di viaggio,"Viale Cassala, 75, 20143 Milano MI, Italy",MI,02 8942 2109,http://www.tuviaggimilano.com/,NOT AVAILABLE,https://maps.google.com/?cid=14466006438242293951
World Explorer - Viaggi Su Misura | Tour Operator Milano,agenzie di viaggio,"Consigliamo di chiamare per prendere un appuntamento, Piazza Gerusalemme, 4, 20154 Milano MI, Italy",MI,02 3206 0101,https://www.worldexplorer.it/,viaggi@worldexplorer.it,https://maps.google.com/?cid=13713584280605004353
Last Minute Tour UVET VIAGGI Milano - Agenzia Viaggi,agenzie di viaggio,"Via Ponte Seveso, 23, 20125 Milano MI, Italy",MI,02 6698 9323,https://www.artravelservice.com/,NOT AVAILABLE,https://maps.google.com/?cid=9913691647789258868
bluviaggi,agenzie di viaggio,"Via Domenico Cimarosa, 12/3, 20144 Milano MI, Italy",MI,02 4810 0154,http://www.bluviaggi.com/,NOT AVAILABLE,https://maps.google.com/?cid=8864326012393500729
Madame Voyage,agenzie di viaggio,"Viale Daniele Ranzoni, 17, 20149 Milano MI, Italy",MI,02 9899 4311,http://www.madamevoyage.it/,NOT AVAILABLE,https://maps.google.com/?cid=10540814569397356859
Bianco Viaggi Pellegrinaggi,agenzie di viaggio,"Corso Europa, 15, 20122 Milano MI, Italy",MI,02 8717 7099,https://www.biancoviaggi.com/,87177099info@biancoviaggi.comdestinazioni,https://maps.google.com/?cid=5300542691083938094
Loft StudioViaggi,agenzie di viaggio,"Via Luigi Porro Lambertenghi, 12, 20159 Milano MI, Italy",MI,02 2809 5531,https://www.loftviaggi.it/,info@loftviaggi.it,https://maps.google.com/?cid=12955699465422791115
Adventure Overland - Agenzia Viaggi di Overland Network srl,agenzie di viaggio,"Viale Paolo Onorato Vigliani, 21, 20148 Milano MI, Italy",MI,02 3360 9360,http://www.overland-viaggi.com/,NOT AVAILABLE,https://maps.google.com/?cid=8492476546256507476
Viaggi Stellari,agenzie di viaggio,"C.so Lodi, 6/A, 20135 Milano MI, Italy",MI,02 4952 9042,http://www.viaggistellari.net/,info@viaggistellari.netindirizzocorso,https://maps.google.com/?cid=11217535039823833388
MOVE SRL - Agenzia Viaggi - Esperienze su Misura,agenzie di viaggio,"Via Palermo 20, Corso Garibaldi, 60, 20121 Milano MI, Italy",MI,02 7865 6590,http://www.moveviaggi.com/,scrivicibooking@moveviaggi.com,https://maps.google.com/?cid=2174747953398416294
Aliviaggi Tour Operator S.R.L.,agenzie di viaggio,"Piazza Po, 6, 20144 Milano MI, Italy",PO,02 4801 7171,http://www.aliviaggi.it/,info@aliviaggi.it,https://maps.google.com/?cid=9231172761209876934
Friendly Travel di Fima Viaggi e Turismo,agenzie di viaggio,"Via Achille Zezon, 5, 20124 Milano MI, Italy",MI,02 6698 2128,http://www.fimaviaggieturismo.it/,NOT AVAILABLE,https://maps.google.com/?cid=6492704737865915938
BarbaViaggi,agenzie di viaggio,"Via Bagutta, 13, 20121 Milano MI, Italy",MI,378 304 0650,http://www.barbaviaggi.it/,NOT AVAILABLE,https://maps.google.com/?cid=12858773371196320699
Travel Agency Solemania,agenzie di viaggio,"Via Giuseppe Meda, 5, 20136 Milano MI, Italy",MI,02 8941 5935,https://www.viaggisolemania.it/,info@viaggisolemania.it,https://maps.google.com/?cid=17546512778347388178
Proposta Viaggi,agenzie di viaggio,"Via Feltre, 1, 20132 Milano MI, Italy",MI,02 264 0347,http://www.propostaviaggi.it/,NOT AVAILABLE,https://maps.google.com/?cid=15312227532803748579
SBS Viaggi,agenzie di viaggio,"Via Bagutta, 13, 20121 Milano MI, Italy",MI,349 582 6932,https://sbsviaggi.it/?utm_source=google&utm_medium=business-profile&utm_campaign=local,info@sbsviaggi.it,https://maps.google.com/?cid=6334974279506327206
Agenzia viaggi Il viaggio nel cassetto,agenzie di viaggio,"Via Antonio Grossich, 29, 20131 Milano MI, Italy",MI,02 8969 7824,http://www.ilviaggionelcassetto.it/,NOT AVAILABLE,https://maps.google.com/?cid=1413363951601119269
Viaggi e Visti,agenzie di viaggio,"Corso Ventidue Marzo, 36, 20134 Milano MI, Italy",MI,02 8202 7535,http://viaggievisti.com/,NOT AVAILABLE,https://maps.google.com/?cid=1513169135717378702
Skyline Travel - Agenzia Viaggi - Flight Tickets Agent,agenzie di viaggio,"Via Vitruvio, 43, 20124 Milano MI, Italy",MI,02 6671 1143,http://www.skylinetravel.it/,info@skylinetravel.it,https://maps.google.com/?cid=5865608330231990889
Nessie Viaggi,agenzie di viaggio,"Via Edmondo de Amicis, 30, 20123 Milano MI, Italy",DE,02 8699 8613,https://nessieviaggi.com/,8613nessie@nessieviaggi.it,https://maps.google.com/?cid=3609697088247412505
Lets.it Last Minute Holidays,agenzie di viaggio,"Piazzale Giulio Cesare, 14, 20145 Milano MI, Italy",MI,02 255 3125,https://www.lets.it/,info@lets.it,https://maps.google.com/?cid=392441473896257975
WeRoad - Viaggi di gruppo,agenzie di viaggio,"Viale Cassala, 30, 20143 Milano MI, Italy",MI,348 423 1163,https://www.weroad.it/,NOT AVAILABLE,https://maps.google.com/?cid=2760035949172126335
Berzabò Agenzia di Viaggi,agenzie di viaggio,"Via Friuli, Via Comelico, 51, 20135 Milano MI, Italy",MI,02 5412 2472,https://berzaboviaggi.it/,NOT AVAILABLE,https://maps.google.com/?cid=13931718972374783871
Insieme Viaggi,agenzie di viaggio,"Via Marco Ulpio Traiano, 60, 20149 Milano MI, Italy",MI,02 3300 2117,https://www.agenziaviaggiltc.it/,NOT AVAILABLE,https://maps.google.com/?cid=6950501246258193571
Bluvacanze - Milano corso Garibaldi,agenzie di viaggio,"Corso Garibaldi, 24, 20121 Milano MI, Italy",MI,02 8353 3377,https://bluvacanze.it/?utm_source=google&utm_medium=GMBSitelink&utm_campaign=GMBSitelink_Milano_419,NOT AVAILABLE,https://maps.google.com/?cid=11957379130044676434
L'astrolabio Agenzia Viaggi Milano,agenzie di viaggio,"Via Monte Rosa, 20 Zona, 20149 Milano MI, Italy",MI,02 4819 5202,NOT AVAILABLE,NOT AVAILABLE,https://maps.google.com/?cid=11482109757156400155
ESL – Soggiorni linguistici,agenzie di viaggio,"Via Montebello, 27, 20121 Milano MI, Italy",MI,02 8905 8444,https://www.esl.it/it?utm_medium=organic&utm_source=googlemybusiness&utm_campaign=mainlink&utm_content=esl_milano,NOT AVAILABLE,https://maps.google.com/?cid=4230831657642287120
New Wings Travel and Tourism,agenzie di viaggio,"Corso Vercelli, 62, 20145 Milano MI, Italy",MI,02 4819 3351,https://www.nuoveali.it/,nuoveali@nuoveali.it,https://maps.google.com/?cid=233309023015745527
Lunettes Viaggi Milano,agenzie di viaggio,"Via Angelo Poliziano, 10, 20154 Milano MI, Italy",MI,02 3453 0329,http://www.lunettesviaggi.it/,info@lunettesviaggi.itindirizzovia,https://maps.google.com/?cid=7633479243248354358
Vuela - Biglietteria aerea,agenzie di viaggio,"Via Padova, Via Francesco Predabissi, 60, 20131 Milano MI, Italy",MI,02 2680 9117,http://www.vuelaonline.com/,NOT AVAILABLE,https://maps.google.com/?cid=4424948957567865545
Aquilone Viaggi (S.R.L.),agenzie di viaggio,"V.le Sabotino, 38, 20135 Milano MI, Italy",MI,02 5831 8500,https://www.aquilone.com/,NOT AVAILABLE,https://maps.google.com/?cid=5709868806722805982
Pica Flor Viaggi,agenzie di viaggio,"Via Sebino, 2, 20137 Milano MI, Italy",MI,02 8738 1793,https://picaflorviaggi.it/,NOT AVAILABLE,https://maps.google.com/?cid=11396589288405859537
Welcome Travel Shop,agenzie di viaggio,"Via Crocefisso, 3, 20122 Milano MI, Italy",MI,02 802 7721,http://www.welcometravelshop.it/,NOT AVAILABLE,https://maps.google.com/?cid=14059570489312885187
Caesar Tour S.r.l. - Agenzia Milano Porta Romana,agenzie di viaggio,"Via Gian Carlo Passeroni, 8, 20135 Milano MI, Italy",MI,06 9826 4700,http://www.caesartour.it/,NOT AVAILABLE,https://maps.google.com/?cid=3050412264059106886
Milanoguida | Visite Guidate e Mostre a Milano,agenzie di viaggio,"Via Alessandro Tadino, 29A, 20124 Milano MI, Italy",MI,02 3598 1535,https://www.milanoguida.com/,info@milanoguida.com,https://maps.google.com/?cid=2388641006274721276
Amo Viaggiare Agenzia Viaggi,agenzie di viaggio,"Via Rembrandt, 60, 20148 Milano MI, Italy",MI,02 9166 2806,https://www.amoviaggiare.it/,info@amoviaggiare.it,https://maps.google.com/?cid=7387100148473122471
Bluvacanze - Milano via Padova,agenzie di viaggio,"Via Padova, 209, 20127 Milano MI, Italy",MI,02 2720 6239,https://bluvacanze.it/?utm_source=google&utm_medium=GMBSitelink&utm_campaign=GMBSitelink_Milano_310,NOT AVAILABLE,https://maps.google.com/?cid=1683208856599086942
Scegli & Parti,agenzie di viaggio,"Via Pisanello, 26, 20146 Milano MI, Italy",MI,02 407 7787,NOT AVAILABLE,NOT AVAILABLE,https://maps.google.com/?cid=3870673651693939241
P7 Viaggi,agenzie di viaggio,"Via Piero della Francesca, 7, 20154 Milano MI, Italy",MI,02 3459 2331,NOT AVAILABLE,NOT AVAILABLE,https://maps.google.com/?cid=16556436518077278311
Bluvacanze - Milano via Lorenteggio,agenzie di viaggio,"Via dei Tulipani, 18, 20146 Milano MI, Italy",MI,02 4229 0796,https://bluvacanze.it/?utm_source=google&utm_medium=GMBSitelink&utm_campaign=GMBSitelink_Milano_470,NOT AVAILABLE,https://maps.google.com/?cid=16108990094222956288
VAXVI TOUR,agenzie di viaggio,"Via Pietro Marocco, 15, 20127 Milano MI, Italy",MI,02 3982 3141,http://www.vaxvi.com/,viaggio.info@vaxvi.com,https://maps.google.com/?cid=14069504446520015255
I VIAGGI IN UN CIAK agenzia viaggi,agenzie di viaggio,"Via Gerolamo Arganini, 23, 20162 Milano MI, Italy",MI,329 333 8027,http://www.iviaggiinunciak.com/,NOT AVAILABLE,https://maps.google.com/?cid=12528605644969797274
Travel Gold World Niguarda,agenzie di viaggio,"Via Luigi Ornato, 58, 20162 Milano MI, Italy",MI,02 6682 3107,NOT AVAILABLE,NOT AVAILABLE,https://maps.google.com/?cid=10123775040582632296
Punto Touring Milan,agenzie di viaggio,"Corso Italia, 10, 20122 Milano MI, Italy",MI,02 852 6760,http://www.touringclub.it/,prontotouring@touringclub.it,https://maps.google.com/?cid=7988110060828577985
Jackie 'O Viaggi di Lusso,agenzie di viaggio,"Piazza del Liberty, 1, 20121 Milano MI, Italy",MI,02 8698 4304,https://www.jackieoviaggi.it/,info@jackieoviaggi.itthis,https://maps.google.com/?cid=11975354138110476313
Diòmira Travel Srl - Pellegrinaggi -Tour-Viaggi-Vacanze,agenzie di viaggio,"Via Ada Negri, 20, 20042 Pessano Con Bornago MI, Italy",MI,02 3956 0841,https://diomiratravel.com/,info@diomiratravel.it,https://maps.google.com/?cid=17224413205388878326
Taverviaggi S.R.L.,agenzie di viaggio,"Via della Moscova, 7, 20121 Milano MI, Italy",MI,02 659 9111,http://www.taverviaggi.it/,taver.milano@taverviaggi.it,https://maps.google.com/?cid=4887869956600883320
Gattinoni Travel Point Milano - Piazza Imperatore Tito,agenzie di viaggio,"P.za Imperatore Tito, 5, 20137 Milano MI, Italy",MI,02 5990 1604,https://piazzatito.gattinonipoint.it/,piazzatito@gattinonipoint.itindirizzopiazza,https://maps.google.com/?cid=12744463201700916459
Stelema Viaggi Srl,agenzie di viaggio,"Via Figino, 1/D, 20016 Pero MI, Italy",MI,02 3954 0143,http://www.stelemaviaggi.it/,02-39540143info@stelemaviaggi.it,https://maps.google.com/?cid=823598327779739130
Zebra Viaggi,agenzie di viaggio,"Via Rubens, 28, 20148 Milano MI, Italy",MI,02 4007 0045,http://www.zebraviaggi.it/,paolo@zebraviaggi.com,https://maps.google.com/?cid=8037939777889922958
Marcelo Viaggi,agenzie di viaggio,"Via Privata Don Bartolomeo Grazioli, 4, 20161 Milano MI, Italy",MI,02 645 4941,NOT AVAILABLE,NOT AVAILABLE,https://maps.google.com/?cid=1283611147629143362
Altrove Viaggi,agenzie di viaggio,"Via Padova, 156, 20132 Milano MI, Italy",MI,02 2614 9797,NOT AVAILABLE,NOT AVAILABLE,https://maps.google.com/?cid=14200945908971482450
Selezione Viaggi,agenzie di viaggio,"Viale Leonardo da Vinci, 43/2° piano, 20090 Trezzano sul Naviglio MI, Italy",MI,02 9737 8433,http://www.selezioneviaggi.net/,info@selezioneviaggi.net,https://maps.google.com/?cid=9775317163264332626
Viaggi Buonarroti (S.r.l.),agenzie di viaggio,"Via Michelangelo Buonarroti, 18, 20145 Milano MI, Italy",MI,02 498 5401,https://www.viaggi-buonarroti.it/,NOT AVAILABLE,https://maps.google.com/?cid=16423616955610208241
Flacrys Viaggi,agenzie di viaggio,"Via Evangelista Torricelli, 8, 20136 Milano MI, Italy",MI,02 8940 1644,http://www.flacrysviaggi.it/,NOT AVAILABLE,https://maps.google.com/?cid=508344380057180531
Agenzia Viaggi LE GABBIANELLE di Le Libellule s.a.s.,agenzie di viaggio,"Via Giuseppe Garibaldi, 80, 20092 Cinisello Balsamo MI, Italy",MI,02 6129 0722,http://www.legabbianelle.it/,NOT AVAILABLE,https://maps.google.com/?cid=14155977033832772405
