name,niche,address,state,phone_number,website,result_url
Delah Coffee,coffee shops,"370 4th St, San Francisco, CA 94107, USA",CA,(415) 377-2444,https://delahcoffee.com/order-online/,https://maps.google.com/?cid=10682847123881919373
Caffe Trieste,coffee shops,"601 Vallejo St., San Francisco, CA 94133, USA",CA,(415) 392-6739,https://caffetrieste.com/,https://maps.google.com/?cid=17162634662590724078
Simple Pleasures Cafe,coffee shops,"3434 Balboa St, San Francisco, CA 94121, USA",CA,(415) 387-4022,https://facebook.com/Simple-Pleasures-Cafe-111319895562806,https://maps.google.com/?cid=13828349225651807365
Scullery,coffee shops,"687 Geary St, San Francisco, CA 94102, USA",CA,(415) 440-4497,http://www.scullerysf.com/,https://maps.google.com/?cid=10381799083371853276
The Buena Vista,coffee shops,"2765 Hyde St, San Francisco, CA 94109, USA",CA,(415) 474-5044,http://www.thebuenavista.com/home/home.html,https://maps.google.com/?cid=14927879775871877059
The Coffee Berry SF,coffee shops,"1410 Lombard St, San Francisco, CA 94123, USA",CA,(415) 800-7073,http://thecoffeeberrysf.com/,https://maps.google.com/?cid=5181132708478222499
Sextant Coffee Roasters,coffee shops,"1415 Folsom St, San Francisco, CA 94103, USA",CA,(415) 355-1415,http://sextantcoffee.com/,https://maps.google.com/?cid=16500984014294458956
Flywheel Coffee Roasters,coffee shops,"672 Stanyan St, San Francisco, CA 94117, USA",CA,(415) 682-4023,https://flywheelcoffee.com/,https://maps.google.com/?cid=15746101247581114744
Blue Bottle Coffee,coffee shops,"315 Linden St, San Francisco, CA 94102, USA",CA,(510) 661-3510,https://bluebottlecoffee.com/,https://maps.google.com/?cid=13757888117856636050
Golden Bear Trading Company,coffee shops,"1401 6th Ave, San Francisco, CA 94122, USA",CA,(415) 664-5574,http://goldenbeartrading.com/,https://maps.google.com/?cid=11656752298015740408
Ritual Coffee Roasters,coffee shops,"432b Octavia St, San Francisco, CA 94102, USA",CA,(415) 865-0989,http://ritualcoffee.com/,https://maps.google.com/?cid=10903372771022708750
Ritual Coffee Roasters,coffee shops,"1026 Valencia St, San Francisco, CA 94110, USA",CA,(415) 641-1011,http://ritualcoffee.com/,https://maps.google.com/?cid=7742604836892468051
CoffeeShop,coffee shops,"2761 21st St, San Francisco, CA 94110, USA",CA,(415) 368-3802,https://www.coffeeshopsf.com/,https://maps.google.com/?cid=9445147020976918170
Four Barrel Coffee,coffee shops,"375 Valencia St, San Francisco, CA 94103, USA",CA,(415) 935-0604,http://www.fourbarrelcoffee.com/,https://maps.google.com/?cid=15508552329857280923
The Mill,coffee shops,"736 Divisadero St, San Francisco, CA 94117, USA",CA,(415) 345-1953,http://www.themillsf.com/,https://maps.google.com/?cid=1754822383999794408
Taylor Street Coffee Shop,coffee shops,"375 Taylor St, San Francisco, CA 94102, USA",CA,(415) 567-4031,http://taylor-street-coffee-shop.cafes-city.com/,https://maps.google.com/?cid=2227743258398093537
Doppio Coffee & Brunch,coffee shops,"1551 Mission St, San Francisco, CA 94103, USA",CA,(628) 867-7985,https://doppiosf.com/,https://maps.google.com/?cid=16475263059648961979
Peak Builders & Roofers of San Diego,roofers,"8340 Vickers St K, San Diego, CA 92111, United States",CA,NOT AVAILABLE,NOT AVAILABLE,https://maps.google.com/maps/place/?q=place_id:ChIJe8bZULLvTI4RZCnNkezHFGQ
Roofing Specialists of San Diego,roofers,"7905 Silverton Ave UNIT 112, San Diego, CA 92126, United States",CA,NOT AVAILABLE,NOT AVAILABLE,https://maps.google.com/maps/place/?q=place_id:ChIJ6Wc6jOIG3IARRR8xNOSkpMQ
Dana Logsdon Roofing & Solar,roofers,"1483 Cuyamaca St, El Cajon, CA 92020, United States",CA,NOT AVAILABLE,NOT AVAILABLE,https://maps.google.com/maps/place/?q=place_id:ChIJjQBmKdtU2YARhwWsYVqkAmA
Resilient Roofing,roofers,"7950 Dunbrook Rd, San Diego, CA 92126, United States",CA,NOT AVAILABLE,NOT AVAILABLE,https://maps.google.com/maps/place/?q=place_id:ChIJiWR0Ooyr3oAR7ye9O0OiuWc
Ascent Roofing San Diego,roofers,"2525 Southport Way ste j, National City, CA 91950, United States",CA,NOT AVAILABLE,NOT AVAILABLE,https://maps.google.com/maps/place/?q=place_id:ChIJAQDwFMZI2YAR5xcgVDz_GfI
619 Roofing,roofers,"3930 Oregon St Suite 254, San Diego, CA 92104, United States",CA,NOT AVAILABLE,NOT AVAILABLE,https://maps.google.com/maps/place/?q=place_id:ChIJ667abtUB3IAR2Plzz8VSmzk
"San Diego Roofing, INC.",roofers,"2811 Adams Ave, San Diego, CA 92116, United States",CA,NOT AVAILABLE,NOT AVAILABLE,https://maps.google.com/maps/place/?q=place_id:ChIJ-UZd9P1U2YAROsa56-bYZ20
The Roof Masters,roofers,"2304 La Mirada Dr, Vista, CA 92081, United States",LA,NOT AVAILABLE,NOT AVAILABLE,https://maps.google.com/maps/place/?q=place_id:ChIJ3-WYCUJw3IARmfRya1lWV1s
Atlas Roofing,roofers,"4455 Murphy Canyon Rd #100, San Diego, CA 92123, United States",CA,NOT AVAILABLE,NOT AVAILABLE,https://maps.google.com/maps/place/?q=place_id:ChIJ_ah-bc7_24ARQNUXApP18ls
Alma Roofing,roofers,"4538 Cass St, San Diego, CA 92109, United States",CA,NOT AVAILABLE,NOT AVAILABLE,https://maps.google.com/maps/place/?q=place_id:ChIJ86tTDlMB3IAROtDW1Yo67Mg
Build Brothers Inc.,roofers,"7765 Arjons Dr, San Diego, CA 92126, United States",CA,NOT AVAILABLE,NOT AVAILABLE,https://maps.google.com/maps/place/?q=place_id:ChIJ1TKfFGt13IARjJgDub9OxfM
TR Construction,roofers,"9335 Mira Mesa Blvd, San Diego, CA 92126, United States",CA,NOT AVAILABLE,NOT AVAILABLE,https://maps.google.com/maps/place/?q=place_id:ChIJSTAI0x3524AR_WsM3wxQlCw
San Diego County Roofing & Solar,roofers,"1761 Hotel Cir S Suite 110, San Diego, CA 92108, United States",CA,NOT AVAILABLE,NOT AVAILABLE,https://maps.google.com/maps/place/?q=place_id:ChIJ98GEl4sL3IARaLo9NhDrl-A
Colin's Emergency Roofers,roofers,"6922 Mission Gorge Rd #9030, San Diego, CA 92120, United States",CA,NOT AVAILABLE,NOT AVAILABLE,https://maps.google.com/maps/place/?q=place_id:ChIJF9U-5mRV2YARnYzw4lOSn0o
"Christian Roofing, Inc",roofers,"1226 Greenfield Dr, El Cajon, CA 92021, United States",CA,NOT AVAILABLE,NOT AVAILABLE,https://maps.google.com/maps/place/?q=place_id:ChIJkXknF0tZ2YAR5JmoNGsUXHw
RC Roofing Inc.,roofers,"8360 Clairemont Mesa Blvd STE 105, San Diego, CA 92111, United States",CA,NOT AVAILABLE,NOT AVAILABLE,https://maps.google.com/maps/place/?q=place_id:ChIJf9Wr9Mr_24ARO2KfdBiWJxY
"Premium Roof Services, Inc.",roofers,"659 Grand Ave, Spring Valley, CA 91977, United States",CA,NOT AVAILABLE,NOT AVAILABLE,https://maps.google.com/maps/place/?q=place_id:ChIJwQYEZ4NT2YARoLC2Xf0XzHQ
"Mark Anthony Construction and Roofing, Inc.",roofers,"133 N Pacific St Suite A, San Marcos, CA 92069, United States",CA,NOT AVAILABLE,NOT AVAILABLE,https://maps.google.com/maps/place/?q=place_id:ChIJ_6Yv45gK3IARfW7Bbks1UtU
Preman Roofing-Solar,roofers,"875 34th St, San Diego, CA 92102, United States",CA,NOT AVAILABLE,NOT AVAILABLE,https://maps.google.com/maps/place/?q=place_id:ChIJfYrgyZSq3oARpQG7O2bDJQQ
Exclusively Roofing Inc.,roofers,"4013 Texas St UNIT 4, San Diego, CA 92104, United States",CA,NOT AVAILABLE,NOT AVAILABLE,https://maps.google.com/maps/place/?q=place_id:ChIJQTODSFVT2YARFWdhIQiqIKo
The Coffee Movement,coffee shops,"1737 Balboa St, San Francisco, CA 94121, USA",CA,NOT AVAILABLE,https://www.thecoffeemovement.com/,https://maps.google.com/?cid=2726196137705445702
The Coffee Movement,coffee shops,"1030 Washington St, San Francisco, CA 94108, USA",CA,NOT AVAILABLE,https://www.thecoffeemovement.com/,https://maps.google.com/?cid=2067360649617373617
Peak Builders & Roofers of San Diego,roofers,"8340 Vickers St K, San Diego, CA 92111, United States",CA,NOT AVAILABLE,NOT AVAILABLE,https://maps.google.com/maps/place/?q=place_id:ChIJe8bZULLvTI4RZCnNkezHFGQ
Roofing Specialists of San Diego,roofers,"7905 Silverton Ave UNIT 112, San Diego, CA 92126, United States",CA,NOT AVAILABLE,NOT AVAILABLE,https://maps.google.com/maps/place/?q=place_id:ChIJ6Wc6jOIG3IARRR8xNOSkpMQ
Dana Logsdon Roofing & Solar,roofers,"1483 Cuyamaca St, El Cajon, CA 92020, United States",CA,NOT AVAILABLE,NOT AVAILABLE,https://maps.google.com/maps/place/?q=place_id:ChIJjQBmKdtU2YARhwWsYVqkAmA
Resilient Roofing,roofers,"7950 Dunbrook Rd, San Diego, CA 92126, United States",CA,NOT AVAILABLE,NOT AVAILABLE,https://maps.google.com/maps/place/?q=place_id:ChIJiWR0Ooyr3oAR7ye9O0OiuWc
Ascent Roofing San Diego,roofers,"2525 Southport Way ste j, National City, CA 91950, United States",CA,NOT AVAILABLE,NOT AVAILABLE,https://maps.google.com/maps/place/?q=place_id:ChIJAQDwFMZI2YAR5xcgVDz_GfI
619 Roofing,roofers,"3930 Oregon St Suite 254, San Diego, CA 92104, United States",CA,NOT AVAILABLE,NOT AVAILABLE,https://maps.google.com/maps/place/?q=place_id:ChIJ667abtUB3IAR2Plzz8VSmzk
"San Diego Roofing, INC.",roofers,"2811 Adams Ave, San Diego, CA 92116, United States",CA,NOT AVAILABLE,NOT AVAILABLE,https://maps.google.com/maps/place/?q=place_id:ChIJ-UZd9P1U2YAROsa56-bYZ20
The Roof Masters,roofers,"2304 La Mirada Dr, Vista, CA 92081, United States",LA,NOT AVAILABLE,NOT AVAILABLE,https://maps.google.com/maps/place/?q=place_id:ChIJ3-WYCUJw3IARmfRya1lWV1s
Atlas Roofing,roofers,"4455 Murphy Canyon Rd #100, San Diego, CA 92123, United States",CA,NOT AVAILABLE,NOT AVAILABLE,https://maps.google.com/maps/place/?q=place_id:ChIJ_ah-bc7_24ARQNUXApP18ls
Alma Roofing,roofers,"4538 Cass St, San Diego, CA 92109, United States",CA,NOT AVAILABLE,NOT AVAILABLE,https://maps.google.com/maps/place/?q=place_id:ChIJ86tTDlMB3IAROtDW1Yo67Mg
Build Brothers Inc.,roofers,"7765 Arjons Dr, San Diego, CA 92126, United States",CA,NOT AVAILABLE,NOT AVAILABLE,https://maps.google.com/maps/place/?q=place_id:ChIJ1TKfFGt13IARjJgDub9OxfM
TR Construction,roofers,"9335 Mira Mesa Blvd, San Diego, CA 92126, United States",CA,NOT AVAILABLE,NOT AVAILABLE,https://maps.google.com/maps/place/?q=place_id:ChIJSTAI0x3524AR_WsM3wxQlCw
San Diego County Roofing & Solar,roofers,"1761 Hotel Cir S Suite 110, San Diego, CA 92108, United States",CA,NOT AVAILABLE,NOT AVAILABLE,https://maps.google.com/maps/place/?q=place_id:ChIJ98GEl4sL3IARaLo9NhDrl-A
Colin's Emergency Roofers,roofers,"6922 Mission Gorge Rd #9030, San Diego, CA 92120, United States",CA,NOT AVAILABLE,NOT AVAILABLE,https://maps.google.com/maps/place/?q=place_id:ChIJF9U-5mRV2YARnYzw4lOSn0o
"Christian Roofing, Inc",roofers,"1226 Greenfield Dr, El Cajon, CA 92021, United States",CA,NOT AVAILABLE,NOT AVAILABLE,https://maps.google.com/maps/place/?q=place_id:ChIJkXknF0tZ2YAR5JmoNGsUXHw
RC Roofing Inc.,roofers,"8360 Clairemont Mesa Blvd STE 105, San Diego, CA 92111, United States",CA,NOT AVAILABLE,NOT AVAILABLE,https://maps.google.com/maps/place/?q=place_id:ChIJf9Wr9Mr_24ARO2KfdBiWJxY
"Premium Roof Services, Inc.",roofers,"659 Grand Ave, Spring Valley, CA 91977, United States",CA,NOT AVAILABLE,NOT AVAILABLE,https://maps.google.com/maps/place/?q=place_id:ChIJwQYEZ4NT2YARoLC2Xf0XzHQ
"Mark Anthony Construction and Roofing, Inc.",roofers,"133 N Pacific St Suite A, San Marcos, CA 92069, United States",CA,NOT AVAILABLE,NOT AVAILABLE,https://maps.google.com/maps/place/?q=place_id:ChIJ_6Yv45gK3IARfW7Bbks1UtU
Preman Roofing-Solar,roofers,"875 34th St, San Diego, CA 92102, United States",CA,NOT AVAILABLE,NOT AVAILABLE,https://maps.google.com/maps/place/?q=place_id:ChIJfYrgyZSq3oARpQG7O2bDJQQ
Exclusively Roofing Inc.,roofers,"4013 Texas St UNIT 4, San Diego, CA 92104, United States",CA,NOT AVAILABLE,NOT AVAILABLE,https://maps.google.com/maps/place/?q=place_id:ChIJQTODSFVT2YARFWdhIQiqIKo
The Coffee Movement,coffee shops,"1737 Balboa St, San Francisco, CA 94121, USA",CA,NOT AVAILABLE,https://www.thecoffeemovement.com/,https://maps.google.com/?cid=2726196137705445702
The Coffee Movement,coffee shops,"1030 Washington St, San Francisco, CA 94108, USA",CA,NOT AVAILABLE,https://www.thecoffeemovement.com/,https://maps.google.com/?cid=2067360649617373617
Peak Builders & Roofers of San Diego,roofers,"8340 Vickers St K, San Diego, CA 92111, USA",CA,(619) 330-8185,https://peakbuilderssd.com/,https://maps.google.com/?cid=7211608722199357796
Roofing Specialists of San Diego,roofers,"7905 Silverton Ave UNIT 112, San Diego, CA 92126, USA",CA,(858) 922-5903,https://roofingspecialistsofsandiego.com/,https://maps.google.com/?cid=14169631627649556293
Dana Logsdon Roofing & Solar,roofers,"1483 Cuyamaca St, El Cajon, CA 92020, USA",CA,(619) 390-8177,https://www.roofon.com/?utm_source=organic&utm_medium=google_business_profile,https://maps.google.com/?cid=6918272685687178631
Resilient Roofing,roofers,"7950 Dunbrook Rd, San Diego, CA 92126, USA",CA,(619) 501-2138,https://www.resilientroofing.com/,https://maps.google.com/?cid=7474183466246809583
Ascent Roofing San Diego,roofers,"2525 Southport Way ste j, National City, CA 91950, USA",CA,(858) 462-7753,https://www.ascentroofingsd.com/,https://maps.google.com/?cid=17445255266170836967
619 Roofing,roofers,"3930 Oregon St Suite 254, San Diego, CA 92104, USA",CA,(619) 609-0214,https://619roofing.com/,https://maps.google.com/?cid=4151002491094563288
"San Diego Roofing, INC.",roofers,"2811 Adams Ave, San Diego, CA 92116, USA",CA,(619) 280-1000,http://www.sandiegoroofing.com/,https://maps.google.com/?cid=7883508159044240954
The Roof Masters,roofers,"2304 La Mirada Dr, Vista, CA 92081, USA",LA,(619) 943-1087,http://socalroofmasters.com/?utm_campaign=gmb,https://maps.google.com/?cid=6581824322480043161
Atlas Roofing,roofers,"4455 Murphy Canyon Rd #100, San Diego, CA 92123, USA",CA,(866) 303-2912,https://atlasroofingpro.com/service-area/san-diego/?utm_source=google&utm_medium=gbp&utm_campaign=san_diego,https://maps.google.com/?cid=6625628013559534912
Alma Roofing,roofers,"4538 Cass St, San Diego, CA 92109, USA",CA,(619) 693-3670,https://www.almaroofingsd.com/?utm_campaign=gmb,https://maps.google.com/?cid=14478011270056824890
Build Brothers Inc.,roofers,"7765 Arjons Dr, San Diego, CA 92126, USA",CA,(760) 566-7734,http://www.buildbrothersinc.com/,https://maps.google.com/?cid=17565532506978228364
TR Construction,roofers,"9335 Mira Mesa Blvd, San Diego, CA 92126, USA",CA,(858) 537-6490,http://www.tr-construction.com/,https://maps.google.com/?cid=3212280450433969149
San Diego County Roofing & Solar,roofers,"1761 Hotel Cir S Suite 110, San Diego, CA 92108, USA",CA,(855) 732-6868,https://sandiegocountyroofing.com/,https://maps.google.com/?cid=16183662240841185896
Colin's Emergency Roofers,roofers,"6922 Mission Gorge Rd #9030, San Diego, CA 92120, USA",CA,(858) 923-4199,NOT AVAILABLE,https://maps.google.com/?cid=5377177369091017885
"Christian Roofing, Inc",roofers,"1226 Greenfield Dr, El Cajon, CA 92021, USA",CA,(619) 812-2407,https://www.christianroofing.com/,https://maps.google.com/?cid=8961059809237965284
RC Roofing Inc.,roofers,"8360 Clairemont Mesa Blvd STE 105, San Diego, CA 92111, USA",CA,(858) 274-8920,https://rcroofinginc.com/,https://maps.google.com/?cid=1596409624706114107
"Premium Roof Services, Inc.",roofers,"659 Grand Ave, Spring Valley, CA 91977, USA",CA,(619) 239-8880,https://www.premiumroofservices.com/,https://maps.google.com/?cid=8416128180615032992
"Mark Anthony Construction and Roofing, Inc.",roofers,"133 N Pacific St Suite A, San Marcos, CA 92069, USA",CA,(760) 803-7534,http://www.markanthonyconstructionandroofing.com/,https://maps.google.com/?cid=15371407076265913981
Preman Roofing-Solar,roofers,"875 34th St, San Diego, CA 92102, USA",CA,(619) 568-2762,http://www.premanroofing.com/?utm_source=GMBlisting&utm_medium=organic&utm_source=GMBlisting&utm_medium=organic,https://maps.google.com/?cid=298859794146197925
Exclusively Roofing Inc.,roofers,"4013 Texas St UNIT 4, San Diego, CA 92104, USA",CA,(619) 663-1261,https://www.exclusivelyroofinginc.com/,https://maps.google.com/?cid=12258985137598981909
Benefit Roofing,roofers,"360 E 2nd St 8th Floor, Los Angeles, CA 90012, USA",CA,(800) 670-2551,http://benefitroofing.com/,https://maps.google.com/?cid=16239857407241510872
Quality Roofing Specialists,roofers,"1444 N Poinsettia Pl Unit 308, Los Angeles, CA 90046, USA",CA,(310) 340-1643,https://qualityroofingspecialists.com/,https://maps.google.com/?cid=7072551311221462379
The Local Roofers Builders,roofers,"446 S Curson Ave, Los Angeles, CA 90036, USA",CA,(213) 322-6765,NOT AVAILABLE,https://maps.google.com/?cid=15011340305109380539
Golden Team Roofing,roofers,"8228 W 3rd St, Los Angeles, CA 90048, USA",CA,(310) 499-6183,https://goldenteamroofs.com/,https://maps.google.com/?cid=1004257637920752752
Bilt-Well Roofing,roofers,"3310 Verdugo Rd, Los Angeles, CA 90065, USA",CA,(323) 254-2888,https://biltwellroofing.com/,https://maps.google.com/?cid=10765647654940047100
All In Roofing,roofers,"800 S Eastman Ave, Los Angeles, CA 90023, USA",CA,(888) 695-7473,https://allinroofingla.com/,https://maps.google.com/?cid=6622029887726846296
Specialist Roofing & Repair,roofers,"1061 N Victory Pl, Burbank, CA 91502, USA",CA,(626) 624-4897,https://www.specialistroofing.com/,https://maps.google.com/?cid=5746429745870777626
LARA'S ROOF,roofers,"344 Hauser Blvd, Los Angeles, CA 90036, USA",CA,(888) 708-8889,https://www.larasroof.com/,https://maps.google.com/?cid=14941514582686425519
Alpha One Construction Inc,roofers,"5827 Franklin Ave, Los Angeles, CA 90028, USA",CA,(818) 793-1060,https://alphaoneconstructioninc.com/,https://maps.google.com/?cid=14754859427408457089
Roof Replacement Inc,roofers,"7034 Van Nuys Blvd Suite #200, Van Nuys, CA 91405, USA",CA,(213) 523-3145,http://www.roofreplacementca.com/?utm_campaign=gmb,https://maps.google.com/?cid=11797993787120007684
Costar Roofing Los Angeles,roofers,"718 S Hill St, Los Angeles, CA 90014, USA",CA,(818) 639-7731,https://costarroofinginc.com/?utm_campaign=gmb,https://maps.google.com/?cid=1152198601632468718
Metal Roofing Los Angeles,roofers,"1225 Cypress Ave Ste 3 #V119, Los Angeles, CA 90065, USA",CA,(323) 968-6348,https://www.metalroofinglosangeles.net/,https://maps.google.com/?cid=9698397012099201949
Lawsons Los Angeles Roofing | Roof Replacement & Repair,roofers,"14412 Victory Blvd STE 112, Van Nuys, CA 91401, USA",CA,(747) 233-5690,https://roofing-contractor.us/,https://maps.google.com/?cid=13070784424298115348
All Things Roofing LA,roofers,"3746 W 104th St, Inglewood, CA 90303, USA",CA,(310) 435-8293,http://allthingsroofing.squarespace.com/,https://maps.google.com/?cid=10117052485564375498
Power Roofing,roofers,"950 S Fairfax Ave Suite 238, Los Angeles, CA 90036, USA",CA,(424) 999-7359,http://www.power-roofing.com/,https://maps.google.com/?cid=4808282510465198429
Best Team Roofing & Exteriors,roofers,"155 Occidental Blvd #228, Los Angeles, CA 90026, USA",CA,(213) 642-2600,https://allstarsroofingpros.com/,https://maps.google.com/?cid=4129982399364757687
JM Roofing 3rd Generation,roofers,"1242 E 59th St, Los Angeles, CA 90001, USA",CA,(323) 245-9154,NOT AVAILABLE,https://maps.google.com/?cid=13568873739710926561
Rafael And Iris Roofing,roofers,"5352 Laurel Canyon Blvd Ste 206, Valley Village, CA 91607, USA",CA,(818) 629-9994,http://rafaelandirisroofing.com/,https://maps.google.com/?cid=8252237501946833951
Bumble Roofing of Los Angeles,roofers,"6800 Owensmouth Ave STE 410, Canoga Park, CA 91303, USA",CA,(844) 558-1002,https://bumbleroofing.com/los-angeles/?utm_source=google&utm_medium=organic&utm_campaign=LosAngeles,https://maps.google.com/?cid=14137950289443627928
My Way Roofing,roofers,"6717 Wynne Ave, Reseda, CA 91335, USA",CA,(866) 220-0314,https://mywayroofing.com/,https://maps.google.com/?cid=16265527100781248567
Eco Smart Roofer,roofers,"553 25th Ave, San Francisco, CA 94121, USA",CA,(415) 240-9840,https://www.ecosmartroofer.com/,https://maps.google.com/?cid=9390240640087554106
ROOFWORX Inc. â€“ Licensed Roofing Contractor in San Francisco,roofers,"1485 Bayshore Blvd 182 suite 418, San Francisco, CA 94124, USA",CA,(855) 209-0872,https://roofworxca.com/?utm_source=google&utm_medium=google-business-profile&utm_campaign=san-francisco,https://maps.google.com/?cid=824279932290793173
7x7 Roofing,roofers,"2443 Fillmore St, San Francisco, CA 94115, USA",CA,(415) 535-8170,https://www.7x7roofing.com/,https://maps.google.com/?cid=16936888400948220706
ROOF EXPRESS,roofers,"58 W Portal Ave, San Francisco, CA 94127, USA",CA,(650) 666-5554,https://roof-ex.com/,https://maps.google.com/?cid=13257844389379386946
ELM Roofing Contractors Inc,roofers,"1485 Bayshore Blvd #320p, San Francisco, CA 94124, USA",CA,(415) 534-4396,https://elmroofingcontractor.com/?utm_source=GBP&utm_medium=Google&utm_campaign=gbp_traffic,https://maps.google.com/?cid=7236100446150574038
"Mr. Roofing, Inc.",roofers,"101 1st St, South San Francisco, CA 94080, USA",CA,(650) 832-9995,https://www.mrroofing.net/,https://maps.google.com/?cid=9636288277692146844
Apollo Roofing Company,roofers,"500 Beale St #129, San Francisco, CA 94105, USA",CA,(925) 701-8458,https://www.apolloroofingcompany.com/locations/san-francisco,https://maps.google.com/?cid=4118125305189557039
SF Roof Specialists,roofers,"2001 Van Ness Ave, San Francisco, CA 94109, USA",CA,(628) 209-0999,https://sanfranciscoroofspecialists.homes/,https://maps.google.com/?cid=3106237835116862131
Marina Bay Roofing,roofers,"4411 Geary Blvd # 301, San Francisco, CA 94118, USA",CA,(628) 233-8140,https://marinabayroofing.com/,https://maps.google.com/?cid=2736931817374382043
Anthony's Roofing Company,roofers,"5520 Geary Blvd, San Francisco, CA 94121, USA",CA,(628) 300-0309,https://anthonysroofingcompany.homes/,https://maps.google.com/?cid=11109372266409711431
Premier Roofing Solutions,roofers,"42 Dore St, San Francisco, CA 94103, USA",CA,(628) 877-2090,https://premierroofingsolutions.homes/,https://maps.google.com/?cid=16263930553591933533
Tom Lee Roofing Inc,roofers,"243 Onondaga Ave, San Francisco, CA 94112, USA",CA,(415) 333-5373,http://www.tomleeroofing.com/,https://maps.google.com/?cid=14901275999793543087
Metal Roofing San Francisco,roofers,"Yerba Buena Square Shopping Center, 430 Howard St #801, San Francisco, CA 94103, USA",CA,(415) 325-2038,https://www.metalroofingsanfrancisco.com/,https://maps.google.com/?cid=10051708388536904384
San Francisco Roofing Pro,roofers,"1727 Taraval St, San Francisco, CA 94116, USA",CA,(628) 500-7390,https://apexsheetmetal.homes/,https://maps.google.com/?cid=15682379421052012589
"Ace Roofing SF, Inc",roofers,"1525 Bancroft Ave, San Francisco, CA 94124, USA",CA,(415) 872-9300,https://aceroofingsf.com/,https://maps.google.com/?cid=8286340216768527095
Blake Roofing,roofers,"1900 Mission St, San Francisco, CA 94103, USA",CA,(628) 500-9304,https://blakeroofing.homes/,https://maps.google.com/?cid=7916360223679354894
Royal Roofing CA,roofers,"109 Northcrest Dr, South San Francisco, CA 94080, USA",CA,(408) 418-2474,https://royalroofingca.com/,https://maps.google.com/?cid=4780210038701512912
Bay Contractors & Roofing,roofers,"2428 Clement St, San Francisco, CA 94121, USA",CA,(628) 300-3066,https://baycontractorsroofing.homes/,https://maps.google.com/?cid=1709402141551204227
Apex Roofing Company,roofers,"2181 Irving St, San Francisco, CA 94122, USA",CA,(628) 500-9096,https://apexroofingcompany.homes/,https://maps.google.com/?cid=5186171715514387222
New City Roofing Co,roofers,"2825 Mariposa St, San Francisco, CA 94110, USA",CA,(628) 300-3022,https://newcityroofingco.homes/,https://maps.google.com/?cid=6834435743793493550
Phoenix Roofing and Repair,roofers,"532 E Maryland Ave # F, Phoenix, AZ 85012, USA",AZ,(602) 497-0154,https://phoenixroofingandrepair.com/,https://maps.google.com/?cid=5726557246890107839
Stonecreek Roofing,roofers,"10221 N 32nd St ste a, Phoenix, AZ 85028, USA",AZ,(602) 324-3400,https://www.stonecreekroofingaz.com/,https://maps.google.com/?cid=11955071627066017057
Lyons Roofing,roofers,"878 W Illini St, Phoenix, AZ 85041, USA",AZ,(602) 598-5877,https://www.lyonsroofing.com/,https://maps.google.com/?cid=11621061264450053739
Reimagine Roofing,roofers,"1100 E Washington St #200, Phoenix, AZ 85034, USA",AZ,(480) 900-7663,https://www.reimagineroofing.com/,https://maps.google.com/?cid=2584176322986812536
Brown Roofing LLC,roofers,"11627 N 17th Pl, Phoenix, AZ 85020, USA",AZ,(602) 626-5559,https://www.brownroofingaz.com/,https://maps.google.com/?cid=69019602943403934
Arizona Roofers,roofers,"4836 E McDowell Rd C100, Phoenix, AZ 85008, USA",AZ,(480) 613-8932,https://arizonaroofers.com/,https://maps.google.com/?cid=12105835000862144664
Scott Roofing Company,roofers,"24777 N 15th Ave, Phoenix, AZ 85085, USA",AZ,(602) 442-7663,https://scottroofingco.com/,https://maps.google.com/?cid=15607050616989587939
TSM Roofing LLC,roofers,"2401 W Behrend Dr Suite 33, Phoenix, AZ 85027, USA",AZ,(623) 213-8267,http://tsmroofs.com/,https://maps.google.com/?cid=13409765124514850030
AZ Shingle Pros,roofers,"22402 N 24th Ave Ste 3, Phoenix, AZ 85027, USA",AZ,(602) 888-3744,https://azshinglepros.com/?utm_source=google&utm_medium=organic&utm_campaign=gmb,https://maps.google.com/?cid=12488864221087961197
Phoenix Roofers by Allstate Roofing Contractors,roofers,"2955 W Clarendon Ave, Phoenix, AZ 85017, USA",AZ,(602) 484-7663,https://www.allstateroofingaz.com/phoenix/,https://maps.google.com/?cid=5608614300459246287
Rob's Roofing LLC,roofers,"2198 E Camelback Rd Ste 200, Phoenix, AZ 85016, USA",AZ,(833) 410-9663,https://robsroofingaz.com/,https://maps.google.com/?cid=13643638388667280388
Multi Pro Roof Solutions,roofers,"2027 W Bethany Home Rd, Phoenix, AZ 85015, USA",AZ,(602) 888-7663,http://www.multiproroof.com/,https://maps.google.com/?cid=6168134536293989557
Arizona Roofing and Restoration,roofers,"6531 N 10th Pl, Phoenix, AZ 85014, USA",AZ,(480) 771-8876,https://azroofpros.com/,https://maps.google.com/?cid=2716455707767470745
Phoenix Roofing,roofers,"20 E Thomas Rd #2200, Phoenix, AZ 85012, USA",AZ,(480) 487-5233,https://phoenixroofing.com/,https://maps.google.com/?cid=11016945960069046810
KY-KO Roofing,roofers,"1825 W Knudsen Dr #220B, Phoenix, AZ 85027, USA",AZ,(602) 755-4065,https://www.kykoroofing.com/,https://maps.google.com/?cid=835768753904804079
"Right Way Roofing, Inc.",roofers,"8255 E Willetta St, Mesa, AZ 85207, USA",AZ,(602) 461-7258,https://azroof.com/?utm_source=GMB&utm_medium=local&utm_campaign=mesa-az,https://maps.google.com/?cid=13143204988469895783
SUNVEK Roofing,roofers,"525 E Pinnacle Peak Rd #180, Phoenix, AZ 85024, USA",AZ,(623) 349-7663,https://sunvek.com/,https://maps.google.com/?cid=10150540721923233754
RENCO Roofing,roofers,"2210 W Shangri La Rd a1, Phoenix, AZ 85029, USA",LA,(602) 867-9386,https://www.rencoroofing.com/?utm_source=google_business_profile&utm_medium=website_link&utm_campaign=gmb&utm_id=local_seo,https://maps.google.com/?cid=1714919149550562573
Reyes Roofing LLC,roofers,"2733 W Maryland Ave, Phoenix, AZ 85017, USA",AZ,(480) 828-3040,http://reyesroofingllc.co/,https://maps.google.com/?cid=1235763497814630969
Canyon State Roofing & Consulting,roofers,"4809 E Thistle Landing Dr #100, Phoenix, AZ 85044, USA",AZ,(602) 400-1635,https://canyonstateroofs.com/,https://maps.google.com/?cid=16399829067845022788
The Roofing Company LLC,roofers,"3432 N Bruce St, N #3, North Las Vegas, NV 89030, USA",NV,(702) 903-4225,https://roofingcompanylv.com/,https://maps.google.com/?cid=1514334069775493058
Discount Roofing of Nevada LLC,roofers,"6610 W Atwood Ave, Las Vegas, NV 89108, USA",NV,(702) 927-0008,http://www.discountroofingnv.com/,https://maps.google.com/?cid=2350267546420272425
Desert Valley Roofing LLC,roofers,"8320 S Lindell Rd, Las Vegas, NV 89139, USA",NV,(702) 558-8775,http://www.desertvalleyroofingvegas.com/,https://maps.google.com/?cid=16704616201283284445
Las Vegas Roofing Repair,roofers,"3301 W Martin Ave, Las Vegas, NV 89118, USA",NV,NOT AVAILABLE,http://www.dandlroofing.com/,https://maps.google.com/?cid=11664454547714436208
Fortitude Roofing,roofers,"1310 S 3rd St Suite 100, Las Vegas, NV 89104, USA",NV,(725) 233-0251,https://fortituderoofing.com/,https://maps.google.com/?cid=8753335246706531096
Best Choice Roofing,roofers,"6280 S Valley View Blvd # 604, Las Vegas, NV 89118, USA",NV,(725) 215-6117,https://www.bestchoiceroofing.com/locations/nevada/las-vegas/?utm_source=gmb&utm_medium=organic,https://maps.google.com/?cid=5900157625049306901
Vegas Born Roofing,roofers,"4205 W Tompkins Ave STE 6, Las Vegas, NV 89103, USA",NV,(702) 876-2630,https://vegasbornroofing.com/,https://maps.google.com/?cid=17679073800433065916
Integrity Roofing LLC,roofers,"4020 N Cunning Fellow Ct, Las Vegas, NV 89129, USA",CT,(702) 205-8080,https://integrityroofinglv.com/,https://maps.google.com/?cid=8260283229744920918
"The Roof Doctor, LLC",roofers,"5000 W Oakey Blvd, Las Vegas, NV 89146, USA",NV,(702) 251-7663,https://theroofdoctorlv.com/,https://maps.google.com/?cid=662201245901096100
Professional Roofing Services,roofers,"4180 W Patrick Ln, Las Vegas, NV 89118, USA",NV,(702) 500-0670,https://www.onestoproofshop.com/,https://maps.google.com/?cid=4622737674934180277
First Quality Roofing & Insulation,roofers,"3141 Westwood Dr, Las Vegas, NV 89109, USA",NV,(702) 262-7847,http://www.firstqualityroof.com/,https://maps.google.com/?cid=6789825689490306611
Commercial Roofers Inc,roofers,"3865 W Naples Dr #3801, Las Vegas, NV 89103, USA",NV,(702) 876-1777,http://www.commroof.com/,https://maps.google.com/?cid=18233161027263005008
Rhino Roofing LLC,roofers,"3111 S Valley View Blvd Suite B-102, Las Vegas, NV 89102, USA",NV,(702) 805-8100,https://rhinoroofingllcnv.com/,https://maps.google.com/?cid=7331276573681413095
"Ariat Roofing, Inc.",roofers,"3261 E Warm Springs Rd, Las Vegas, NV 89120, USA",NV,(702) 982-1382,https://ariatroofing.com/,https://maps.google.com/?cid=11995173406488438414
Erie Home,roofers,"2830 Ferne Drive Building E, Las Vegas, NV 89104, USA",NV,(725) 201-9433,https://eriehome.com/locations/roofing/las-vegas-nv?utm_source=gbp&utm_medium=roofing&utm_campaign=Las-Vegas,https://maps.google.com/?cid=2446471086850472782
Nevada Exteriors - Roofing,roofers,"6295 Harrison Dr Ste 7, Las Vegas, NV 89120, USA",NV,(702) 210-6709,https://nevadaexteriors.com/,https://maps.google.com/?cid=2970193626993925119
All State Roofing,roofers,"1810 E Sahara Ave #327, Las Vegas, NV 89104, USA",NV,(702) 248-7663,http://www.roof.vegas/,https://maps.google.com/?cid=15028779800677253963
One Roofing Company,roofers,"3625 W Teco Ave #10, Las Vegas, NV 89118, USA",NV,(702) 463-7663,http://www.oneroofingcompany.com/,https://maps.google.com/?cid=15413655920349437983
A Step Above Inc.,roofers,"3400 W Desert Inn Rd #14, Las Vegas, NV 89102, USA",NV,(702) 810-7479,http://astepabovelasvegas.com/,https://maps.google.com/?cid=17825641177829966618
Roof It Right,roofers,"2410 N Decatur Blvd #135, Las Vegas, NV 89108, USA",NV,(702) 791-2475,http://www.roofitright.com/,https://maps.google.com/?cid=12512745373537365799
